{"type": "Feature", "properties": {"source": "OpenStreetMap contributors", "license": "ODbL-1.0", "reviewStatus": "mapped-candidate-operational-review-pending", "lengthMetres": 2513.017526695265}, "geometry": {"type": "LineString", "coordinates": [[18.44934, -33.92549], [18.44911, -33.92546], [18.44888, -33.92544], [18.44871, -33.92541], [18.44853, -33.92539], [18.44836, -33.92537], [18.44816, -33.92535], [18.44795, -33.92533], [18.44779, -33.92531], [18.44761, -33.92529], [18.44744, -33.92528], [18.44727, -33.92527], [18.44705, -33.92526], [18.44692, -33.92526], [18.4468, -33.92526], [18.4466, -33.92527], [18.44641, -33.92527], [18.44622, -33.92527], [18.44602, -33.92528], [18.44581, -33.92528], [18.44559, -33.92529], [18.44538, -33.92529], [18.44517, -33.92529], [18.44495, -33.9253], [18.44473, -33.9253], [18.4445, -33.92531], [18.44427, -33.92532], [18.44413, -33.92533], [18.44389, -33.92534], [18.44365, -33.92535], [18.4434, -33.92537], [18.44316, -33.92538], [18.44291, -33.92539], [18.44268, -33.92541], [18.44244, -33.92542], [18.4422, -33.92543], [18.44196, -33.92545], [18.44173, -33.92546], [18.44148, -33.92547], [18.44123, -33.92549], [18.44098, -33.9255], [18.44073, -33.92551], [18.44048, -33.92553], [18.44023, -33.92554], [18.43999, -33.92555], [18.43974, -33.92557], [18.43949, -33.92558], [18.43924, -33.92559], [18.43899, -33.92561], [18.43874, -33.92562], [18.43849, -33.92563], [18.43825, -33.92565], [18.438, -33.92566], [18.43775, -33.92567], [18.43757, -33.92568], [18.4374, -33.92569], [18.43716, -33.92569], [18.43698, -33.92569], [18.43679, -33.92569], [18.43661, -33.92569], [18.43637, -33.92568], [18.43613, -33.92567], [18.43589, -33.92566], [18.43564, -33.92565], [18.4354, -33.92564], [18.43516, -33.92563], [18.43492, -33.92562], [18.43468, -33.92561], [18.43444, -33.9256], [18.4342, -33.92559], [18.43396, -33.92558], [18.43372, -33.92557], [18.43348, -33.92556], [18.43344, -33.92556], [18.4332, -33.92555], [18.43296, -33.92554], [18.43278, -33.92553], [18.4326, -33.92553], [18.43237, -33.92551], [18.43218, -33.9255], [18.43205, -33.92549], [18.43189, -33.92547], [18.43165, -33.92544], [18.43145, -33.9254], [18.4313, -33.92536], [18.43114, -33.92532], [18.43094, -33.92526], [18.4308, -33.92523], [18.43067, -33.92519], [18.43048, -33.92513], [18.43028, -33.92507], [18.43011, -33.92502], [18.42995, -33.92496], [18.4299, -33.92495], [18.42972, -33.92487], [18.42954, -33.9248], [18.42938, -33.92472], [18.42924, -33.92463], [18.42913, -33.92457], [18.42902, -33.9245], [18.42889, -33.92442], [18.42883, -33.92438], [18.42866, -33.92428], [18.42846, -33.92416], [18.42857, -33.92421], [18.42868, -33.92426], [18.4288, -33.92431], [18.42892, -33.92436], [18.4291, -33.92444], [18.42923, -33.9245], [18.42937, -33.92455], [18.4295, -33.92461], [18.42963, -33.92466], [18.42949, -33.92458], [18.42936, -33.92451], [18.42917, -33.9244], [18.42902, -33.9243], [18.42887, -33.9242], [18.42873, -33.92408], [18.4286, -33.92399], [18.42848, -33.92389], [18.42835, -33.92379], [18.42822, -33.9237], [18.42809, -33.92361], [18.42796, -33.92351], [18.42778, -33.92338], [18.4276, -33.92325], [18.42741, -33.92312], [18.42723, -33.92298], [18.42705, -33.92285], [18.42686, -33.92272], [18.42668, -33.92258], [18.4265, -33.92245], [18.42631, -33.92232], [18.42613, -33.92219]]}}