{"type":"FeatureCollection","attribution":"© OpenStreetMap contributors, ODbL 1.0","generatedAt":"2026-09-23T01:11:37.006Z","features":[{"type":"Feature","properties":{"id":"pretoria","name":"Pretoria","boundaryName":"Tshwane Ward 60, Pretoria, City of Tshwane Metropolitan Municipality, Gauteng, South Africa","osmType":"relation","osmId":3598549,"source":"OpenStreetMap contributors","sourceUrl":"https://www.openstreetmap.org/relation/3598549"},"bbox":[28.1457505,-25.771966,28.195189,-25.7363885],"geometry":{"type":"Polygon","coordinates":[[[28.1457505,-25.7603268],[28.146495,-25.769198],[28.156577,-25.768507],[28.156872,-25.771966],[28.195189,-25.7659929],[28.1951145,-25.7642328],[28.1932415,-25.7636028],[28.1883725,-25.758406],[28.1854746,-25.7569743],[28.1913832,-25.7565885],[28.1911179,-25.7536364],[28.188676,-25.753815],[28.1881113,-25.7471258],[28.1873084,-25.7465104],[28.1729729,-25.7475266],[28.1721375,-25.744938],[28.1715918,-25.7378585],[28.1709941,-25.7363885],[28.1693924,-25.7364542],[28.167631,-25.737152],[28.1677055,-25.7379243],[28.1664184,-25.7395096],[28.1669129,-25.7430866],[28.1542892,-25.7439618],[28.1516153,-25.7438423],[28.148751,-25.745089],[28.1472992,-25.7469251],[28.1461037,-25.7492992],[28.1473062,-25.749224],[28.1480414,-25.7578315],[28.1457505,-25.7603268]]]}},{"type":"Feature","properties":{"id":"johannesburg","name":"Johannesburg","boundaryName":"Johannesburg Ward 60, City of Johannesburg Metropolitan Municipality, Gauteng, South Africa","osmType":"relation","osmId":3597432,"source":"OpenStreetMap contributors","sourceUrl":"https://www.openstreetmap.org/relation/3597432"},"bbox":[28.0117777,-26.2054726,28.0541438,-26.1829751],"geometry":{"type":"Polygon","coordinates":[[[28.0117777,-26.1847089],[28.0129889,-26.1849689],[28.0174637,-26.1869458],[28.0178654,-26.1880447],[28.0202877,-26.1918376],[28.020877,-26.1974906],[28.018162,-26.1978804],[28.0185561,-26.1993396],[28.0189127,-26.1996639],[28.0188468,-26.2019495],[28.0255458,-26.2027057],[28.0257671,-26.2038901],[28.0275228,-26.2043447],[28.0274954,-26.2047096],[28.0326602,-26.2050013],[28.0360946,-26.2046292],[28.0376235,-26.2021274],[28.0375211,-26.2013532],[28.0416132,-26.2009007],[28.0422063,-26.2054726],[28.0541438,-26.2041025],[28.0531519,-26.1995493],[28.0451604,-26.2004733],[28.044401,-26.1948167],[28.0461716,-26.1946236],[28.045627,-26.1908546],[28.0448115,-26.1909446],[28.044588,-26.1890762],[28.0458019,-26.186839],[28.0364627,-26.1863381],[28.0356657,-26.187226],[28.033623,-26.1870186],[28.031411,-26.1860109],[28.0194777,-26.1829751],[28.0124394,-26.1841595],[28.0117777,-26.1847089]]]}},{"type":"Feature","properties":{"id":"kimberley","name":"Kimberley","boundaryName":"Sol Plaatje Ward 21, Sol Plaatje Local Municipality, Frances Baard District Municipality, Northern Cape, South Africa","osmType":"relation","osmId":3578973,"source":"OpenStreetMap contributors","sourceUrl":"https://www.openstreetmap.org/relation/3578973"},"bbox":[24.763541,-28.755129,24.810034,-28.6940981],"geometry":{"type":"Polygon","coordinates":[[[24.763541,-28.7360855],[24.769916,-28.735852],[24.770241,-28.738289],[24.771431,-28.739788],[24.774233,-28.741532],[24.776432,-28.742019],[24.7701184,-28.7418234],[24.7691223,-28.7420438],[24.7717595,-28.7445258],[24.77694,-28.748449],[24.782323,-28.755129],[24.789292,-28.74699],[24.790282,-28.747378],[24.793959,-28.747819],[24.795922,-28.747158],[24.797379,-28.745509],[24.796741,-28.745402],[24.798572,-28.743452],[24.800967,-28.737813],[24.810034,-28.740362],[24.808674,-28.738946],[24.809448,-28.738332],[24.808389,-28.737191],[24.807901,-28.737081],[24.807318,-28.737547],[24.790458,-28.72006],[24.7900958,-28.7173148],[24.7888996,-28.715579],[24.7865006,-28.7142657],[24.7838351,-28.7140993],[24.7843088,-28.7129779],[24.7856183,-28.7132496],[24.798339,-28.706707],[24.796584,-28.704924],[24.79666,-28.70315],[24.794701,-28.702057],[24.792753,-28.7028],[24.791354,-28.699161],[24.788329,-28.694131],[24.787074,-28.694766],[24.7780842,-28.6940981],[24.7755647,-28.7159663],[24.7742546,-28.7187003],[24.767556,-28.72705],[24.764231,-28.731751],[24.763541,-28.7360855]]]}},{"type":"Feature","properties":{"id":"de-aar","name":"De Aar","boundaryName":"Emthanjeni Ward 5, Emthanjeni Local Municipality, Pixley ka Seme District Municipality, Northern Cape, 7000, South Africa","osmType":"relation","osmId":3578382,"source":"OpenStreetMap contributors","sourceUrl":"https://www.openstreetmap.org/relation/3578382"},"bbox":[23.967761,-30.701858,24.0156999,-30.62975],"geometry":{"type":"Polygon","coordinates":[[[23.967761,-30.701569],[24.003539,-30.701858],[24.0102422,-30.6682754],[24.0126689,-30.664159],[24.0144422,-30.66579],[24.0156999,-30.6655426],[24.0147159,-30.6618275],[24.0143284,-30.6583553],[24.013349,-30.632009],[24.012779,-30.631831],[24.011598,-30.630591],[24.0106,-30.630041],[24.008698,-30.62975],[23.99227,-30.631002],[23.993431,-30.63536],[23.995107,-30.647636],[23.967761,-30.701569]]]}},{"type":"Feature","properties":{"id":"beaufort-west","name":"Beaufort West","boundaryName":"Beaufort West Ward 7, Beaufort West Local Municipality, Central Karoo District Municipality, Western Cape, South Africa","osmType":"relation","osmId":6581999,"source":"OpenStreetMap contributors","sourceUrl":"https://www.openstreetmap.org/relation/6581999"},"bbox":[21.18755,-32.7866,22.8014051,-31.58346],"geometry":{"type":"Polygon","coordinates":[[[21.18755,-32.50706],[21.18781,-32.50776],[21.18756,-32.50923],[21.18777,-32.51012],[21.18934,-32.51198],[21.19029,-32.51228],[21.19221,-32.51394],[21.19293,-32.51405],[21.19578,-32.5132],[21.19674,-32.51357],[21.19717,-32.51433],[21.199,-32.51474],[21.20121,-32.51419],[21.20351,-32.51669],[21.20661,-32.51677],[21.20808,-32.51779],[21.20957,-32.51762],[21.21209,-32.51894],[21.21506,-32.51962],[21.21587,-32.52008],[21.21803,-32.52017],[21.22353,-32.52193],[21.22459,-32.52208],[21.22668,-32.52177],[21.22859,-32.52296],[21.22912,-32.52353],[21.22922,-32.52565],[21.22983,-32.5264],[21.23146,-32.52738],[21.23172,-32.52908],[21.23336,-32.52848],[21.23449,-32.5294],[21.23525,-32.53095],[21.23539,-32.5324],[21.23638,-32.53321],[21.23624,-32.53428],[21.23657,-32.53479],[21.23665,-32.53701],[21.23988,-32.53931],[21.24215,-32.53984],[21.24292,-32.54086],[21.24331,-32.54259],[21.24825,-32.54436],[21.24829,-32.54496],[21.24986,-32.54652],[21.25053,-32.54791],[21.25427,-32.54785],[21.25813,-32.54867],[21.26028,-32.54839],[21.26265,-32.54756],[21.26382,-32.54768],[21.27269,-32.55183],[21.27941,-32.55382],[21.28231,-32.55404],[21.28676,-32.55564],[21.28961,-32.55775],[21.29047,-32.55983],[21.29194,-32.56199],[21.29193,-32.56428],[21.29516,-32.56525],[21.29604,-32.56596],[21.29746,-32.56865],[21.29913,-32.57017],[21.30054,-32.57498],[21.30051,-32.57823],[21.30013,-32.5792],[21.29819,-32.58096],[21.2971,-32.58266],[21.29478,-32.58508],[21.29439,-32.58826],[21.29556,-32.59095],[21.29816,-32.59327],[21.3003,-32.59392],[21.3036,-32.59716],[21.30549,-32.59685],[21.30906,-32.59837],[21.31065,-32.60034],[21.31307,-32.60162],[21.31381,-32.60406],[21.31463,-32.6048],[21.31503,-32.60612],[21.31701,-32.60661],[21.3185,-32.60816],[21.32061,-32.60919],[21.32162,-32.61112],[21.32496,-32.61419],[21.32533,-32.615],[21.3244,-32.61812],[21.32535,-32.6194],[21.32566,-32.62049],[21.32794,-32.62144],[21.3299,-32.62391],[21.33271,-32.62643],[21.33357,-32.62823],[21.33388,-32.63091],[21.33458,-32.63159],[21.33638,-32.63492],[21.33638,-32.63625],[21.33724,-32.63941],[21.34173,-32.64193],[21.34212,-32.64245],[21.34252,-32.64424],[21.34329,-32.64521],[21.34407,-32.64715],[21.34511,-32.6479],[21.34672,-32.64786],[21.34866,-32.65054],[21.35043,-32.65212],[21.35136,-32.6539],[21.35172,-32.65697],[21.35224,-32.65773],[21.42658,-32.66713],[21.4249,-32.70588],[21.43211,-32.75673],[21.47976,-32.7866],[21.52473,-32.75906],[21.57714,-32.75951],[21.64896,-32.72824],[21.69118,-32.71439],[21.6828,-32.68436],[21.71776,-32.64165],[21.74842,-32.63764],[21.76043,-32.65844],[21.84642,-32.63596],[21.87646,-32.62553],[21.91439,-32.61934],[21.94594,-32.6098],[21.9938,-32.57599],[22.03342,-32.55493],[22.03659,-32.59967],[22.07185,-32.64272],[22.04312,-32.67238],[22.01196,-32.7242],[22.0352862,-32.7191689],[22.04817,-32.71122],[22.0682718,-32.69772],[22.08875,-32.67911],[22.14406,-32.62556],[22.19218,-32.60077],[22.2137601,-32.5850265],[22.2373928,-32.5653614],[22.29702,-32.51116],[22.32568,-32.49497],[22.36628,-32.47055],[22.4098943,-32.4423707],[22.41629,-32.43953],[22.42972,-32.43261],[22.44036,-32.42663],[22.5153323,-32.3837429],[22.5268446,-32.3766267],[22.532785,-32.382778],[22.536756,-32.382437],[22.5445117,-32.373837],[22.5460818,-32.3725694],[22.5618258,-32.363898],[22.5727298,-32.3566529],[22.578535,-32.3503826],[22.5787018,-32.3425493],[22.7883131,-32.0315821],[22.7878951,-32.0289349],[22.7898108,-32.0240238],[22.7905771,-32.0232226],[22.7921445,-32.0225609],[22.7957321,-32.0227002],[22.7969246,-32.0223032],[22.7977575,-32.0218096],[22.7985534,-32.0207496],[22.7984196,-32.0199159],[22.7975781,-32.0192171],[22.7973341,-32.0186052],[22.7976746,-32.0179902],[22.798832,-32.0176845],[22.7985882,-32.0171272],[22.7952311,-32.0165335],[22.7928411,-32.0155598],[22.7902661,-32.0140153],[22.7898909,-32.0132716],[22.7910297,-32.0109075],[22.7929108,-32.0088026],[22.7937143,-32.007388],[22.7950875,-32.0037202],[22.7951325,-32.0012438],[22.7936783,-31.998139],[22.793605,-31.9973235],[22.7915331,-31.9956065],[22.7896225,-31.994518],[22.7887276,-31.9934627],[22.7881592,-31.9913954],[22.7887608,-31.9888188],[22.7856575,-31.9880106],[22.7815023,-31.9852316],[22.7812112,-31.9847552],[22.7813435,-31.9843847],[22.7845989,-31.9831408],[22.7867691,-31.9815528],[22.7885424,-31.9792502],[22.790845,-31.9782445],[22.7944444,-31.9756772],[22.7953443,-31.975492],[22.799091,-31.9721274],[22.799834,-31.9717978],[22.8006111,-31.972316],[22.8014051,-31.9718925],[22.800664,-31.9712044],[22.797938,-31.9705692],[22.7964823,-31.9699075],[22.7945767,-31.9684784],[22.7947355,-31.9676314],[22.7974087,-31.9658846],[22.7923006,-31.9617029],[22.7894158,-31.9610678],[22.7884895,-31.9603532],[22.7880247,-31.9449435],[22.79859,-31.930797],[22.778256,-31.917315],[22.73932,-31.900193],[22.730535,-31.879615],[22.703614,-31.855933],[22.704941,-31.814146],[22.676175,-31.815722],[22.65122,-31.8217],[22.64754,-31.8196],[22.64684,-31.81822],[22.64632,-31.81546],[22.64486,-31.81445],[22.64413,-31.81437],[22.64237,-31.81608],[22.64086,-31.8163],[22.63527,-31.81491],[22.63298,-31.81595],[22.63127,-31.81947],[22.63176,-31.8234],[22.61492,-31.82287],[22.57834,-31.80551],[22.6094,-31.73982],[22.61907,-31.72465],[22.56614,-31.71317],[22.564815,-31.67792],[22.50208,-31.67081],[22.49576,-31.67034],[22.43325,-31.63818],[22.35514,-31.60541],[22.34714,-31.60159],[22.31229,-31.58346],[22.309,-31.58471],[22.27292,-31.59254],[22.2601,-31.66247],[22.24988,-31.66466],[22.23738,-31.70298],[22.22079,-31.73264],[22.20401,-31.76403],[22.20628,-31.79225],[22.15986,-31.80974],[22.17688,-31.82072],[22.1666,-31.89309],[22.1315,-31.88426],[22.11587,-31.86263],[22.07886,-31.85489],[22.07926,-31.85652],[22.07892,-31.85983],[22.07996,-31.86366],[22.08214,-31.86693],[22.08236,-31.86849],[22.0831,-31.86884],[22.08316,-31.86809],[22.08373,-31.86796],[22.08429,-31.86878],[22.08443,-31.87066],[22.08352,-31.87379],[22.08402,-31.87587],[22.08599,-31.87814],[22.08599,-31.8791],[22.08734,-31.87955],[22.08852,-31.88043],[22.08925,-31.88221],[22.09168,-31.88539],[22.09446,-31.88745],[22.09717,-31.88863],[22.0983,-31.89128],[22.10046,-31.89304],[22.10063,-31.89351],[22.10019,-31.89564],[22.10141,-31.89862],[22.10171,-31.90053],[22.10133,-31.90148],[22.1004,-31.92434],[22.07133,-31.9393],[22.08923,-31.97435],[22.09498,-32.00106],[22.074125,-32.017915],[22.09359,-32.04592],[22.13396,-32.06439],[22.11995,-32.07697],[22.08965,-32.14638],[22.06956,-32.08145],[22.01644,-32.11426],[22.0035,-32.17424],[21.99952,-32.20595],[21.99592,-32.20298],[21.97124,-32.21643],[21.936205,-32.22288],[21.9246,-32.26196],[21.90744,-32.2528],[21.90457,-32.25641],[21.90165,-32.27091],[21.87417,-32.27657],[21.85511,-32.27551],[21.79508,-32.25616],[21.78062,-32.25093],[21.77025,-32.23841],[21.773,-32.22679],[21.74949,-32.22564],[21.74605,-32.22523],[21.73589,-32.20502],[21.71137,-32.22481],[21.7042,-32.23312],[21.69165,-32.24857],[21.67377,-32.24329],[21.66546,-32.23142],[21.64458,-32.20871],[21.60651,-32.20966],[21.59443,-32.21693],[21.5786,-32.22149],[21.54891,-32.22844],[21.53601,-32.22922],[21.54008,-32.25088],[21.549005,-32.290775],[21.56181,-32.31473],[21.55037,-32.32686],[21.51908,-32.33703],[21.47564,-32.33145],[21.44365,-32.35484],[21.42988,-32.37518],[21.4084,-32.36877],[21.35284,-32.39154],[21.3015,-32.37727],[21.30301,-32.40244],[21.28152,-32.43968],[21.26948,-32.45029],[21.23109,-32.46315],[21.19749,-32.4998],[21.18831,-32.50305],[21.18755,-32.50706]]]}},{"type":"Feature","properties":{"id":"matjiesfontein","name":"Matjiesfontein","boundaryName":"Laingsburg Ward 2, Laingsburg Local Municipality, Central Karoo District Municipality, Western Cape, 6901, South Africa","osmType":"relation","osmId":6581938,"source":"OpenStreetMap contributors","sourceUrl":"https://www.openstreetmap.org/relation/6581938"},"bbox":[20.20218,-33.52778,21.69711,-32.50305],"geometry":{"type":"Polygon","coordinates":[[[20.20218,-33.17011],[20.2183,-33.17389],[20.25797,-33.18845],[20.24871,-33.21481],[20.24398,-33.23648],[20.24712,-33.24579],[20.23562,-33.26242],[20.25118,-33.29151],[20.20351,-33.30274],[20.23946,-33.30992],[20.2245,-33.34598],[20.20917,-33.3798],[20.24866,-33.37756],[20.27493,-33.37414],[20.36804,-33.36627],[20.36629,-33.38164],[20.35374,-33.39406],[20.3456,-33.39432],[20.34886,-33.40487],[20.33561,-33.42564],[20.38979,-33.42405],[20.40809,-33.43427],[20.41669,-33.43552],[20.42755,-33.44892],[20.41982,-33.45297],[20.38608,-33.45917],[20.33622,-33.48782],[20.39495,-33.4808],[20.49802,-33.46387],[20.50166,-33.49846],[20.47563,-33.51344],[20.4782,-33.52778],[20.5476,-33.51952],[20.56098,-33.51688],[20.6203,-33.51014],[20.65662,-33.50458],[20.72358,-33.49718],[20.762,-33.49084],[20.9218,-33.43065],[20.97264,-33.42252],[21.00971,-33.43927],[21.04928,-33.4339],[21.11385,-33.43074],[21.1383,-33.42284],[21.16572,-33.415],[21.20642,-33.4217],[21.25277,-33.41564],[21.26207,-33.414268],[21.30248,-33.4071],[21.36773,-33.39823],[21.4331,-33.39417],[21.48849,-33.40935],[21.50467,-33.4107],[21.52182,-33.41441],[21.55335,-33.41052],[21.58149,-33.40457],[21.61195,-33.3968],[21.63255,-33.37686],[21.69711,-33.35647],[21.63556,-33.35861],[21.61155,-33.33469],[21.55101,-33.3408],[21.62896,-33.30543],[21.6336817,-33.3059031],[21.6368556,-33.3022118],[21.63707,-33.30107],[21.63688,-33.30007],[21.6344069,-33.2976875],[21.63336,-33.29575],[21.6327,-33.2903],[21.63239,-33.28002],[21.6329,-33.27546],[21.63348,-33.27353],[21.63656,-33.26967],[21.63177,-33.2694],[21.62403,-33.24638],[21.6364551,-33.2458683],[21.6369261,-33.2420203],[21.6384528,-33.2380226],[21.6387532,-33.2352587],[21.64126,-33.2293],[21.6432893,-33.2253644],[21.6431949,-33.2248304],[21.6421328,-33.2232284],[21.6409848,-33.2223713],[21.6402305,-33.2213077],[21.6393776,-33.2171852],[21.6394388,-33.2137627],[21.61354,-33.21597],[21.62225,-33.19252],[21.62783,-33.19157],[21.62648,-33.18863],[21.62599,-33.18447],[21.62619,-33.18121],[21.62572,-33.17919],[21.62473,-33.17874],[21.62169,-33.17965],[21.6207,-33.1795],[21.61674,-33.17744],[21.62894,-33.16273],[21.63727,-33.14128],[21.60697,-33.14132],[21.6057545,-33.1391535],[21.6020278,-33.1350797],[21.5906338,-33.1269285],[21.5883829,-33.1243547],[21.5870643,-33.1236588],[21.58593,-33.12221],[21.5856605,-33.1213859],[21.5815224,-33.1184705],[21.5780468,-33.1152787],[21.5775135,-33.109481],[21.5783021,-33.105236],[21.5853472,-33.0970739],[21.5857742,-33.0958834],[21.5857211,-33.0946502],[21.5834997,-33.0888742],[21.5823989,-33.0868885],[21.580782,-33.0856812],[21.5792084,-33.0850167],[21.5769728,-33.0850273],[21.5745577,-33.0856988],[21.5722398,-33.0867303],[21.5705757,-33.0882225],[21.568614,-33.0883856],[21.5641492,-33.0881537],[21.5606006,-33.0872813],[21.5586549,-33.0864386],[21.5502752,-33.0801707],[21.5483976,-33.0783817],[21.5455459,-33.0766538],[21.5443448,-33.0751511],[21.5441431,-33.0743914],[21.54486,-33.07055],[21.5451403,-33.070191],[21.5464557,-33.0697779],[21.5468441,-33.0693612],[21.5469803,-33.0683592],[21.5472384,-33.0642686],[21.5463929,-33.0634585],[21.546858,-33.0578643],[21.54662,-33.05714],[21.54577,-33.05624],[21.54326,-33.0547],[21.5374674,-33.0527111],[21.5349211,-33.0513295],[21.5334631,-33.0489306],[21.5314509,-33.047766],[21.5307572,-33.0476613],[21.5286775,-33.0482858],[21.52672,-33.04816],[21.5202586,-33.0455429],[21.519235,-33.0453505],[21.5140841,-33.0458721],[21.5095265,-33.045078],[21.5076018,-33.0441058],[21.5006892,-33.0380503],[21.5001474,-33.0371077],[21.5004,-33.03641],[21.49942,-33.03114],[21.49837,-33.02894],[21.48983,-33.02295],[21.48633,-33.01969],[21.48585,-33.01875],[21.48515,-33.01495],[21.48464,-33.014],[21.45846,-33.01129],[21.44285,-33.00051],[21.42593,-32.9702],[21.39593,-32.93792],[21.45739,-32.92748],[21.47127,-32.91357],[21.4815,-32.91133],[21.48015,-32.90685],[21.47907,-32.9051],[21.47848,-32.9023],[21.47622,-32.89987],[21.47126,-32.89677],[21.46946,-32.8915],[21.46418,-32.88807],[21.4607,-32.88289],[21.4593,-32.88304],[21.43005,-32.84902],[21.42809,-32.81695],[21.44561,-32.79197],[21.42804,-32.77558],[21.43211,-32.75673],[21.4249,-32.70588],[21.42658,-32.66713],[21.35224,-32.65773],[21.35172,-32.65697],[21.35136,-32.6539],[21.35043,-32.65212],[21.34866,-32.65054],[21.34672,-32.64786],[21.34511,-32.6479],[21.34407,-32.64715],[21.34329,-32.64521],[21.34252,-32.64424],[21.34212,-32.64245],[21.34173,-32.64193],[21.33724,-32.63941],[21.33638,-32.63625],[21.33638,-32.63492],[21.33458,-32.63159],[21.33388,-32.63091],[21.33357,-32.62823],[21.33271,-32.62643],[21.3299,-32.62391],[21.32794,-32.62144],[21.32566,-32.62049],[21.32535,-32.6194],[21.3244,-32.61812],[21.32533,-32.615],[21.32496,-32.61419],[21.32162,-32.61112],[21.32061,-32.60919],[21.3185,-32.60816],[21.31701,-32.60661],[21.31503,-32.60612],[21.31463,-32.6048],[21.31381,-32.60406],[21.31307,-32.60162],[21.31065,-32.60034],[21.30906,-32.59837],[21.30549,-32.59685],[21.3036,-32.59716],[21.3003,-32.59392],[21.29816,-32.59327],[21.29556,-32.59095],[21.29439,-32.58826],[21.29478,-32.58508],[21.2971,-32.58266],[21.29819,-32.58096],[21.30013,-32.5792],[21.30051,-32.57823],[21.30054,-32.57498],[21.29913,-32.57017],[21.29746,-32.56865],[21.29604,-32.56596],[21.29516,-32.56525],[21.29193,-32.56428],[21.29194,-32.56199],[21.29047,-32.55983],[21.28961,-32.55775],[21.28676,-32.55564],[21.28231,-32.55404],[21.27941,-32.55382],[21.27269,-32.55183],[21.26382,-32.54768],[21.26265,-32.54756],[21.26028,-32.54839],[21.25813,-32.54867],[21.25427,-32.54785],[21.25053,-32.54791],[21.24986,-32.54652],[21.24829,-32.54496],[21.24825,-32.54436],[21.24331,-32.54259],[21.24292,-32.54086],[21.24215,-32.53984],[21.23988,-32.53931],[21.23665,-32.53701],[21.23657,-32.53479],[21.23624,-32.53428],[21.23638,-32.53321],[21.23539,-32.5324],[21.23525,-32.53095],[21.23449,-32.5294],[21.23336,-32.52848],[21.23172,-32.52908],[21.23146,-32.52738],[21.22983,-32.5264],[21.22922,-32.52565],[21.22912,-32.52353],[21.22859,-32.52296],[21.22668,-32.52177],[21.22459,-32.52208],[21.22353,-32.52193],[21.21803,-32.52017],[21.21587,-32.52008],[21.21506,-32.51962],[21.21209,-32.51894],[21.20957,-32.51762],[21.20808,-32.51779],[21.20661,-32.51677],[21.20351,-32.51669],[21.20121,-32.51419],[21.199,-32.51474],[21.19717,-32.51433],[21.19674,-32.51357],[21.19578,-32.5132],[21.19293,-32.51405],[21.19202,-32.51386],[21.19029,-32.51228],[21.18879,-32.5115],[21.18766,-32.50984],[21.18781,-32.50776],[21.18755,-32.50706],[21.18831,-32.50305],[21.18208,-32.50868],[21.14011,-32.58977],[21.15698,-32.62894],[21.09447,-32.65303],[21.06029,-32.6555],[21.03731,-32.6491],[20.96278,-32.6393],[20.8441,-32.66244],[20.82285,-32.69454],[20.78984,-32.71123],[20.7922,-32.73503],[20.80615,-32.75269],[20.83034,-32.78457],[20.83243,-32.81737],[20.79856,-32.89475],[20.74421,-32.91289],[20.73117,-32.944995],[20.65034,-32.93227],[20.64962,-32.93365],[20.6219,-32.94315],[20.59007,-32.94298],[20.5921,-32.92647],[20.56123,-32.88097],[20.4993,-32.94163],[20.4386,-32.94006],[20.43468,-32.97192],[20.42782,-32.9794],[20.39496,-32.99324],[20.38375,-33.03628],[20.35392,-33.0356],[20.33426,-33.03579],[20.30255,-33.068],[20.27905,-33.06389],[20.31849,-33.12089],[20.30644,-33.15934],[20.25125,-33.14991],[20.20218,-33.17011]],[[20.7988231,-33.1927323],[20.816743,-33.161406],[20.891373,-33.129494],[20.932809,-33.136164],[20.950292,-33.131072],[20.96773,-33.118413],[20.999487,-33.096141],[21.016704,-33.116365],[21.048707,-33.146791],[21.022435,-33.194747],[21.004985,-33.207795],[21.006807,-33.215034],[21.0195,-33.217064],[21.039994,-33.230308],[21.026676,-33.232622],[21.020252,-33.233292],[20.9586943,-33.2325118],[20.9225879,-33.2313558],[20.9222229,-33.2286795],[20.9227943,-33.2282364],[20.8873166,-33.230365],[20.8839853,-33.2446418],[20.8521005,-33.2539217],[20.8373854,-33.2339012],[20.7988231,-33.1927323]]]}},{"type":"Feature","properties":{"id":"worcester","name":"Worcester","boundaryName":"Breede Valley Ward 12, Breede Valley Local Municipality, Cape Winelands District Municipality, Western Cape, South Africa","osmType":"relation","osmId":6582318,"source":"OpenStreetMap contributors","sourceUrl":"https://www.openstreetmap.org/relation/6582318"},"bbox":[19.3992434,-33.6845962,19.4501147,-33.6389429],"geometry":{"type":"Polygon","coordinates":[[[19.3992434,-33.6649514],[19.4023876,-33.6661441],[19.4150077,-33.6723024],[19.4157883,-33.6729312],[19.4166774,-33.674384],[19.4173496,-33.676791],[19.4201468,-33.6790244],[19.4208407,-33.6799785],[19.4201251,-33.681041],[19.4201251,-33.6821903],[19.4205588,-33.6827324],[19.4197782,-33.6831227],[19.4196698,-33.6839467],[19.4211725,-33.6845962],[19.4245671,-33.6786026],[19.4269899,-33.6690611],[19.4291677,-33.6695242],[19.4296598,-33.6691807],[19.4296784,-33.6694732],[19.4392362,-33.6645993],[19.4381245,-33.6632447],[19.4318976,-33.6593681],[19.4350791,-33.6539584],[19.4368134,-33.652517],[19.4452659,-33.6483268],[19.4459681,-33.6493329],[19.4501147,-33.6472956],[19.4443333,-33.6389429],[19.433813,-33.640452],[19.4315317,-33.6401333],[19.4358796,-33.6463324],[19.4341034,-33.6471393],[19.4364506,-33.650576],[19.42961,-33.653974],[19.3992434,-33.6649514]]]}},{"type":"Feature","properties":{"id":"cape-town","name":"Cape Town","boundaryName":"Cape Town Ward 115, City of Cape Town, Western Cape, 8001, South Africa","osmType":"relation","osmId":6580101,"source":"OpenStreetMap contributors","sourceUrl":"https://www.openstreetmap.org/relation/6580101"},"bbox":[18.3931996,-33.9362121,18.478778,-33.8976],"geometry":{"type":"Polygon","coordinates":[[[18.3931996,-33.9086802],[18.3948124,-33.9098251],[18.39618,-33.9090051],[18.3970605,-33.9101939],[18.3980919,-33.9096204],[18.399614,-33.9131277],[18.4040447,-33.9177502],[18.4047601,-33.9167817],[18.4093827,-33.9145151],[18.4107263,-33.914584],[18.4114623,-33.9138248],[18.4133554,-33.9128061],[18.4161366,-33.9167269],[18.4175728,-33.9179181],[18.417098,-33.9183662],[18.4177414,-33.9188543],[18.4166322,-33.9198526],[18.4173638,-33.9203884],[18.4060884,-33.9316222],[18.4140338,-33.9362121],[18.4139406,-33.9339196],[18.4191202,-33.9341801],[18.4201092,-33.9316811],[18.4207407,-33.9318654],[18.4223196,-33.9297886],[18.4249234,-33.9323072],[18.4279437,-33.9310917],[18.4295881,-33.9291066],[18.4314743,-33.93002],[18.4319522,-33.9292498],[18.4327594,-33.9288508],[18.4349238,-33.9286716],[18.4384034,-33.9312738],[18.4404249,-33.9319224],[18.4455418,-33.9326746],[18.4491182,-33.9347314],[18.4498489,-33.929554],[18.4554947,-33.9313556],[18.4596684,-33.92834],[18.4647428,-33.9295617],[18.4659642,-33.9317672],[18.4671564,-33.9301636],[18.4699885,-33.9307395],[18.4709719,-33.9299299],[18.4746005,-33.9293442],[18.4759958,-33.9274037],[18.4770386,-33.9267751],[18.4761603,-33.924572],[18.476248,-33.924044],[18.478778,-33.919503],[18.4774388,-33.9137207],[18.4747572,-33.9095393],[18.4722262,-33.9078137],[18.4719792,-33.9081022],[18.4709517,-33.9077793],[18.4709,-33.9083229],[18.4682749,-33.9109169],[18.4662711,-33.9119814],[18.4545752,-33.9122834],[18.4533537,-33.911633],[18.4456507,-33.9052634],[18.4404582,-33.9043302],[18.4389611,-33.903072],[18.43451,-33.8976],[18.4251264,-33.8998809],[18.4249199,-33.9003707],[18.4238167,-33.9009257],[18.4234139,-33.9005937],[18.4206784,-33.9010407],[18.4206207,-33.9014188],[18.4191579,-33.9021335],[18.4152943,-33.9011558],[18.4154615,-33.9008809],[18.41596,-33.9009744],[18.41471,-33.89967],[18.4151575,-33.8991282],[18.4128092,-33.8991413],[18.41208,-33.8988],[18.40896,-33.89915],[18.40811,-33.89898],[18.4067,-33.89954],[18.40506,-33.89946],[18.4043331,-33.8997582],[18.403861,-33.8993886],[18.4027032,-33.9001094],[18.4007366,-33.900679],[18.3988302,-33.9003724],[18.3982439,-33.9008974],[18.3980173,-33.903628],[18.39751,-33.90504],[18.3980276,-33.9057224],[18.3979101,-33.9061392],[18.39541,-33.90651],[18.39436,-33.90727],[18.3937153,-33.9085553],[18.3931996,-33.9086802]]]}}]}
