{"type":"Feature","properties":{"id":"pretoria-cape-town-rail-candidate","version":"1.0.0-osm-rail-candidate","routeVersion":"1.0.0-osm-rail-candidate","name":"Pretoria–Cape Town OSM-mapped rail candidate","source":"OpenStreetMap railway=rail ways, excluding siding/spur/yard/crossover service ways","sourceUrl":"https://www.openstreetmap.org/copyright","attribution":"© OpenStreetMap contributors","license":"ODbL-1.0","licenseUrl":"https://opendatacommons.org/licenses/odbl/1-0/","geometryType":"osm-rail-graph-shortest-path-candidate","railAlignmentVerified":true,"confidence":"osm-mapped-connected-candidate","reviewStatus":"automated-candidate-human-operational-route-review-pending","intendedUse":"Geographic ride simulation; does not assert a current passenger service or operating itinerary","direction":"pretoria-to-cape-town","lengthMetres":6535.784404505252,"generatedAt":"2026-09-08T10:49:29.942133+00:00","hubOrder":["pretoria","johannesburg","kimberley","de-aar","beaufort-west","matjiesfontein","worcester","cape-town"],"stationAnchors":[{"hubId":"pretoria","osmType":"node","osmId":799906122,"coordinates":[28.1892212,-25.7594894]},{"hubId":"johannesburg","osmType":"node","osmId":326084268,"coordinates":[28.0423048,-26.1976708]},{"hubId":"kimberley","osmType":"node","osmId":247327890,"coordinates":[24.7698702,-28.7353474]},{"hubId":"de-aar","osmType":"node","osmId":247327813,"coordinates":[24.0138567,-30.6503939]},{"hubId":"beaufort-west","osmType":"node","osmId":8148099536,"coordinates":[22.5769196,-32.3518393]},{"hubId":"matjiesfontein","osmType":"node","osmId":249333087,"coordinates":[20.5808832,-33.2314538]},{"hubId":"worcester","osmType":"node","osmId":9155692732,"coordinates":[19.4411747,-33.6394993]},{"hubId":"cape-town","osmType":"node","osmId":288676470,"coordinates":[18.4263523,-33.9224221]}],"resolvedSegments":["pretoria--johannesburg","johannesburg--kimberley","kimberley--de-aar","de-aar--beaufort-west","beaufort-west--matjiesfontein","matjiesfontein--worcester","worcester--cape-town"],"unresolvedSegments":[],"provenanceFile":"provenance/rail-alignment.json","segments":[{"id":"pretoria--johannesburg","fromHubId":"pretoria","toHubId":"johannesburg","confidence":"osm-mapped-connected-candidate","unresolvedReason":null,"startIndex":0,"endIndex":3691,"lengthMetres":69485.568,"directDistanceMetres":50888.695,"startSnap":{"osmNodeId":5203384246,"distanceMetres":15.886},"endSnap":{"osmNodeId":7124278764,"distanceMetres":34.036},"osmWayIds":[4420058,4420059,4703175,8407557,23097858,24635492,32486599,32486606,32489507,58365742,58365777,71164463,142048178,142214861,142214863,197895382,273430341,273430350,273585249,273611811,275977617,421114441,421114442,427646717,427646718,435271632,435271634,435271638,435271648,435271654,435299245,435299261,435299263,435299290,435299292,435299326,435304234,435304239,435304248,435382598,435382601,537391031,542358527,542358533,542358534,542358535,542358550,542358551,542358554,542358555,542462342,542462344,542462347,542462350,542466110,542466117,597093044,597093045,687811268,687811269,755745066,765045283,766042600,766042601,829906318,833962222,835077556,838003124,838146280,840261372,840261373,840261375,867677563,867677564,988779739,988779757,1035213637,1275533525,1275564800,1500200937],"precedingJunctionConnector":null},{"id":"johannesburg--kimberley","fromHubId":"johannesburg","toHubId":"kimberley","confidence":"osm-mapped-connected-candidate","unresolvedReason":null,"startIndex":3691,"endIndex":26546,"lengthMetres":482430.34,"directDistanceMetres":428750.759,"startSnap":{"osmNodeId":7124278764,"distanceMetres":34.036},"endSnap":{"osmNodeId":247327890,"distanceMetres":0},"osmWayIds":[7508013,22778979,23284160,31740955,61242192,71174956,100597999,107948677,107948691,123743988,123743999,123744007,123744022,142081112,157935281,172260740,172260745,194555973,199751382,199751383,217628979,217628980,219005173,291398973,381513360,381513361,435174300,435174306,435178894,435193593,435193598,435208704,435208720,435221306,435271627,435271650,444074275,444074276,444074287,444074288,467967164,617693160,617693161,633490888,633490890,751055498,751130145,751130146,751130149,751130150,761915904,761915905,819216613,819216614,873293077,875560098,875560099,875560104,875560105,875560126,875560127,875560129,875560152,875560155,905414053,943024738,943028297,943028298,951326117,951326118,951326124,951326132,958530140,958530141,958530142,958530152,972913248,972913249,972913259,972913264,972913265,972913266,972913268,998470731,998470732,1037448099,1055853101,1055853105,1055853106,1056768361,1056768362,1056768363,1056768364,1056768365,1056768366,1056768367,1056768372,1056768373,1056768375,1056768376,1057056944,1057056946,1057056977,1057056978,1057056980,1057056982,1057056983,1057069397,1057069402,1057069408,1279918166,1289813745,1289813746,1432358661,1432361031,1432361032,1432364005,1432369527,1432370359,1432370360,1435082928],"precedingJunctionConnector":null},{"id":"kimberley--de-aar","fromHubId":"kimberley","toHubId":"de-aar","confidence":"osm-mapped-connected-candidate","unresolvedReason":null,"startIndex":26546,"endIndex":37686,"lengthMetres":235644.636,"directDistanceMetres":225115.383,"startSnap":{"osmNodeId":247327890,"distanceMetres":0},"endSnap":{"osmNodeId":247327813,"distanceMetres":0},"osmWayIds":[21735066,61153705,61153711,69715585,69715589,104192798,157935284,205652802,244526565,261058915,418070047,418070048,445015850,445015851,611890107,611890109,685658014,685658015,685871892,686101064,686101065,686101066,819256710,819256711,820003806,820003825,820438677,820706437,820758149,821174865,1057677688,1057679505,1057872624,1057872626,1057872627,1057872628,1057872629,1057872630,1057872639,1057872642,1057872643,1057872644,1057872645,1057872646,1057872647,1058415720,1058415726,1058415748,1058415749,1058415754,1058415757,1157249332,1157249334,1157249337,1157249344,1163825722,1163825723,1238158419,1238158420],"precedingJunctionConnector":null},{"id":"de-aar--beaufort-west","fromHubId":"de-aar","toHubId":"beaufort-west","confidence":"osm-mapped-connected-candidate","unresolvedReason":null,"startIndex":37686,"endIndex":49848,"lengthMetres":259299.432,"directDistanceMetres":233131.186,"startSnap":{"osmNodeId":247327813,"distanceMetres":0},"endSnap":{"osmNodeId":11454114633,"distanceMetres":28.662},"osmWayIds":[21723568,61153709,89173859,89173861,108192548,108192593,170824444,170824445,200453793,200453794,200453796,200455995,200455997,201818775,201818777,201880548,201880550,366692175,366692176,366692177,366692179,518100715,518100716,518100717,518100718,518100723,518100724,659123902,659123903,659123911,659123912,659123913,659123914,759462361,1233978948,1233978949,1233978950,1233978955,1233978956,1234029763,1234170294,1234170295,1234170305,1234170360,1234170362,1234174813,1234174819,1234174821,1234174822,1234174823,1238302074,1238302075,1283294156,1283294157,1311491704,1311491710,1311491713,1311491715,1311491716,1311491717,1311491718,1524789317],"precedingJunctionConnector":null},{"id":"beaufort-west--matjiesfontein","fromHubId":"beaufort-west","toHubId":"matjiesfontein","confidence":"osm-mapped-connected-candidate","unresolvedReason":null,"startIndex":49848,"endIndex":61265,"lengthMetres":230333.064,"directDistanceMetres":210657.045,"startSnap":{"osmNodeId":11454114633,"distanceMetres":28.662},"endSnap":{"osmNodeId":249333087,"distanceMetres":0},"osmWayIds":[91957679,91957700,91979989,91979991,91980001,91980006,91980010,91980011,91980014,91980015,107833605,107833618,107833628,107833635,107952299,107952307,108192556,108192582,108192585,108192589,169667527,169667528,169667529,169667531,198694420,198694423,199479668,199479669,207014019,207014020,207014195,207015070,207015082,207015083,207015086,207016717,207016718,207327799,207327800,207327801,207327802,207327803,207327804,244514455,249663164,249663168,258239939,258239940,363814366,363814367,437495479,655104779,655104780,765604212,765604213,875384729,875384730,1152662925,1152662926,1156645095,1156645096,1156645097,1156645098,1234170305,1234170344,1234170346,1234170347,1234170350,1234170353,1234194630,1234194631,1234194633,1234194634,1234194635,1234194637,1234194638,1234194639,1234194640,1234194641,1234194642,1234194643,1234194644,1234194658,1234194659,1236239490,1236239491,1236239496,1236239497,1236239499,1236239504,1236242178,1236242179,1236242180,1236242182,1236242183,1236242184,1236242185,1236242186,1236242187,1236242188,1236264534,1236264535,1236264542,1236264543,1319370824,1319370825],"precedingJunctionConnector":null},{"id":"matjiesfontein--worcester","fromHubId":"matjiesfontein","toHubId":"worcester","confidence":"osm-mapped-connected-candidate","unresolvedReason":null,"startIndex":61265,"endIndex":67689,"lengthMetres":130185.006,"directDistanceMetres":115078.265,"startSnap":{"osmNodeId":249333087,"distanceMetres":0},"endSnap":{"osmNodeId":240124482,"distanceMetres":11.734},"osmWayIds":[22662080,22770601,22770603,22770604,22770605,22770606,28890349,28890350,31901254,31901255,61302516,61591522,103754186,103754188,240361689,262624845,262624846,262624847,262624849,771537495,771537496,1219736070,1219736075,1219736076,1234194631,1235352000,1235352001,1236264540,1236264541,1236264545,1236264546,1236264550,1236264552,1236264557,1236264558,1236264559,1236264565,1236264591,1236264592,1236264597,1236264598,1243706920,1243706921,1243706929,1243706932,1243706934,1243796738,1243796743,1243796764,1245421240,1245421243,1245421291,1245421343,1245421348],"precedingJunctionConnector":null},{"id":"worcester--cape-town","fromHubId":"worcester","toHubId":"cape-town","confidence":"osm-mapped-connected-candidate","unresolvedReason":null,"startIndex":67689,"endIndex":76535,"lengthMetres":174697.121,"directDistanceMetres":98926.771,"startSnap":{"osmNodeId":240124482,"distanceMetres":11.734},"endSnap":{"osmNodeId":6629401912,"distanceMetres":33.313},"osmWayIds":[4820594,13712266,22328685,22328860,26349063,48585986,65680741,65680778,65680959,65765841,67465226,67465237,67470893,67470911,67470932,137480818,137480822,137612978,137612992,137612997,137614572,137614575,137620561,137620563,137621654,240804499,240804500,240804505,240804507,275608817,275608818,299790039,299790044,299790045,299954971,299954974,299954976,299954979,364020781,364020783,366210720,366210721,710853478,710853479,710853480,733322969,750218529,766854672,766854673,771348579,771348580,771348592,771348593,775788856,775788857,788923780,789157063,790320470,790320471,790320472,790320474,790320477,790320478,790320480,790320483,790745842,791678395,791678401,791687494,791687497,791687499,791687503,791687505,791687506,791687509,791687511,791746856,791746857,791746858,792856978,792856980,792925209,863466508,863518188,863518189,863563817,863563833,863563834,864046446,864046449,864046457,990298751,990904539,1098423028,1229003616,1229003617,1229003618,1229003620,1233181995,1233181998,1233181999,1233540026,1233540028,1244943151,1245421244,1245421292,1245421313,1245421314,1267911134,1267911135,1313535239,1313540230,1339178818,1339178819,1425680126],"precedingJunctionConnector":null}],"detail":"ride","maximumTargetSpacingMetres":25,"generator":"scripts/build-animation-route.mjs","note":"First 6501 m of data/route-ride.geojson, for the 3D animation only. The satellite map uses the full corridor.","sliceMetres":6501,"extent":"pretoria-animation-slice"},"geometry":{"type":"LineString","coordinates":[[28.18909,-25.75957],[28.18923,-25.75972],[28.18937,-25.75986],[28.18952,-25.76001],[28.18966,-25.76016],[28.1898,-25.7603],[28.18994,-25.76045],[28.19007,-25.76058],[28.1902,-25.76072],[28.19032,-25.76084],[28.19043,-25.76096],[28.19055,-25.76108],[28.19066,-25.7612],[28.1908,-25.76134],[28.19093,-25.76148],[28.19106,-25.76162],[28.1912,-25.76176],[28.19133,-25.7619],[28.19146,-25.76204],[28.19159,-25.76217],[28.19172,-25.76231],[28.19185,-25.76244],[28.19198,-25.76257],[28.1921,-25.7627],[28.19218,-25.76279],[28.19226,-25.76287],[28.19238,-25.763],[28.19246,-25.76311],[28.19255,-25.76323],[28.19263,-25.76336],[28.19272,-25.76351],[28.19278,-25.76362],[28.19284,-25.76374],[28.19292,-25.76391],[28.19299,-25.76407],[28.19306,-25.76423],[28.19312,-25.76437],[28.1932,-25.76455],[28.19323,-25.76466],[28.19327,-25.76477],[28.19331,-25.76495],[28.19335,-25.76513],[28.19338,-25.76527],[28.19341,-25.76541],[28.19344,-25.76555],[28.19346,-25.76575],[28.19349,-25.76595],[28.19351,-25.76614],[28.19352,-25.76626],[28.19352,-25.76637],[28.19351,-25.76651],[28.1935,-25.76665],[28.19349,-25.76679],[28.19348,-25.76691],[28.19347,-25.76704],[28.19345,-25.76721],[28.19343,-25.76739],[28.19341,-25.76752],[28.1934,-25.76766],[28.19338,-25.76781],[28.19336,-25.76797],[28.19334,-25.76813],[28.19332,-25.76829],[28.19331,-25.76845],[28.19329,-25.76862],[28.19327,-25.76878],[28.19325,-25.76898],[28.19323,-25.76918],[28.19321,-25.76938],[28.1932,-25.7695],[28.19319,-25.76963],[28.19318,-25.76979],[28.19318,-25.76995],[28.19317,-25.77007],[28.19317,-25.7702],[28.19317,-25.77037],[28.19317,-25.77053],[28.19317,-25.7707],[28.19317,-25.77086],[28.19318,-25.77106],[28.19319,-25.77127],[28.1932,-25.77147],[28.1932,-25.77168],[28.19321,-25.77189],[28.19322,-25.77209],[28.19323,-25.7723],[28.19324,-25.7725],[28.19324,-25.7727],[28.19325,-25.77289],[28.19326,-25.77308],[28.19326,-25.77327],[28.19327,-25.77346],[28.19328,-25.77366],[28.19328,-25.77385],[28.19329,-25.77405],[28.1933,-25.77425],[28.1933,-25.77443],[28.19331,-25.77461],[28.19332,-25.77478],[28.19332,-25.77496],[28.19333,-25.77513],[28.19334,-25.77531],[28.19334,-25.77549],[28.19335,-25.77566],[28.19336,-25.77585],[28.19336,-25.77603],[28.19336,-25.77622],[28.19337,-25.7764],[28.19336,-25.77653],[28.19336,-25.77666],[28.19335,-25.7768],[28.19334,-25.77694],[28.19332,-25.77709],[28.1933,-25.77722],[28.19329,-25.77736],[28.19326,-25.77752],[28.19322,-25.77771],[28.19318,-25.7779],[28.19314,-25.77806],[28.1931,-25.77823],[28.19306,-25.77839],[28.19302,-25.77856],[28.19299,-25.77872],[28.19295,-25.77889],[28.19291,-25.77905],[28.19287,-25.77922],[28.19283,-25.7794],[28.19278,-25.77958],[28.19274,-25.77976],[28.19272,-25.77987],[28.1927,-25.77998],[28.19268,-25.78009],[28.19266,-25.7802],[28.19263,-25.7804],[28.19261,-25.78052],[28.1926,-25.78063],[28.19259,-25.78081],[28.19258,-25.78094],[28.19257,-25.78108],[28.19257,-25.78124],[28.19257,-25.78135],[28.19257,-25.78146],[28.19258,-25.7816],[28.19259,-25.78174],[28.1926,-25.78188],[28.19262,-25.78205],[28.19264,-25.78218],[28.19265,-25.7823],[28.19267,-25.78241],[28.19269,-25.78252],[28.19274,-25.78271],[28.19277,-25.78284],[28.1928,-25.78296],[28.19286,-25.78316],[28.1929,-25.78329],[28.19294,-25.78342],[28.19296,-25.78345],[28.19302,-25.78363],[28.19309,-25.7838],[28.19315,-25.78396],[28.19322,-25.78413],[28.19329,-25.7843],[28.19335,-25.78445],[28.19341,-25.7846],[28.19347,-25.78475],[28.19354,-25.78493],[28.19362,-25.78511],[28.19369,-25.7853],[28.19377,-25.78548],[28.19382,-25.78561],[28.19387,-25.78574],[28.19393,-25.78587],[28.19399,-25.78603],[28.19405,-25.78618],[28.19412,-25.78634],[28.19418,-25.78649],[28.19426,-25.78669],[28.19434,-25.78688],[28.19442,-25.78707],[28.19449,-25.78727],[28.19457,-25.78746],[28.19465,-25.78766],[28.19473,-25.78785],[28.19481,-25.78804],[28.19488,-25.78823],[28.19496,-25.78842],[28.19503,-25.7886],[28.19511,-25.78879],[28.19518,-25.78897],[28.19526,-25.78916],[28.19532,-25.78931],[28.19538,-25.78947],[28.19542,-25.78958],[28.19546,-25.78969],[28.1955,-25.78982],[28.19555,-25.78996],[28.1956,-25.79015],[28.19563,-25.79027],[28.19566,-25.79039],[28.19568,-25.79049],[28.1957,-25.7906],[28.19572,-25.79072],[28.19575,-25.79084],[28.19576,-25.79098],[28.19578,-25.79111],[28.19579,-25.79129],[28.1958,-25.79141],[28.19581,-25.79153],[28.19581,-25.79169],[28.19581,-25.79184],[28.19581,-25.79196],[28.19581,-25.79208],[28.1958,-25.79224],[28.19579,-25.79236],[28.19578,-25.79248],[28.19576,-25.79264],[28.19574,-25.7928],[28.1957,-25.793],[28.19566,-25.7932],[28.19562,-25.7934],[28.19558,-25.7936],[28.19555,-25.7938],[28.19552,-25.79398],[28.1955,-25.79411],[28.19548,-25.79429],[28.19547,-25.79447],[28.19546,-25.79458],[28.19545,-25.79469],[28.19545,-25.79485],[28.19545,-25.79505],[28.19546,-25.79522],[28.19547,-25.79538],[28.19548,-25.79552],[28.1955,-25.79566],[28.19552,-25.7958],[28.19554,-25.79597],[28.19557,-25.79612],[28.1956,-25.79628],[28.19563,-25.79639],[28.19565,-25.79649],[28.19568,-25.79663],[28.19571,-25.79676],[28.19576,-25.79693],[28.1958,-25.79711],[28.19585,-25.79729],[28.19586,-25.79733],[28.1959,-25.7975],[28.19594,-25.79768],[28.19598,-25.79785],[28.19602,-25.79802],[28.19606,-25.79818],[28.1961,-25.79834],[28.19614,-25.7985],[28.19618,-25.79866],[28.19622,-25.79882],[28.19626,-25.79898],[28.1963,-25.79914],[28.19634,-25.79931],[28.19639,-25.79949],[28.19643,-25.79967],[28.19648,-25.79984],[28.19652,-25.80002],[28.19656,-25.80019],[28.1966,-25.80036],[28.19664,-25.80053],[28.19669,-25.8007],[28.19673,-25.80088],[28.19678,-25.80107],[28.19683,-25.80127],[28.19688,-25.80146],[28.19692,-25.80166],[28.19697,-25.80186],[28.19702,-25.80205],[28.19707,-25.80225],[28.19712,-25.80244],[28.19717,-25.80264],[28.19722,-25.80283],[28.19727,-25.80303],[28.1973,-25.80315],[28.19734,-25.80328],[28.1974,-25.80347],[28.19746,-25.80367],[28.19753,-25.80387],[28.19757,-25.80399],[28.19761,-25.80411],[28.19766,-25.80425],[28.19772,-25.8044],[28.19778,-25.80454],[28.19785,-25.80472],[28.19792,-25.80489],[28.198,-25.80505],[28.19807,-25.80521],[28.19814,-25.80534],[28.1982,-25.80547],[28.19826,-25.8056],[28.19836,-25.80578],[28.19845,-25.80596],[28.19855,-25.80614],[28.19864,-25.80632],[28.19874,-25.8065],[28.19883,-25.80669],[28.19892,-25.80687],[28.19902,-25.80705],[28.19911,-25.80723],[28.1992,-25.80742],[28.19926,-25.80753],[28.19932,-25.80765],[28.19939,-25.80778],[28.19946,-25.80792],[28.19952,-25.80806],[28.19959,-25.8082],[28.19967,-25.80837],[28.19975,-25.80855],[28.19982,-25.80873],[28.19989,-25.8089],[28.19996,-25.80908],[28.20003,-25.80926],[28.20008,-25.80939],[28.20012,-25.80953],[28.20017,-25.80967],[28.20022,-25.80981],[28.20026,-25.80997],[28.20031,-25.81012],[28.20035,-25.81028],[28.2004,-25.81043],[28.20045,-25.81062],[28.20049,-25.81081],[28.20054,-25.81099],[28.20058,-25.81118],[28.20063,-25.81137],[28.20068,-25.81156],[28.20072,-25.81174],[28.20077,-25.81192],[28.20082,-25.8121],[28.20086,-25.81228],[28.20091,-25.81246],[28.20095,-25.81264],[28.201,-25.81282],[28.20104,-25.813],[28.20108,-25.81316],[28.20113,-25.81332],[28.20118,-25.81351],[28.20123,-25.81371],[28.20128,-25.81391],[28.20133,-25.8141],[28.20138,-25.8143],[28.20143,-25.81449],[28.20148,-25.81468],[28.20152,-25.81482],[28.20156,-25.81496],[28.2016,-25.8151],[28.20165,-25.81526],[28.20171,-25.81542],[28.20177,-25.81561]]}}