{"type":"Feature","properties":{"id":"pretoria-cape-town-rail-candidate","version":"1.0.0-osm-rail-candidate","routeVersion":"1.0.0-osm-rail-candidate","name":"Pretoria–Cape Town OSM-mapped rail candidate","source":"OpenStreetMap railway=rail ways, excluding siding/spur/yard/crossover service ways","sourceUrl":"https://www.openstreetmap.org/copyright","attribution":"© OpenStreetMap contributors","license":"ODbL-1.0","licenseUrl":"https://opendatacommons.org/licenses/odbl/1-0/","geometryType":"osm-rail-graph-shortest-path-candidate","railAlignmentVerified":true,"confidence":"osm-mapped-connected-candidate","reviewStatus":"automated-candidate-human-operational-route-review-pending","intendedUse":"Geographic ride simulation; does not assert a current passenger service or operating itinerary","direction":"pretoria-to-cape-town","lengthMetres":1582417.155,"generatedAt":"2026-09-08T10:49:29.942133+00:00","hubOrder":["pretoria","johannesburg","kimberley","de-aar","beaufort-west","matjiesfontein","worcester","cape-town"],"stationAnchors":[{"hubId":"pretoria","osmType":"node","osmId":799906122,"coordinates":[28.1892212,-25.7594894]},{"hubId":"johannesburg","osmType":"node","osmId":326084268,"coordinates":[28.0423048,-26.1976708]},{"hubId":"kimberley","osmType":"node","osmId":247327890,"coordinates":[24.7698702,-28.7353474]},{"hubId":"de-aar","osmType":"node","osmId":247327813,"coordinates":[24.0138567,-30.6503939]},{"hubId":"beaufort-west","osmType":"node","osmId":8148099536,"coordinates":[22.5769196,-32.3518393]},{"hubId":"matjiesfontein","osmType":"node","osmId":249333087,"coordinates":[20.5808832,-33.2314538]},{"hubId":"worcester","osmType":"node","osmId":9155692732,"coordinates":[19.4411747,-33.6394993]},{"hubId":"cape-town","osmType":"node","osmId":288676470,"coordinates":[18.4263523,-33.9224221]}],"resolvedSegments":["pretoria--johannesburg","johannesburg--kimberley","kimberley--de-aar","de-aar--beaufort-west","beaufort-west--matjiesfontein","matjiesfontein--worcester","worcester--cape-town"],"unresolvedSegments":[],"provenanceFile":"provenance/rail-alignment.json","segments":[{"id":"pretoria--johannesburg","fromHubId":"pretoria","toHubId":"johannesburg","confidence":"osm-mapped-connected-candidate","unresolvedReason":null,"startIndex":0,"endIndex":3691,"lengthMetres":69485.568,"directDistanceMetres":50888.695,"startSnap":{"osmNodeId":5203384246,"distanceMetres":15.886},"endSnap":{"osmNodeId":7124278764,"distanceMetres":34.036},"osmWayIds":[4420058,4420059,4703175,8407557,23097858,24635492,32486599,32486606,32489507,58365742,58365777,71164463,142048178,142214861,142214863,197895382,273430341,273430350,273585249,273611811,275977617,421114441,421114442,427646717,427646718,435271632,435271634,435271638,435271648,435271654,435299245,435299261,435299263,435299290,435299292,435299326,435304234,435304239,435304248,435382598,435382601,537391031,542358527,542358533,542358534,542358535,542358550,542358551,542358554,542358555,542462342,542462344,542462347,542462350,542466110,542466117,597093044,597093045,687811268,687811269,755745066,765045283,766042600,766042601,829906318,833962222,835077556,838003124,838146280,840261372,840261373,840261375,867677563,867677564,988779739,988779757,1035213637,1275533525,1275564800,1500200937],"precedingJunctionConnector":null},{"id":"johannesburg--kimberley","fromHubId":"johannesburg","toHubId":"kimberley","confidence":"osm-mapped-connected-candidate","unresolvedReason":null,"startIndex":3691,"endIndex":26546,"lengthMetres":482430.34,"directDistanceMetres":428750.759,"startSnap":{"osmNodeId":7124278764,"distanceMetres":34.036},"endSnap":{"osmNodeId":247327890,"distanceMetres":0},"osmWayIds":[7508013,22778979,23284160,31740955,61242192,71174956,100597999,107948677,107948691,123743988,123743999,123744007,123744022,142081112,157935281,172260740,172260745,194555973,199751382,199751383,217628979,217628980,219005173,291398973,381513360,381513361,435174300,435174306,435178894,435193593,435193598,435208704,435208720,435221306,435271627,435271650,444074275,444074276,444074287,444074288,467967164,617693160,617693161,633490888,633490890,751055498,751130145,751130146,751130149,751130150,761915904,761915905,819216613,819216614,873293077,875560098,875560099,875560104,875560105,875560126,875560127,875560129,875560152,875560155,905414053,943024738,943028297,943028298,951326117,951326118,951326124,951326132,958530140,958530141,958530142,958530152,972913248,972913249,972913259,972913264,972913265,972913266,972913268,998470731,998470732,1037448099,1055853101,1055853105,1055853106,1056768361,1056768362,1056768363,1056768364,1056768365,1056768366,1056768367,1056768372,1056768373,1056768375,1056768376,1057056944,1057056946,1057056977,1057056978,1057056980,1057056982,1057056983,1057069397,1057069402,1057069408,1279918166,1289813745,1289813746,1432358661,1432361031,1432361032,1432364005,1432369527,1432370359,1432370360,1435082928],"precedingJunctionConnector":null},{"id":"kimberley--de-aar","fromHubId":"kimberley","toHubId":"de-aar","confidence":"osm-mapped-connected-candidate","unresolvedReason":null,"startIndex":26546,"endIndex":37686,"lengthMetres":235644.636,"directDistanceMetres":225115.383,"startSnap":{"osmNodeId":247327890,"distanceMetres":0},"endSnap":{"osmNodeId":247327813,"distanceMetres":0},"osmWayIds":[21735066,61153705,61153711,69715585,69715589,104192798,157935284,205652802,244526565,261058915,418070047,418070048,445015850,445015851,611890107,611890109,685658014,685658015,685871892,686101064,686101065,686101066,819256710,819256711,820003806,820003825,820438677,820706437,820758149,821174865,1057677688,1057679505,1057872624,1057872626,1057872627,1057872628,1057872629,1057872630,1057872639,1057872642,1057872643,1057872644,1057872645,1057872646,1057872647,1058415720,1058415726,1058415748,1058415749,1058415754,1058415757,1157249332,1157249334,1157249337,1157249344,1163825722,1163825723,1238158419,1238158420],"precedingJunctionConnector":null},{"id":"de-aar--beaufort-west","fromHubId":"de-aar","toHubId":"beaufort-west","confidence":"osm-mapped-connected-candidate","unresolvedReason":null,"startIndex":37686,"endIndex":49848,"lengthMetres":259299.432,"directDistanceMetres":233131.186,"startSnap":{"osmNodeId":247327813,"distanceMetres":0},"endSnap":{"osmNodeId":11454114633,"distanceMetres":28.662},"osmWayIds":[21723568,61153709,89173859,89173861,108192548,108192593,170824444,170824445,200453793,200453794,200453796,200455995,200455997,201818775,201818777,201880548,201880550,366692175,366692176,366692177,366692179,518100715,518100716,518100717,518100718,518100723,518100724,659123902,659123903,659123911,659123912,659123913,659123914,759462361,1233978948,1233978949,1233978950,1233978955,1233978956,1234029763,1234170294,1234170295,1234170305,1234170360,1234170362,1234174813,1234174819,1234174821,1234174822,1234174823,1238302074,1238302075,1283294156,1283294157,1311491704,1311491710,1311491713,1311491715,1311491716,1311491717,1311491718,1524789317],"precedingJunctionConnector":null},{"id":"beaufort-west--matjiesfontein","fromHubId":"beaufort-west","toHubId":"matjiesfontein","confidence":"osm-mapped-connected-candidate","unresolvedReason":null,"startIndex":49848,"endIndex":61265,"lengthMetres":230333.064,"directDistanceMetres":210657.045,"startSnap":{"osmNodeId":11454114633,"distanceMetres":28.662},"endSnap":{"osmNodeId":249333087,"distanceMetres":0},"osmWayIds":[91957679,91957700,91979989,91979991,91980001,91980006,91980010,91980011,91980014,91980015,107833605,107833618,107833628,107833635,107952299,107952307,108192556,108192582,108192585,108192589,169667527,169667528,169667529,169667531,198694420,198694423,199479668,199479669,207014019,207014020,207014195,207015070,207015082,207015083,207015086,207016717,207016718,207327799,207327800,207327801,207327802,207327803,207327804,244514455,249663164,249663168,258239939,258239940,363814366,363814367,437495479,655104779,655104780,765604212,765604213,875384729,875384730,1152662925,1152662926,1156645095,1156645096,1156645097,1156645098,1234170305,1234170344,1234170346,1234170347,1234170350,1234170353,1234194630,1234194631,1234194633,1234194634,1234194635,1234194637,1234194638,1234194639,1234194640,1234194641,1234194642,1234194643,1234194644,1234194658,1234194659,1236239490,1236239491,1236239496,1236239497,1236239499,1236239504,1236242178,1236242179,1236242180,1236242182,1236242183,1236242184,1236242185,1236242186,1236242187,1236242188,1236264534,1236264535,1236264542,1236264543,1319370824,1319370825],"precedingJunctionConnector":null},{"id":"matjiesfontein--worcester","fromHubId":"matjiesfontein","toHubId":"worcester","confidence":"osm-mapped-connected-candidate","unresolvedReason":null,"startIndex":61265,"endIndex":67689,"lengthMetres":130185.006,"directDistanceMetres":115078.265,"startSnap":{"osmNodeId":249333087,"distanceMetres":0},"endSnap":{"osmNodeId":240124482,"distanceMetres":11.734},"osmWayIds":[22662080,22770601,22770603,22770604,22770605,22770606,28890349,28890350,31901254,31901255,61302516,61591522,103754186,103754188,240361689,262624845,262624846,262624847,262624849,771537495,771537496,1219736070,1219736075,1219736076,1234194631,1235352000,1235352001,1236264540,1236264541,1236264545,1236264546,1236264550,1236264552,1236264557,1236264558,1236264559,1236264565,1236264591,1236264592,1236264597,1236264598,1243706920,1243706921,1243706929,1243706932,1243706934,1243796738,1243796743,1243796764,1245421240,1245421243,1245421291,1245421343,1245421348],"precedingJunctionConnector":null},{"id":"worcester--cape-town","fromHubId":"worcester","toHubId":"cape-town","confidence":"osm-mapped-connected-candidate","unresolvedReason":null,"startIndex":67689,"endIndex":76535,"lengthMetres":174697.121,"directDistanceMetres":98926.771,"startSnap":{"osmNodeId":240124482,"distanceMetres":11.734},"endSnap":{"osmNodeId":6629401912,"distanceMetres":33.313},"osmWayIds":[4820594,13712266,22328685,22328860,26349063,48585986,65680741,65680778,65680959,65765841,67465226,67465237,67470893,67470911,67470932,137480818,137480822,137612978,137612992,137612997,137614572,137614575,137620561,137620563,137621654,240804499,240804500,240804505,240804507,275608817,275608818,299790039,299790044,299790045,299954971,299954974,299954976,299954979,364020781,364020783,366210720,366210721,710853478,710853479,710853480,733322969,750218529,766854672,766854673,771348579,771348580,771348592,771348593,775788856,775788857,788923780,789157063,790320470,790320471,790320472,790320474,790320477,790320478,790320480,790320483,790745842,791678395,791678401,791687494,791687497,791687499,791687503,791687505,791687506,791687509,791687511,791746856,791746857,791746858,792856978,792856980,792925209,863466508,863518188,863518189,863563817,863563833,863563834,864046446,864046449,864046457,990298751,990904539,1098423028,1229003616,1229003617,1229003618,1229003620,1233181995,1233181998,1233181999,1233540026,1233540028,1244943151,1245421244,1245421292,1245421313,1245421314,1267911134,1267911135,1313535239,1313540230,1339178818,1339178819,1425680126],"precedingJunctionConnector":null}],"detail":"ride","maximumTargetSpacingMetres":25,"generator":"scripts/build-beaufort-west-data.mjs","note":"Beaufort West slice of data/route-ride.geojson, 3200 m before the station to 1800 m after; 86 doubled-back points spliced out.","sliceMetres":5014,"stationAlongMetres":3208,"stationNode":8148099536},"geometry":{"type":"LineString","coordinates":[[22.59616,-32.3318],[22.59596,-32.3319],[22.59575,-32.332],[22.59555,-32.3321],[22.59535,-32.3322],[22.59514,-32.3323],[22.59493,-32.33241],[22.59472,-32.33251],[22.59451,-32.33262],[22.59431,-32.33272],[22.5941,-32.33283],[22.59389,-32.33293],[22.59368,-32.33304],[22.59348,-32.33313],[22.59329,-32.33323],[22.5931,-32.33332],[22.59291,-32.33342],[22.59272,-32.33351],[22.59252,-32.33361],[22.59233,-32.33371],[22.59214,-32.3338],[22.59195,-32.3339],[22.59179,-32.33398],[22.59163,-32.33406],[22.59146,-32.33414],[22.5913,-32.33423],[22.59113,-32.33431],[22.59097,-32.3344],[22.59077,-32.3345],[22.59056,-32.3346],[22.59036,-32.33469],[22.59016,-32.33479],[22.58996,-32.33489],[22.58977,-32.33499],[22.58958,-32.33508],[22.5894,-32.33517],[22.58921,-32.33527],[22.58902,-32.33536],[22.58883,-32.33546],[22.58866,-32.33554],[22.58848,-32.33563],[22.5883,-32.33572],[22.58813,-32.3358],[22.58795,-32.33589],[22.58777,-32.33598],[22.58758,-32.33608],[22.5874,-32.33617],[22.58721,-32.33626],[22.58702,-32.33636],[22.58682,-32.33646],[22.58661,-32.33656],[22.5864,-32.33667],[22.58619,-32.33677],[22.58598,-32.33688],[22.58579,-32.33698],[22.58559,-32.33707],[22.58539,-32.33717],[22.5852,-32.33727],[22.585,-32.33737],[22.58481,-32.33746],[22.58463,-32.33755],[22.58444,-32.33765],[22.58426,-32.33774],[22.58408,-32.33784],[22.58392,-32.33793],[22.58377,-32.33801],[22.58361,-32.3381],[22.58347,-32.33819],[22.58334,-32.33828],[22.5832,-32.33837],[22.58301,-32.3385],[22.58283,-32.33863],[22.58264,-32.33876],[22.58247,-32.33888],[22.5823,-32.33901],[22.58213,-32.33913],[22.58196,-32.33926],[22.58179,-32.33938],[22.58161,-32.33952],[22.58143,-32.33965],[22.58125,-32.33978],[22.58107,-32.33991],[22.5809,-32.34004],[22.58072,-32.34017],[22.58055,-32.3403],[22.58036,-32.34043],[22.58018,-32.34056],[22.57999,-32.3407],[22.57981,-32.34083],[22.57964,-32.34096],[22.57948,-32.34108],[22.57931,-32.3412],[22.57915,-32.34132],[22.57899,-32.34145],[22.57887,-32.34153],[22.57875,-32.34162],[22.5786,-32.34174],[22.57845,-32.34185],[22.57837,-32.34193],[22.57829,-32.34201],[22.57821,-32.3421],[22.57813,-32.3422],[22.57806,-32.34229],[22.57798,-32.34238],[22.57793,-32.34248],[22.57787,-32.34258],[22.57781,-32.3427],[22.57774,-32.34283],[22.5777,-32.34296],[22.57765,-32.34309],[22.57762,-32.34323],[22.57759,-32.34338],[22.57758,-32.34349],[22.57757,-32.34359],[22.57756,-32.34379],[22.57757,-32.34398],[22.57759,-32.34413],[22.57761,-32.34427],[22.57764,-32.34438],[22.57767,-32.34448],[22.57773,-32.34465],[22.5778,-32.34481],[22.57786,-32.34496],[22.57793,-32.34511],[22.578,-32.34526],[22.57801,-32.3453],[22.57808,-32.34547],[22.57816,-32.34564],[22.57819,-32.34575],[22.57823,-32.34586],[22.57831,-32.34605],[22.57839,-32.34624],[22.57845,-32.34641],[22.57851,-32.34657],[22.57857,-32.34672],[22.57862,-32.34687],[22.57868,-32.34702],[22.57873,-32.34715],[22.57878,-32.34729],[22.57883,-32.34742],[22.57887,-32.34752],[22.5789,-32.34762],[22.57892,-32.34774],[22.57895,-32.34786],[22.57896,-32.34796],[22.57896,-32.34807],[22.57896,-32.34819],[22.57894,-32.34839],[22.57891,-32.34849],[22.57889,-32.3486],[22.57882,-32.34877],[22.57877,-32.34889],[22.57871,-32.349],[22.57863,-32.34917],[22.57854,-32.34934],[22.57846,-32.34951],[22.57842,-32.34957],[22.57836,-32.34968],[22.5783,-32.3498],[22.5782,-32.34996],[22.57814,-32.35005],[22.57808,-32.35014],[22.578,-32.35028],[22.5779,-32.3504],[22.57781,-32.35053],[22.57768,-32.3507],[22.57755,-32.35087],[22.57743,-32.35104],[22.5773,-32.35121],[22.57717,-32.35138],[22.57705,-32.35154],[22.57694,-32.3517],[22.57682,-32.35185],[22.5767,-32.35201],[22.57658,-32.35217],[22.57647,-32.35232],[22.57634,-32.35249],[22.57621,-32.35266],[22.57609,-32.35283],[22.57596,-32.35299],[22.57583,-32.35316],[22.57571,-32.35332],[22.57558,-32.35348],[22.57546,-32.35361],[22.57533,-32.35374],[22.57521,-32.35387],[22.57509,-32.35399],[22.57496,-32.35411],[22.57484,-32.35423],[22.57471,-32.35434],[22.57457,-32.35444],[22.57447,-32.35452],[22.57437,-32.3546],[22.57424,-32.3547],[22.57412,-32.3548],[22.57396,-32.35491],[22.5738,-32.35503],[22.57367,-32.35512],[22.57354,-32.35521],[22.57341,-32.35531],[22.57329,-32.3554],[22.57312,-32.35552],[22.57294,-32.35564],[22.57277,-32.35577],[22.57272,-32.35581],[22.5726,-32.35589],[22.57243,-32.35602],[22.57227,-32.35614],[22.57208,-32.35627],[22.5719,-32.35641],[22.57172,-32.35654],[22.57153,-32.35668],[22.57135,-32.35681],[22.57117,-32.35695],[22.57099,-32.35708],[22.5708,-32.35722],[22.57062,-32.35735],[22.57044,-32.35749],[22.57028,-32.3576],[22.57013,-32.35771],[22.56997,-32.35783],[22.56981,-32.35794],[22.56964,-32.35807],[22.56946,-32.3582],[22.56929,-32.35832],[22.56914,-32.35843],[22.56899,-32.35853],[22.56885,-32.35864],[22.5687,-32.35874],[22.56853,-32.35887],[22.56836,-32.35899],[22.56819,-32.35912],[22.56803,-32.35925],[22.56786,-32.35937],[22.56769,-32.3595],[22.56752,-32.35962],[22.56739,-32.35972],[22.56726,-32.35981],[22.56714,-32.35991],[22.56701,-32.36001],[22.56689,-32.36011],[22.56677,-32.36021],[22.5666,-32.36034],[22.56643,-32.36047],[22.56626,-32.3606],[22.56609,-32.36074],[22.56593,-32.36087],[22.56576,-32.361],[22.56559,-32.36113],[22.56542,-32.36127],[22.56527,-32.36138],[22.56513,-32.3615],[22.56496,-32.36163],[22.56479,-32.36177],[22.56462,-32.3619],[22.56445,-32.36203],[22.56428,-32.36216],[22.56422,-32.36221],[22.56407,-32.36233],[22.56392,-32.36245],[22.56377,-32.36257],[22.56362,-32.36269],[22.56347,-32.36281],[22.56333,-32.36291],[22.56318,-32.36302],[22.56304,-32.36312]]}}