{"type":"FeatureCollection","features":[{"type":"Feature","id":"n-234164963","properties":{"railway":"switch","kind":"switch"},"geometry":{"type":"Point","coordinates":[24.0141441,-30.6559072]}},{"type":"Feature","id":"n-234164983","properties":{"railway":"switch","kind":"switch"},"geometry":{"type":"Point","coordinates":[24.0131546,-30.6331973]}},{"type":"Feature","id":"n-247327813","properties":{"alt_name":"De Aar Junction","ele":"1243","name":"De Aar","old_name":"Brounger Junction","public_transport":"station","railway":"station","ref":"DER","sagns_id":"90525","source":"sagns","train":"yes","wikidata":"Q5244215","wikimedia_commons":"Category:De Aar station","wikipedia":"en:De Aar railway station","kind":"station"},"geometry":{"type":"Point","coordinates":[24.0138567,-30.6503939]}},{"type":"Feature","id":"n-442290525","properties":{"railway":"buffer_stop","kind":"buffer_stop"},"geometry":{"type":"Point","coordinates":[24.021364,-30.6579046]}},{"type":"Feature","id":"n-701681639","properties":{"railway":"level_crossing","kind":"level_crossing"},"geometry":{"type":"Point","coordinates":[23.9947098,-30.6309768]}},{"type":"Feature","id":"n-1024135381","properties":{"railway":"switch","kind":"switch"},"geometry":{"type":"Point","coordinates":[24.0179925,-30.659279]}},{"type":"Feature","id":"n-1242161463","properties":{"railway":"switch","kind":"switch"},"geometry":{"type":"Point","coordinates":[24.0186986,-30.6575233]}},{"type":"Feature","id":"n-1242161490","properties":{"railway":"buffer_stop","kind":"buffer_stop"},"geometry":{"type":"Point","coordinates":[24.0183706,-30.6569154]}},{"type":"Feature","id":"n-1242161493","properties":{"railway":"switch","kind":"switch"},"geometry":{"type":"Point","coordinates":[24.0207096,-30.6581684]}},{"type":"Feature","id":"n-1242161494","properties":{"railway":"switch","kind":"switch"},"geometry":{"type":"Point","coordinates":[24.0160518,-30.6580896]}},{"type":"Feature","id":"n-1558491128","properties":{"railway":"switch","kind":"switch"},"geometry":{"type":"Point","coordinates":[24.0142816,-30.6571065]}},{"type":"Feature","id":"n-2263229049","properties":{"railway":"buffer_stop","kind":"buffer_stop"},"geometry":{"type":"Point","coordinates":[24.0243583,-30.6341873]}},{"type":"Feature","id":"n-2518377346","properties":{"railway":"switch","kind":"switch"},"geometry":{"type":"Point","coordinates":[24.013085,-30.6297861]}},{"type":"Feature","id":"n-2518377431","properties":{"railway":"switch","kind":"switch"},"geometry":{"type":"Point","coordinates":[24.0147521,-30.6367181]}},{"type":"Feature","id":"n-2518377447","properties":{"railway":"switch","kind":"switch"},"geometry":{"type":"Point","coordinates":[24.0147517,-30.6367456]}},{"type":"Feature","id":"n-2518377482","properties":{"railway":"switch","kind":"switch"},"geometry":{"type":"Point","coordinates":[24.0144934,-30.6386096]}},{"type":"Feature","id":"n-2518377602","properties":{"railway":"switch","kind":"switch"},"geometry":{"type":"Point","coordinates":[24.0141295,-30.6439093]}},{"type":"Feature","id":"n-2518377604","properties":{"railway":"buffer_stop","kind":"buffer_stop"},"geometry":{"type":"Point","coordinates":[24.0170567,-30.6440003]}},{"type":"Feature","id":"n-2518377610","properties":{"railway":"switch","kind":"switch"},"geometry":{"type":"Point","coordinates":[24.0140337,-30.6438958]}},{"type":"Feature","id":"n-2518377630","properties":{"railway":"switch","kind":"switch"},"geometry":{"type":"Point","coordinates":[24.0139793,-30.644373]}},{"type":"Feature","id":"n-2518377656","properties":{"railway":"switch","kind":"switch"},"geometry":{"type":"Point","coordinates":[24.0139552,-30.6448577]}},{"type":"Feature","id":"n-2518377686","properties":{"railway":"switch","kind":"switch"},"geometry":{"type":"Point","coordinates":[24.013636,-30.645723]}},{"type":"Feature","id":"n-2518377705","properties":{"railway":"switch","kind":"switch"},"geometry":{"type":"Point","coordinates":[24.0135325,-30.646801]}},{"type":"Feature","id":"n-2518377708","properties":{"railway":"switch","kind":"switch"},"geometry":{"type":"Point","coordinates":[24.0136723,-30.6465111]}},{"type":"Feature","id":"n-2518377722","properties":{"railway":"switch","kind":"switch"},"geometry":{"type":"Point","coordinates":[24.0134919,-30.6471447]}},{"type":"Feature","id":"n-2518377822","properties":{"railway":"buffer_stop","kind":"buffer_stop"},"geometry":{"type":"Point","coordinates":[24.013376,-30.6503704]}},{"type":"Feature","id":"n-2518377824","properties":{"railway":"switch","kind":"switch"},"geometry":{"type":"Point","coordinates":[24.014907,-30.6511419]}},{"type":"Feature","id":"n-2518377844","properties":{"railway":"buffer_stop","kind":"buffer_stop"},"geometry":{"type":"Point","coordinates":[24.0144191,-30.6516323]}},{"type":"Feature","id":"n-2518377875","properties":{"railway":"buffer_stop","kind":"buffer_stop"},"geometry":{"type":"Point","coordinates":[24.0143354,-30.6516275]}},{"type":"Feature","id":"n-2518377897","properties":{"railway":"switch","kind":"switch"},"geometry":{"type":"Point","coordinates":[24.0153987,-30.6534477]}},{"type":"Feature","id":"n-2518377899","properties":{"railway":"switch","kind":"switch"},"geometry":{"type":"Point","coordinates":[24.0140905,-30.6538696]}},{"type":"Feature","id":"n-2518377912","properties":{"railway":"switch","kind":"switch"},"geometry":{"type":"Point","coordinates":[24.0139734,-30.6536613]}},{"type":"Feature","id":"n-2518377920","properties":{"railway":"switch","kind":"switch"},"geometry":{"type":"Point","coordinates":[24.0140633,-30.6543295]}},{"type":"Feature","id":"n-2518377963","properties":{"railway":"buffer_stop","kind":"buffer_stop"},"geometry":{"type":"Point","coordinates":[24.0164396,-30.6563037]}},{"type":"Feature","id":"n-2518377972","properties":{"railway":"switch","kind":"switch"},"geometry":{"type":"Point","coordinates":[24.0141375,-30.6568363]}},{"type":"Feature","id":"n-2518377979","properties":{"railway":"switch","kind":"switch"},"geometry":{"type":"Point","coordinates":[24.015918,-30.6577386]}},{"type":"Feature","id":"n-2518377983","properties":{"railway":"switch","kind":"switch"},"geometry":{"type":"Point","coordinates":[24.0159897,-30.6579197]}},{"type":"Feature","id":"n-2518377990","properties":{"railway":"switch","kind":"switch"},"geometry":{"type":"Point","coordinates":[24.0161191,-30.6582731]}},{"type":"Feature","id":"n-2518377992","properties":{"railway":"switch","kind":"switch"},"geometry":{"type":"Point","coordinates":[24.0161848,-30.658453]}},{"type":"Feature","id":"n-2518377997","properties":{"railway":"switch","kind":"switch"},"geometry":{"type":"Point","coordinates":[24.0139468,-30.6586874]}},{"type":"Feature","id":"n-2518378005","properties":{"railway":"level_crossing","kind":"level_crossing"},"geometry":{"type":"Point","coordinates":[24.0165398,-30.659056]}},{"type":"Feature","id":"n-2666747313","properties":{"railway":"level_crossing","kind":"level_crossing"},"geometry":{"type":"Point","coordinates":[24.0129677,-30.6323489]}},{"type":"Feature","id":"n-2666747322","properties":{"railway":"buffer_stop","kind":"buffer_stop"},"geometry":{"type":"Point","coordinates":[24.0133655,-30.6349373]}},{"type":"Feature","id":"n-6051190072","properties":{"railway":"buffer_stop","kind":"buffer_stop"},"geometry":{"type":"Point","coordinates":[24.0151292,-30.6276667]}},{"type":"Feature","id":"n-7094127045","properties":{"railway":"buffer_stop","kind":"buffer_stop"},"geometry":{"type":"Point","coordinates":[24.0134296,-30.6614811]}},{"type":"Feature","id":"n-7094127061","properties":{"railway":"switch","kind":"switch"},"geometry":{"type":"Point","coordinates":[24.0142662,-30.6530006]}},{"type":"Feature","id":"n-7094127083","properties":{"railway":"switch","kind":"switch"},"geometry":{"type":"Point","coordinates":[24.0144298,-30.6525877]}},{"type":"Feature","id":"n-7094164786","properties":{"railway":"buffer_stop","kind":"buffer_stop"},"geometry":{"type":"Point","coordinates":[24.0157723,-30.65713]}},{"type":"Feature","id":"n-7094164794","properties":{"railway":"buffer_stop","kind":"buffer_stop"},"geometry":{"type":"Point","coordinates":[24.0157656,-30.6592734]}},{"type":"Feature","id":"n-7094164842","properties":{"railway":"buffer_stop","kind":"buffer_stop"},"geometry":{"type":"Point","coordinates":[24.0145854,-30.6555033]}},{"type":"Feature","id":"n-7094164843","properties":{"railway":"buffer_stop","kind":"buffer_stop"},"geometry":{"type":"Point","coordinates":[24.0146443,-30.6555215]}},{"type":"Feature","id":"n-7094164945","properties":{"railway":"switch","kind":"switch"},"geometry":{"type":"Point","coordinates":[24.0199384,-30.6336106]}},{"type":"Feature","id":"n-7094164998","properties":{"railway":"buffer_stop","kind":"buffer_stop"},"geometry":{"type":"Point","coordinates":[24.0147466,-30.6507654]}},{"type":"Feature","id":"n-7094165010","properties":{"railway":"buffer_stop","kind":"buffer_stop"},"geometry":{"type":"Point","coordinates":[24.0154693,-30.6441007]}},{"type":"Feature","id":"n-7094165012","properties":{"railway":"buffer_stop","kind":"buffer_stop"},"geometry":{"type":"Point","coordinates":[24.0154487,-30.6464052]}},{"type":"Feature","id":"n-7095929303","properties":{"railway":"buffer_stop","kind":"buffer_stop"},"geometry":{"type":"Point","coordinates":[24.0150698,-30.6277007]}},{"type":"Feature","id":"n-7095929340","properties":{"railway":"switch","kind":"switch"},"geometry":{"type":"Point","coordinates":[24.0140156,-30.644183]}},{"type":"Feature","id":"n-7095929341","properties":{"railway":"switch","kind":"switch"},"geometry":{"type":"Point","coordinates":[24.0140517,-30.643991]}},{"type":"Feature","id":"n-7095929346","properties":{"railway":"switch","kind":"switch"},"geometry":{"type":"Point","coordinates":[24.0141861,-30.6440784]}},{"type":"Feature","id":"n-7095929347","properties":{"railway":"switch","kind":"switch"},"geometry":{"type":"Point","coordinates":[24.0141014,-30.6442585]}},{"type":"Feature","id":"n-7095929351","properties":{"railway":"buffer_stop","kind":"buffer_stop"},"geometry":{"type":"Point","coordinates":[24.0147472,-30.6431264]}},{"type":"Feature","id":"n-7095929377","properties":{"railway":"buffer_stop","kind":"buffer_stop"},"geometry":{"type":"Point","coordinates":[24.0148784,-30.6549866]}},{"type":"Feature","id":"n-7095929443","properties":{"railway":"switch","kind":"switch"},"geometry":{"type":"Point","coordinates":[24.0135553,-30.6450204]}},{"type":"Feature","id":"n-7095929446","properties":{"railway":"switch","kind":"switch"},"geometry":{"type":"Point","coordinates":[24.0136322,-30.6456319]}},{"type":"Feature","id":"n-7095929451","properties":{"railway":"switch","kind":"switch"},"geometry":{"type":"Point","coordinates":[24.0136898,-30.6468662]}},{"type":"Feature","id":"n-7095929456","properties":{"railway":"buffer_stop","kind":"buffer_stop"},"geometry":{"type":"Point","coordinates":[24.0132524,-30.6474614]}},{"type":"Feature","id":"n-7095929466","properties":{"railway":"switch","kind":"switch"},"geometry":{"type":"Point","coordinates":[24.0134554,-30.6458631]}},{"type":"Feature","id":"n-7095929472","properties":{"railway":"buffer_stop","kind":"buffer_stop"},"geometry":{"type":"Point","coordinates":[24.0133112,-30.6474773]}},{"type":"Feature","id":"n-7095929477","properties":{"railway":"switch","kind":"switch"},"geometry":{"type":"Point","coordinates":[24.0134758,-30.6475116]}},{"type":"Feature","id":"n-7095929505","properties":{"railway":"switch","kind":"switch"},"geometry":{"type":"Point","coordinates":[24.0139324,-30.6585023]}},{"type":"Feature","id":"n-7397447870","properties":{"railway":"level_crossing","kind":"level_crossing"},"geometry":{"type":"Point","coordinates":[24.01405,-30.6353405]}},{"type":"Feature","id":"n-7397483987","properties":{"railway":"level_crossing","kind":"level_crossing"},"geometry":{"type":"Point","coordinates":[24.013127,-30.6320668]}},{"type":"Feature","id":"n-8091822586","properties":{"railway":"switch","kind":"switch"},"geometry":{"type":"Point","coordinates":[24.0147429,-30.6369375]}},{"type":"Feature","id":"n-8091826088","properties":{"railway":"switch","kind":"switch"},"geometry":{"type":"Point","coordinates":[24.0137012,-30.6438599]}},{"type":"Feature","id":"n-8091826089","properties":{"railway":"switch","kind":"switch"},"geometry":{"type":"Point","coordinates":[24.0137335,-30.6440465]}},{"type":"Feature","id":"n-8091826117","properties":{"railway":"switch","kind":"switch"},"geometry":{"type":"Point","coordinates":[24.0136825,-30.643788]}},{"type":"Feature","id":"n-8091826138","properties":{"railway":"switch","kind":"switch"},"geometry":{"type":"Point","coordinates":[24.0132183,-30.6350698]}},{"type":"Feature","id":"n-8091826204","properties":{"railway":"switch","kind":"switch"},"geometry":{"type":"Point","coordinates":[24.0131669,-30.6352517]}},{"type":"Feature","id":"n-8091826228","properties":{"railway":"buffer_stop","kind":"buffer_stop"},"geometry":{"type":"Point","coordinates":[24.0128189,-30.6410396]}},{"type":"Feature","id":"n-8091826255","properties":{"railway":"buffer_stop","kind":"buffer_stop"},"geometry":{"type":"Point","coordinates":[24.0161522,-30.6479527]}},{"type":"Feature","id":"n-8091826343","properties":{"railway":"buffer_stop","kind":"buffer_stop"},"geometry":{"type":"Point","coordinates":[24.0165813,-30.6354473]}},{"type":"Feature","id":"n-8091826344","properties":{"railway":"buffer_stop","kind":"buffer_stop"},"geometry":{"type":"Point","coordinates":[24.0165237,-30.6354669]}},{"type":"Feature","id":"n-8091826351","properties":{"railway":"switch","kind":"switch"},"geometry":{"type":"Point","coordinates":[24.014559,-30.6382434]}},{"type":"Feature","id":"n-8091826355","properties":{"railway":"switch","kind":"switch"},"geometry":{"type":"Point","coordinates":[24.0142553,-30.6438211]}},{"type":"Feature","id":"n-8091826392","properties":{"railway":"switch","kind":"switch"},"geometry":{"type":"Point","coordinates":[24.0153703,-30.641326]}},{"type":"Feature","id":"n-8091826426","properties":{"railway":"switch","kind":"switch"},"geometry":{"type":"Point","coordinates":[24.0141596,-30.6561078]}},{"type":"Feature","id":"n-8091826480","properties":{"railway":"switch","kind":"switch"},"geometry":{"type":"Point","coordinates":[24.0164646,-30.6577212]}},{"type":"Feature","id":"n-8091826490","properties":{"railway":"switch","kind":"switch"},"geometry":{"type":"Point","coordinates":[24.0164271,-30.6579069]}},{"type":"Feature","id":"n-8091826492","properties":{"railway":"switch","kind":"switch"},"geometry":{"type":"Point","coordinates":[24.0164136,-30.658129]}},{"type":"Feature","id":"n-8091826494","properties":{"railway":"buffer_stop","kind":"buffer_stop"},"geometry":{"type":"Point","coordinates":[24.016415,-30.6583915]}},{"type":"Feature","id":"n-8091826511","properties":{"railway":"buffer_stop","kind":"buffer_stop"},"geometry":{"type":"Point","coordinates":[24.0154038,-30.6571986]}},{"type":"Feature","id":"n-8091826859","properties":{"railway":"switch","kind":"switch"},"geometry":{"type":"Point","coordinates":[24.0137275,-30.6259598]}},{"type":"Feature","id":"n-8091826897","properties":{"railway":"switch","kind":"switch"},"geometry":{"type":"Point","coordinates":[24.0132517,-30.634882]}},{"type":"Feature","id":"n-8091826901","properties":{"railway":"switch","kind":"switch"},"geometry":{"type":"Point","coordinates":[24.0131586,-30.6332702]}},{"type":"Feature","id":"n-9725722926","properties":{"railway":"switch","kind":"switch"},"geometry":{"type":"Point","coordinates":[24.0141155,-30.6545652]}},{"type":"Feature","id":"n-9725722928","properties":{"railway":"switch","kind":"switch"},"geometry":{"type":"Point","coordinates":[24.0142689,-30.656259]}},{"type":"Feature","id":"n-9725722929","properties":{"railway":"switch","kind":"switch"},"geometry":{"type":"Point","coordinates":[24.0140724,-30.654549]}},{"type":"Feature","id":"n-9725722930","properties":{"railway":"switch","kind":"switch"},"geometry":{"type":"Point","coordinates":[24.0141579,-30.6552731]}},{"type":"Feature","id":"n-9725722931","properties":{"railway":"switch","kind":"switch"},"geometry":{"type":"Point","coordinates":[24.0141522,-30.6551787]}},{"type":"Feature","id":"n-9725722932","properties":{"railway":"switch","kind":"switch"},"geometry":{"type":"Point","coordinates":[24.0141743,-30.655632]}},{"type":"Feature","id":"n-9725722957","properties":{"railway":"switch","kind":"switch"},"geometry":{"type":"Point","coordinates":[24.0139546,-30.6448843]}},{"type":"Feature","id":"n-9725722968","properties":{"railway":"switch","kind":"switch"},"geometry":{"type":"Point","coordinates":[24.014525,-30.6384321]}},{"type":"Feature","id":"n-9725723009","properties":{"railway":"switch","kind":"switch"},"geometry":{"type":"Point","coordinates":[24.0143577,-30.6435999]}},{"type":"Feature","id":"n-9725730435","properties":{"railway":"buffer_stop","kind":"buffer_stop"},"geometry":{"type":"Point","coordinates":[24.0169956,-30.6435751]}},{"type":"Feature","id":"n-9725730436","properties":{"railway":"buffer_stop","kind":"buffer_stop"},"geometry":{"type":"Point","coordinates":[24.0170986,-30.6438944]}},{"type":"Feature","id":"n-9725730439","properties":{"railway":"buffer_stop","kind":"buffer_stop"},"geometry":{"type":"Point","coordinates":[24.0167687,-30.637518]}},{"type":"Feature","id":"n-9725730440","properties":{"railway":"buffer_stop","kind":"buffer_stop"},"geometry":{"type":"Point","coordinates":[24.0167251,-30.6375374]}},{"type":"Feature","id":"n-11546185998","properties":{"railway":"signal","kind":"signal"},"geometry":{"type":"Point","coordinates":[24.0134284,-30.6480277]}},{"type":"Feature","id":"n-12134731395","properties":{"railway":"buffer_stop","kind":"buffer_stop"},"geometry":{"type":"Point","coordinates":[24.0165009,-30.6379166]}},{"type":"Feature","id":"n-12134731396","properties":{"railway":"buffer_stop","kind":"buffer_stop"},"geometry":{"type":"Point","coordinates":[24.0164459,-30.637927]}},{"type":"Feature","id":"n-12134731397","properties":{"railway":"buffer_stop","kind":"buffer_stop"},"geometry":{"type":"Point","coordinates":[24.0163936,-30.638024]}},{"type":"Feature","id":"n-12134731398","properties":{"railway":"buffer_stop","kind":"buffer_stop"},"geometry":{"type":"Point","coordinates":[24.0163332,-30.638024]}}]}