{"type":"FeatureCollection","features":[{"type":"Feature","id":"w-21735066","properties":{"electrified":"contact_line","frequency":"50","gauge":"1067","passenger_lines":"1","railway":"rail","usage":"main","voltage":"25000","railClass":"main","active":true},"geometry":{"type":"LineString","coordinates":[[24.0131546,-30.6331973],[24.0131443,-30.632905],[24.0131218,-30.6324151],[24.013127,-30.6320668],[24.0131273,-30.6320434],[24.0131287,-30.6314871],[24.0131035,-30.6308061],[24.0130946,-30.6302319],[24.013085,-30.6297861],[24.0130877,-30.629711],[24.0130878,-30.6293716],[24.0131038,-30.6289932],[24.0131387,-30.6286816],[24.0131991,-30.6282154],[24.0132554,-30.6279015],[24.0133466,-30.627441],[24.0134217,-30.6271271],[24.0135511,-30.6266298],[24.0136758,-30.6261676],[24.0137275,-30.6259598]]}},{"type":"Feature","id":"w-22960097","properties":{"electrified":"no","gauge":"1067","passenger_lines":"1","railway":"rail","source":"Landsat","usage":"main","railClass":"main","active":true},"geometry":{"type":"LineString","coordinates":[[23.9982108,-30.6306555],[23.9951349,-30.6309459],[23.9947098,-30.6309768],[23.9938507,-30.6310614],[23.9932394,-30.6310773],[23.9926487,-30.6310645],[23.9922505,-30.6310246],[23.9918581,-30.630974],[23.9913779,-30.6308892],[23.9909206,-30.6307796],[23.9906591,-30.6307092],[23.9902098,-30.6305753],[23.9900663,-30.6305222],[23.9897847,-30.6304149],[23.9893822,-30.6302431],[23.9889331,-30.6300248],[23.9884322,-30.6297782],[23.9881124,-30.6296175],[23.9878669,-30.6295079],[23.9876778,-30.6294225],[23.987238,-30.6292551],[23.9868544,-30.6291259],[23.9865379,-30.6290451],[23.9862281,-30.6289701],[23.9859478,-30.6289124],[23.9856957,-30.6288778],[23.9854489,-30.6288408],[23.9850211,-30.628812],[23.9846201,-30.6288039],[23.9843599,-30.6288039],[23.9838664,-30.6288235],[23.9789686,-30.6293573],[23.9688003,-30.6305057],[23.9626461,-30.6311904],[23.9566261,-30.6318633],[23.9565124,-30.631876],[23.9556805,-30.6319654],[23.9523907,-30.632319],[23.9498008,-30.6326117],[23.948527,-30.6327609],[23.9477411,-30.6328463],[23.9471517,-30.6329121],[23.9466615,-30.632968],[23.9452983,-30.6331195],[23.9447333,-30.6331548],[23.9376668,-30.6332573],[23.928223,-30.633411],[23.9244622,-30.6334602],[23.9228073,-30.6334764],[23.9135483,-30.6336102],[23.9129019,-30.6336171],[23.9104664,-30.6336633],[23.9069113,-30.6337233],[23.9008965,-30.6338125],[23.8984546,-30.6338471],[23.8968093,-30.6338648],[23.8950053,-30.6339043],[23.8911009,-30.6339488],[23.8887614,-30.6339894],[23.8863173,-30.6340227],[23.8857294,-30.634023],[23.8853057,-30.633996],[23.8846819,-30.6339095],[23.8842094,-30.6338203],[23.8835418,-30.6336587],[23.8830917,-30.6335163],[23.882573,-30.63332],[23.8821155,-30.6331047],[23.8809676,-30.6325271],[23.8802198,-30.6321724],[23.8798406,-30.6320147],[23.8794443,-30.6319109],[23.879052,-30.6318141],[23.8786248,-30.6317616],[23.8782163,-30.6317562],[23.8776983,-30.6317915],[23.8772857,-30.6318565],[23.8769093,-30.6319416],[23.8762296,-30.6321485],[23.8756,-30.6323405],[23.8750963,-30.6324352],[23.8747039,-30.6325167],[23.8743108,-30.6325823],[23.873836,-30.6326155],[23.8733728,-30.6326346],[23.8728429,-30.6326263],[23.8723791,-30.6326026],[23.8719581,-30.6325621],[23.8714898,-30.6324719],[23.8708447,-30.63232],[23.8696581,-30.6319497],[23.8677793,-30.631307],[23.8639897,-30.6300739],[23.8593331,-30.628523]]}},{"type":"Feature","id":"w-37712112","properties":{"electrified":"no","end_date":"1980s","gauge":"1067","railway":"abandoned","service":"spur","railClass":"spur","active":false},"geometry":{"type":"LineString","coordinates":[[23.9940226,-30.631083],[23.9933063,-30.6311633],[23.9930369,-30.631195],[23.9928505,-30.631225],[23.9926855,-30.6312688],[23.9924857,-30.6313381],[23.992243,-30.6314512],[23.9920793,-30.6315666],[23.9918996,-30.6316947],[23.9916604,-30.6319223],[23.9914903,-30.63215],[23.9913601,-30.6324076],[23.9912926,-30.6326333],[23.99125,-30.6329237],[23.9912395,-30.6331404],[23.9912679,-30.6335569],[23.9913302,-30.634565],[23.9912698,-30.6349757],[23.9911751,-30.6351978],[23.9910734,-30.6355008],[23.9910069,-30.6358829],[23.9909707,-30.6363041],[23.991022,-30.6366134],[23.9911066,-30.6372347],[23.9911278,-30.6375544],[23.9911201,-30.6377943],[23.991084,-30.6380967],[23.9910146,-30.63838],[23.9908397,-30.638995],[23.9907167,-30.6393356],[23.9906018,-30.6395133],[23.9904566,-30.6396959],[23.9902675,-30.6398717],[23.9900222,-30.6400532],[23.9895507,-30.6403512],[23.9889953,-30.6406774],[23.9885407,-30.6409523]]}},{"type":"Feature","id":"w-37712474","properties":{"electrified":"contact_line","frequency":"50","gauge":"1067","name":"Cape Midland Line","passenger_lines":"1","railway":"rail","usage":"main","voltage":"25000","railClass":"main","active":true},"geometry":{"type":"LineString","coordinates":[[24.0187725,-30.6737967],[24.0185957,-30.6736039],[24.0184189,-30.6733921],[24.0182472,-30.6731737],[24.0180729,-30.672941],[24.0178576,-30.6726131],[24.0177084,-30.6723472],[24.0176179,-30.6721749]]}},{"type":"Feature","id":"w-37712475","properties":{"gauge":"1067","railway":"rail","service":"yard","triangle":"yes","railClass":"yard","active":true},"geometry":{"type":"LineString","coordinates":[[24.0141977,-30.6470498],[24.0142305,-30.6472956],[24.0142889,-30.6476037],[24.0143031,-30.6476792],[24.0143532,-30.6479513],[24.0143856,-30.6484544],[24.0144177,-30.6493901],[24.0144765,-30.6506131],[24.0144929,-30.650826],[24.0145449,-30.65106],[24.0146665,-30.6513763],[24.0146891,-30.651429]]}},{"type":"Feature","id":"w-61153709","properties":{"electrified":"contact_line","frequency":"50","gauge":"1067","railway":"rail","usage":"main","voltage":"25000","railClass":"main","active":true},"geometry":{"type":"LineString","coordinates":[[24.0141441,-30.6559072],[24.0141273,-30.6555257],[24.0140724,-30.654549],[24.0140633,-30.6543295],[24.0139352,-30.6520572],[24.0138682,-30.650686],[24.0138567,-30.6503939]]}},{"type":"Feature","id":"w-108236678","properties":{"gauge":"1067","railway":"rail","service":"yard","triangle":"yes","railClass":"yard","active":true},"geometry":{"type":"LineString","coordinates":[[24.0179925,-30.659279],[24.0182421,-30.6591507],[24.0183201,-30.6590988],[24.018398,-30.6590412],[24.0184843,-30.6589633],[24.0185471,-30.6589028],[24.0186074,-30.6588329],[24.0186644,-30.6587587],[24.0187256,-30.6586549],[24.0187792,-30.6585446],[24.0188186,-30.6584329],[24.018842,-30.6583478],[24.0188554,-30.6582664],[24.0188638,-30.6581676],[24.0188638,-30.658066],[24.0188538,-30.6579853],[24.0188412,-30.6578822],[24.018801,-30.6577424],[24.0187616,-30.6576494],[24.0186986,-30.6575233],[24.0183706,-30.6569154]]}},{"type":"Feature","id":"w-108236679","properties":{"gauge":"1067","railway":"rail","service":"yard","triangle":"yes","railClass":"yard","active":true},"geometry":{"type":"LineString","coordinates":[[24.0186986,-30.6575233],[24.0187934,-30.6576711],[24.0188378,-30.6577359],[24.0189007,-30.657813],[24.0189803,-30.657893],[24.0190724,-30.6579709],[24.0191562,-30.6580329],[24.0192727,-30.6581057],[24.0193632,-30.6581496],[24.0194981,-30.6582073],[24.0196606,-30.6582541],[24.0198299,-30.6582858],[24.0199798,-30.6582967],[24.0201214,-30.6582974],[24.0202463,-30.6582866],[24.0203627,-30.6582693],[24.0205177,-30.658234],[24.0207096,-30.6581684]]}},{"type":"Feature","id":"w-142414048","properties":{"gauge":"1067","railway":"abandoned","railClass":"unknown","active":false},"geometry":{"type":"LineString","coordinates":[[24.0145503,-30.6631104],[24.0146299,-30.6647052],[24.0146258,-30.6649209],[24.014605,-30.6659998],[24.0146911,-30.666877],[24.0147722,-30.6675879],[24.0148419,-30.6682939],[24.014909,-30.6690621],[24.0150323,-30.669512],[24.0153488,-30.6701164],[24.0156975,-30.6706632],[24.0161319,-30.6711874],[24.0164709,-30.6715213],[24.0170123,-30.6720175],[24.0187725,-30.6737967]]}},{"type":"Feature","id":"w-157935284","properties":{"electrified":"contact_line","frequency":"50","gauge":"1067","railway":"rail","usage":"main","voltage":"25000","railClass":"main","active":true},"geometry":{"type":"LineString","coordinates":[[24.0138567,-30.6503939],[24.0137848,-30.6489161],[24.013752,-30.6481976],[24.0137248,-30.6475788],[24.0137001,-30.6471497],[24.0136898,-30.6468662],[24.0136723,-30.6465111],[24.013636,-30.645723],[24.0136322,-30.6456319],[24.013603,-30.6451304],[24.0135921,-30.6447435],[24.0135623,-30.644255],[24.0135457,-30.6439138],[24.0135196,-30.6437321],[24.0134828,-30.6434304]]}},{"type":"Feature","id":"w-216999558","properties":{"electrified":"no","gauge":"1067","railway":"rail","service":"siding","railClass":"siding","active":true},"geometry":{"type":"LineString","coordinates":[[24.0189114,-30.6332972],[24.0188324,-30.6332375],[24.0187667,-30.6331781],[24.0186895,-30.6330961],[24.0186258,-30.63302],[24.0185688,-30.6329421],[24.0185159,-30.6328544],[24.0184475,-30.6327142],[24.0183241,-30.6324638],[24.0180646,-30.6319491],[24.0179761,-30.6317754],[24.0179063,-30.6316664],[24.0178299,-30.6315689],[24.0177179,-30.6314575],[24.0176066,-30.6313733],[24.0174665,-30.631289],[24.0172572,-30.6311933],[24.0171084,-30.6311488],[24.0169763,-30.6311246],[24.0168603,-30.6311119],[24.0167436,-30.6311084],[24.0166551,-30.6311119],[24.0165451,-30.631124],[24.0164177,-30.6311454],[24.0162789,-30.6311794],[24.0161291,-30.631232],[24.0159724,-30.6313085],[24.0158802,-30.6313741],[24.0157872,-30.6314534],[24.0156859,-30.6315529],[24.0156063,-30.6316509],[24.0155635,-30.6317165],[24.0155057,-30.6318203],[24.0154571,-30.6319436],[24.0154295,-30.6320359],[24.0153663,-30.6323146],[24.0153583,-30.632423],[24.0153574,-30.6325917],[24.0153524,-30.6328037],[24.0153264,-30.6332045],[24.0153306,-30.6333386]]}},{"type":"Feature","id":"w-216999575","properties":{"bridge":"yes","gauge":"1067","layer":"1","railway":"rail","service":"siding","railClass":"siding","active":true},"geometry":{"type":"LineString","coordinates":[[24.0191036,-30.6334201],[24.0189987,-30.6333558],[24.0189114,-30.6332972]]}},{"type":"Feature","id":"w-216999577","properties":{"gauge":"1067","railway":"rail","service":"siding","railClass":"siding","active":true},"geometry":{"type":"LineString","coordinates":[[24.0243583,-30.6341873],[24.022674,-30.6340268],[24.0209442,-30.6338755],[24.0208074,-30.6338524],[24.0205024,-30.6337689],[24.0202855,-30.6337245],[24.0196323,-30.6335964],[24.0194116,-30.6335383],[24.019269,-30.6334897],[24.0191036,-30.6334201]]}},{"type":"Feature","id":"w-244526562","properties":{"gauge":"1067","railway":"rail","service":"yard","railClass":"yard","active":true},"geometry":{"type":"LineString","coordinates":[[24.0153987,-30.6534477],[24.015424,-30.6536487],[24.0154387,-30.653726],[24.0155042,-30.653934],[24.0156333,-30.6542783],[24.0156643,-30.6543566],[24.0157258,-30.6545346],[24.0157895,-30.6547138],[24.0158586,-30.6549027],[24.0159526,-30.6551525],[24.0160692,-30.6554217],[24.0161561,-30.6555964],[24.0162228,-30.6557214],[24.0164361,-30.6561167],[24.016492,-30.6563104]]}},{"type":"Feature","id":"w-244526563","properties":{"electrified":"contact_line","frequency":"50","gauge":"1067","railway":"rail","service":"siding","voltage":"25000","railClass":"siding","active":true},"geometry":{"type":"LineString","coordinates":[[24.013636,-30.645723],[24.0136255,-30.6459359],[24.0136208,-30.6460726],[24.0135962,-30.6462865],[24.0135325,-30.646801],[24.0134919,-30.6471447],[24.0134799,-30.6473743],[24.0134758,-30.6475116],[24.0135128,-30.6479812],[24.0135292,-30.6484122],[24.0136686,-30.6516539],[24.0136973,-30.6518514],[24.0137224,-30.6520308],[24.0137762,-30.6524055],[24.0138026,-30.6525994],[24.0138122,-30.6526405],[24.0138694,-30.6528695],[24.0139176,-30.6530645],[24.0139407,-30.6532056],[24.0139652,-30.6534747],[24.0139689,-30.6535891],[24.0139734,-30.6536613],[24.0140633,-30.6543295]]}},{"type":"Feature","id":"w-244526564","properties":{"gauge":"1067","railway":"rail","service":"yard","railClass":"yard","active":true},"geometry":{"type":"LineString","coordinates":[[24.0147517,-30.6367456],[24.0147429,-30.6369375],[24.0147085,-30.637278],[24.0146743,-30.6375549],[24.0146411,-30.6377837],[24.0145977,-30.6380259],[24.014559,-30.6382434],[24.014525,-30.6384321],[24.0144934,-30.6386096],[24.0144424,-30.6389147],[24.0144345,-30.6390681],[24.0146154,-30.642668],[24.0146005,-30.6428269],[24.0145717,-30.6429671],[24.0145179,-30.6431639],[24.0144719,-30.6433261],[24.0143577,-30.6435999],[24.0142553,-30.6438211]]}},{"type":"Feature","id":"w-244526565","properties":{"electrified":"contact_line","frequency":"50","gauge":"1067","railway":"rail","usage":"main","voltage":"25000","railClass":"main","active":true},"geometry":{"type":"LineString","coordinates":[[24.0134828,-30.6434304],[24.013423,-30.6431321],[24.0133788,-30.6429134],[24.0133157,-30.6426838],[24.0132026,-30.6422718],[24.0131046,-30.6419134],[24.0130176,-30.6415405],[24.0129898,-30.6413979],[24.0129443,-30.6410956],[24.0129127,-30.6408608],[24.0128895,-30.6405398],[24.0127596,-30.6379397],[24.0127465,-30.6373628],[24.0127828,-30.6367388],[24.012856,-30.6362497],[24.0130439,-30.6351616],[24.0131396,-30.6346205],[24.0131696,-30.6343187],[24.0131769,-30.6341341],[24.0131863,-30.6339708],[24.0131769,-30.6337458],[24.0131689,-30.6335888],[24.0131586,-30.6332702],[24.0131546,-30.6331973]]}},{"type":"Feature","id":"w-244526566","properties":{"electrified":"contact_line","gauge":"1067","railway":"rail","service":"yard","railClass":"yard","active":true},"geometry":{"type":"LineString","coordinates":[[24.0152227,-30.6440108],[24.0151982,-30.6433334],[24.0151568,-30.6425479],[24.0151538,-30.6424917],[24.0151356,-30.6419852],[24.0150927,-30.6409456],[24.0150243,-30.6395159],[24.0149787,-30.638452],[24.0149385,-30.6382293],[24.0148808,-30.637987],[24.014787,-30.6375154],[24.0147772,-30.6373434],[24.0147614,-30.6369354],[24.0147517,-30.6367456],[24.0147521,-30.6367181],[24.0147279,-30.636251],[24.0147038,-30.6357992],[24.0146783,-30.6354911],[24.0146414,-30.6352384],[24.0146327,-30.6351778],[24.0145978,-30.6349915],[24.0145536,-30.6347757],[24.0144691,-30.6344445],[24.0144054,-30.6342397],[24.0143369,-30.6340366],[24.0141352,-30.6335594],[24.0139675,-30.6332006],[24.0137741,-30.6328131],[24.0136578,-30.6325473],[24.0135415,-30.6322516],[24.0134135,-30.6318658],[24.0133105,-30.6314824],[24.0132265,-30.6310664],[24.0131829,-30.6307673],[24.0131059,-30.6300735],[24.013085,-30.6297861]]}},{"type":"Feature","id":"w-244526567","properties":{"gauge":"1067","railway":"rail","service":"yard","railClass":"yard","active":true},"geometry":{"type":"LineString","coordinates":[[24.0154693,-30.6441007],[24.0155142,-30.6446957],[24.0155422,-30.6449305],[24.0155912,-30.6451003],[24.0156916,-30.6454486],[24.0157414,-30.6456213],[24.0158067,-30.6458476],[24.0158566,-30.6460208],[24.0159045,-30.6469962],[24.0159234,-30.6473817],[24.0161235,-30.6480887]]}},{"type":"Feature","id":"w-244526570","properties":{"gauge":"1067","railway":"rail","service":"yard","railClass":"yard","active":true},"geometry":{"type":"LineString","coordinates":[[24.0142683,-30.6398933],[24.0143075,-30.6400202],[24.0143499,-30.6402436],[24.0143671,-30.6405035],[24.0143914,-30.641063],[24.0144189,-30.6417041],[24.0144463,-30.6423284],[24.014473,-30.6427928],[24.0144534,-30.6429885],[24.0144103,-30.6431849],[24.0143679,-30.6433138],[24.0142832,-30.643527],[24.0142126,-30.6436991],[24.0141295,-30.6439093],[24.0140903,-30.6440044],[24.0140361,-30.6441797],[24.0139793,-30.644373],[24.0139707,-30.6444072],[24.0139609,-30.6445633],[24.0139552,-30.6448577],[24.0139546,-30.6448843],[24.0139444,-30.6453332]]}},{"type":"Feature","id":"w-244526571","properties":{"gauge":"1067","railway":"rail","service":"yard","railClass":"yard","active":true},"geometry":{"type":"LineString","coordinates":[[24.0149957,-30.6510984],[24.0148935,-30.6513187],[24.01473,-30.6516641],[24.0146911,-30.6517637],[24.0146121,-30.651956],[24.0145169,-30.6522859],[24.0144298,-30.6525877],[24.0143273,-30.6529847],[24.0142929,-30.6531363],[24.014205,-30.6537282],[24.0141738,-30.6539847],[24.0141539,-30.6542746],[24.0141688,-30.654671],[24.0142391,-30.6558977],[24.0142689,-30.656259]]}},{"type":"Feature","id":"w-244526572","properties":{"gauge":"1067","railway":"rail","service":"yard","railClass":"yard","active":true},"geometry":{"type":"LineString","coordinates":[[24.0150207,-30.6435139],[24.014996,-30.6505224]]}},{"type":"Feature","id":"w-244526573","properties":{"gauge":"1067","railway":"rail","service":"yard","railClass":"yard","active":true},"geometry":{"type":"LineString","coordinates":[[24.0142264,-30.6528628],[24.0142501,-30.6526952],[24.0142626,-30.6525665],[24.0142629,-30.6523346],[24.0142465,-30.6520185],[24.0142505,-30.6518927],[24.0142679,-30.6517358],[24.014276,-30.6516343],[24.014276,-30.6513989],[24.0142679,-30.6510886],[24.0142277,-30.650281],[24.0141754,-30.6492553],[24.0141124,-30.6478223],[24.0140158,-30.6460748],[24.013994,-30.6457679],[24.0139733,-30.6455221]]}},{"type":"Feature","id":"w-244526574","properties":{"gauge":"1067","railway":"rail","service":"yard","railClass":"yard","active":true},"geometry":{"type":"LineString","coordinates":[[24.0156467,-30.6567417],[24.0155787,-30.6551014],[24.0155483,-30.654836]]}},{"type":"Feature","id":"w-244526575","properties":{"gauge":"1067","railway":"rail","service":"yard","railClass":"yard","active":true},"geometry":{"type":"LineString","coordinates":[[24.0159526,-30.6551525],[24.0159825,-30.65532],[24.0160009,-30.6554879],[24.0160503,-30.6566325],[24.0161023,-30.6578419],[24.0161132,-30.6581093],[24.0161179,-30.658171],[24.016135,-30.6582595],[24.0161848,-30.658453]]}},{"type":"Feature","id":"w-244526576","properties":{"gauge":"1067","railway":"rail","service":"yard","railClass":"yard","active":true},"geometry":{"type":"LineString","coordinates":[[24.0131938,-30.6420207],[24.0131629,-30.6418473],[24.0131461,-30.6416886],[24.013079,-30.6402665],[24.0130482,-30.6395754],[24.0130133,-30.6388686],[24.0129831,-30.6381988],[24.0129463,-30.6373801],[24.0129255,-30.6370045],[24.0129288,-30.6368014],[24.0129428,-30.6366507],[24.0129857,-30.6364112],[24.0130086,-30.6362896],[24.0130282,-30.6361629],[24.0130603,-30.6359831],[24.0130958,-30.6357919]]}},{"type":"Feature","id":"w-244526577","properties":{"gauge":"1067","railway":"rail","service":"yard","railClass":"yard","active":true},"geometry":{"type":"LineString","coordinates":[[24.0140195,-30.6457408],[24.0140446,-30.6459831],[24.0140705,-30.6462453],[24.0143354,-30.6516275]]}},{"type":"Feature","id":"w-244526578","properties":{"gauge":"1067","railway":"rail","service":"yard","railClass":"yard","active":true},"geometry":{"type":"LineString","coordinates":[[24.0156089,-30.64698],[24.0155142,-30.6446957]]}},{"type":"Feature","id":"w-244526579","properties":{"bridge":"yes","gauge":"1067","layer":"1","railway":"rail","service":"yard","triangle":"yes","railClass":"yard","active":true},"geometry":{"type":"LineString","coordinates":[[24.0147265,-30.6513877],[24.0148893,-30.6517091]]}},{"type":"Feature","id":"w-244526580","properties":{"gauge":"1067","railway":"rail","service":"yard","railClass":"yard","active":true},"geometry":{"type":"LineString","coordinates":[[24.014968,-30.6502447],[24.014961,-30.6438872]]}},{"type":"Feature","id":"w-244526581","properties":{"gauge":"1067","railway":"rail","service":"yard","railClass":"yard","active":true},"geometry":{"type":"LineString","coordinates":[[24.0133472,-30.6425554],[24.0133231,-30.6423948],[24.0133107,-30.6422419],[24.0130857,-30.6373714],[24.0130482,-30.6365337],[24.0130475,-30.6361558],[24.0130603,-30.6359831]]}},{"type":"Feature","id":"w-244526582","properties":{"gauge":"1067","railway":"rail","service":"yard","railClass":"yard","active":true},"geometry":{"type":"LineString","coordinates":[[24.0157258,-30.6545346],[24.0157878,-30.6548057],[24.0158012,-30.6549846],[24.0159135,-30.6574285],[24.0159247,-30.6576122],[24.0159897,-30.6579197]]}},{"type":"Feature","id":"w-244526583","properties":{"gauge":"1067","railway":"rail","service":"yard","railClass":"yard","active":true},"geometry":{"type":"LineString","coordinates":[[24.0129857,-30.6364112],[24.0129664,-30.6367576],[24.012967,-30.6369733],[24.0129885,-30.6373847],[24.013022,-30.6381901],[24.0130549,-30.6388657],[24.0130904,-30.6395759],[24.013126,-30.6402636],[24.0131924,-30.6418202],[24.0132031,-30.6419667],[24.0132393,-30.6421871]]}},{"type":"Feature","id":"w-244526585","properties":{"gauge":"1067","railway":"rail","service":"yard","railClass":"yard","active":true},"geometry":{"type":"LineString","coordinates":[[24.015918,-30.6577386],[24.0158674,-30.6575225],[24.015847,-30.6573645],[24.0158446,-30.6572438],[24.0158012,-30.6562267],[24.0157422,-30.6548966],[24.0157233,-30.6546124],[24.0156643,-30.6543566]]}},{"type":"Feature","id":"w-244526586","properties":{"gauge":"1067","railway":"rail","service":"yard","railClass":"yard","active":true},"geometry":{"type":"LineString","coordinates":[[24.0161191,-30.6582731],[24.0160583,-30.6579715],[24.0160422,-30.6578227],[24.0159964,-30.656648],[24.0159416,-30.6553942],[24.0159204,-30.6552023],[24.0158586,-30.6549027]]}},{"type":"Feature","id":"w-244526587","properties":{"gauge":"1067","railway":"rail","service":"yard","railClass":"yard","active":true},"geometry":{"type":"LineString","coordinates":[[24.0153306,-30.6333386],[24.0153331,-30.6335073],[24.0153147,-30.6336601],[24.0151857,-30.6340783],[24.0150684,-30.6347458],[24.0147816,-30.6363604],[24.0147574,-30.636495],[24.0147521,-30.6367181]]}},{"type":"Feature","id":"w-244526588","properties":{"gauge":"1067","railway":"rail","service":"yard","triangle":"yes","railClass":"yard","active":true},"geometry":{"type":"LineString","coordinates":[[24.0156548,-30.6568171],[24.0156877,-30.65704],[24.0157367,-30.6572314],[24.0157872,-30.6573497],[24.015918,-30.6577386],[24.0159897,-30.6579197],[24.0160518,-30.6580896],[24.0161191,-30.6582731],[24.0161848,-30.658453],[24.0162103,-30.6585249],[24.0162573,-30.6586405],[24.0162925,-30.6587284],[24.0163352,-30.6588098],[24.0163947,-30.6588978],[24.0164667,-30.6589871],[24.0165398,-30.659056],[24.0165899,-30.6590988],[24.0167089,-30.6591875],[24.0168354,-30.6592545],[24.0169602,-30.6593042],[24.0171001,-30.6593439],[24.0172183,-30.6593698],[24.0173515,-30.6593835],[24.0174571,-30.6593871],[24.0175568,-30.6593871],[24.0175861,-30.659383]]}},{"type":"Feature","id":"w-244526589","properties":{"gauge":"1067","railway":"rail","service":"yard","railClass":"yard","active":true},"geometry":{"type":"LineString","coordinates":[[24.0162228,-30.6557214],[24.0162849,-30.6558793],[24.0163628,-30.6560926],[24.0164396,-30.6563037]]}},{"type":"Feature","id":"w-244526591","properties":{"gauge":"1067","railway":"abandoned","service":"yard","railClass":"yard","active":false},"geometry":{"type":"LineString","coordinates":[[24.0138996,-30.6540576],[24.0138901,-30.6543527],[24.0139666,-30.6560155],[24.0139844,-30.6566564],[24.0139871,-30.6572138],[24.0139653,-30.6580404],[24.0139468,-30.6586874]]}},{"type":"Feature","id":"w-244526592","properties":{"gauge":"1067","railway":"rail","service":"yard","railClass":"yard","active":true},"geometry":{"type":"LineString","coordinates":[[24.0161152,-30.6555611],[24.01624,-30.6558817],[24.0163281,-30.6562438],[24.0163391,-30.6563138],[24.0163855,-30.6573889],[24.0164136,-30.658129],[24.016415,-30.6583915]]}},{"type":"Feature","id":"w-244526593","properties":{"gauge":"1067","railway":"rail","service":"yard","railClass":"yard","active":true},"geometry":{"type":"LineString","coordinates":[[24.0134642,-30.6430081],[24.0134411,-30.6428451],[24.013427,-30.6427245],[24.013413,-30.6425927],[24.0131387,-30.6368089],[24.0131025,-30.6365066],[24.0130962,-30.6364485],[24.0130784,-30.6363277]]}},{"type":"Feature","id":"w-244526594","properties":{"gauge":"1067","railway":"rail","service":"yard","railClass":"yard","active":true},"geometry":{"type":"LineString","coordinates":[[24.0160692,-30.6554217],[24.0161152,-30.6555611],[24.0161777,-30.6557842],[24.016256,-30.6561264],[24.0162709,-30.6563161]]}},{"type":"Feature","id":"w-244526595","properties":{"gauge":"1067","railway":"rail","service":"yard","railClass":"yard","active":true},"geometry":{"type":"LineString","coordinates":[[24.0139734,-30.6536613],[24.0140272,-30.6545279],[24.0141375,-30.6568363]]}},{"type":"Feature","id":"w-244526596","properties":{"gauge":"1067","railway":"rail","service":"yard","railClass":"yard","active":true},"geometry":{"type":"LineString","coordinates":[[24.0139092,-30.6443451],[24.01393,-30.6441515],[24.013934,-30.6440736],[24.0139367,-30.6437621],[24.0137181,-30.6390994],[24.0136902,-30.6389057],[24.0136453,-30.6386806]]}},{"type":"Feature","id":"w-244526597","properties":{"gauge":"1067","railway":"rail","service":"yard","railClass":"yard","active":true},"geometry":{"type":"LineString","coordinates":[[24.0157414,-30.6456213],[24.0158276,-30.647182],[24.0158639,-30.6475019],[24.015898,-30.6476951]]}},{"type":"Feature","id":"w-244526598","properties":{"gauge":"1067","railway":"rail","service":"siding","railClass":"siding","active":true},"geometry":{"type":"LineString","coordinates":[[24.0139176,-30.6530645],[24.0138753,-30.6527758],[24.0138562,-30.652555],[24.0136275,-30.6475756],[24.0136126,-30.6472932],[24.013629,-30.6470674],[24.0136604,-30.6468275],[24.0136723,-30.6465111]]}},{"type":"Feature","id":"w-244526599","properties":{"gauge":"1067","railway":"rail","service":"yard","railClass":"yard","active":true},"geometry":{"type":"LineString","coordinates":[[24.0137746,-30.6387263],[24.0138217,-30.6392041],[24.0139625,-30.6421373],[24.0140337,-30.6438958],[24.0140156,-30.644183],[24.0139793,-30.644373]]}},{"type":"Feature","id":"w-244526601","properties":{"gauge":"1067","railway":"rail","service":"yard","railClass":"yard","active":true},"geometry":{"type":"LineString","coordinates":[[24.0160382,-30.6508469],[24.0159186,-30.6481113],[24.0159027,-30.6477727],[24.015898,-30.6476951],[24.0158067,-30.6458476]]}},{"type":"Feature","id":"w-244526602","properties":{"gauge":"1067","railway":"rail","service":"yard","railClass":"yard","active":true},"geometry":{"type":"LineString","coordinates":[[24.0158639,-30.6475019],[24.0157954,-30.6472131],[24.0157757,-30.6470209],[24.0156916,-30.6454486]]}},{"type":"Feature","id":"w-244526603","properties":{"gauge":"1067","railway":"rail","service":"yard","railClass":"yard","active":true},"geometry":{"type":"LineString","coordinates":[[24.0142034,-30.6422716],[24.0141177,-30.6411723],[24.0140769,-30.6402511],[24.0140414,-30.639786]]}},{"type":"Feature","id":"w-244526604","properties":{"gauge":"1067","railway":"rail","service":"yard","railClass":"yard","active":true},"geometry":{"type":"LineString","coordinates":[[24.0143214,-30.6432479],[24.0144179,-30.6429075],[24.0142511,-30.6403086]]}},{"type":"Feature","id":"w-244526605","properties":{"gauge":"1067","railway":"rail","service":"yard","railClass":"yard","active":true},"geometry":{"type":"LineString","coordinates":[[24.0139178,-30.6393315],[24.0139782,-30.6395726],[24.0140431,-30.6404731],[24.0141621,-30.64305],[24.0141638,-30.6433534],[24.014143,-30.6434722],[24.0140967,-30.6437212]]}},{"type":"Feature","id":"w-244526606","properties":{"gauge":"1067","railway":"rail","service":"yard","railClass":"yard","active":true},"geometry":{"type":"LineString","coordinates":[[24.0156163,-30.6472012],[24.0156021,-30.6474449],[24.0155845,-30.6475441],[24.0155183,-30.647738],[24.0154789,-30.6479441],[24.0154618,-30.6481182],[24.0154469,-30.6485396],[24.0155017,-30.6498728],[24.0155141,-30.6503579],[24.0155756,-30.651962]]}},{"type":"Feature","id":"w-244526607","properties":{"gauge":"1067","railway":"abandoned","service":"yard","railClass":"yard","active":false},"geometry":{"type":"LineString","coordinates":[[24.013956,-30.658799],[24.0139666,-30.6586825],[24.0140063,-30.6582615],[24.0140254,-30.6579111],[24.0140446,-30.65767],[24.0140596,-30.6573525],[24.0140692,-30.6570927],[24.0140623,-30.656794],[24.0140158,-30.6561013],[24.0139557,-30.6550536],[24.0139502,-30.654515],[24.013953,-30.6544045],[24.0139666,-30.6542669]]}},{"type":"Feature","id":"w-244526608","properties":{"gauge":"1067","railway":"rail","service":"yard","railClass":"yard","active":true},"geometry":{"type":"LineString","coordinates":[[24.0152227,-30.6440108],[24.0152383,-30.6441983],[24.0152529,-30.6443596]]}},{"type":"Feature","id":"w-244526609","properties":{"gauge":"1067","railway":"rail","service":"yard","railClass":"yard","active":true},"geometry":{"type":"LineString","coordinates":[[24.014525,-30.6384321],[24.0145104,-30.6386996],[24.0145132,-30.6389026],[24.0146432,-30.6415665],[24.0146942,-30.6424425],[24.0147005,-30.642678],[24.0146864,-30.64284],[24.0146574,-30.6429703],[24.0146252,-30.6430769],[24.0145758,-30.6431855],[24.0145013,-30.6433293],[24.0143577,-30.6435999]]}},{"type":"Feature","id":"w-244526610","properties":{"gauge":"1067","railway":"rail","service":"siding","railClass":"siding","active":true},"geometry":{"type":"LineString","coordinates":[[24.013376,-30.6503704],[24.0132845,-30.6481094],[24.0132831,-30.6479577],[24.0133224,-30.6476378],[24.0133788,-30.647399],[24.0134663,-30.6471097],[24.0134945,-30.6470155],[24.0135325,-30.646801]]}},{"type":"Feature","id":"w-244526611","properties":{"gauge":"1067","railway":"rail","service":"yard","railClass":"yard","active":true},"geometry":{"type":"LineString","coordinates":[[24.0140156,-30.644183],[24.0140517,-30.643991],[24.0140967,-30.6437212],[24.0141022,-30.6434947],[24.0140104,-30.6413775],[24.0139407,-30.6398933],[24.0139229,-30.6395851],[24.0139178,-30.6393315],[24.0138569,-30.6389266]]}},{"type":"Feature","id":"w-244526612","properties":{"gauge":"1067","railway":"rail","service":"yard","railClass":"yard","active":true},"geometry":{"type":"LineString","coordinates":[[24.0135623,-30.644255],[24.0133897,-30.6433928],[24.0133412,-30.6431569],[24.013303,-30.6429994],[24.0130589,-30.6421231],[24.0129255,-30.64165],[24.0128846,-30.6414613],[24.0128466,-30.6412531],[24.0128189,-30.6410396]]}},{"type":"Feature","id":"w-244526613","properties":{"gauge":"1067","railway":"rail","service":"yard","railClass":"yard","active":true},"geometry":{"type":"LineString","coordinates":[[24.0141699,-30.6403871],[24.0141836,-30.6404954],[24.0142126,-30.6409894],[24.0142306,-30.6415773],[24.0143321,-30.6429977],[24.0143214,-30.6432479],[24.0142995,-30.6433719]]}},{"type":"Feature","id":"w-244526614","properties":{"gauge":"1067","railway":"rail","service":"yard","railClass":"yard","active":true},"geometry":{"type":"LineString","coordinates":[[24.0132183,-30.6350698],[24.0131821,-30.6352997],[24.0131414,-30.6354975],[24.0131139,-30.6356919],[24.0130958,-30.6357919],[24.0130736,-30.6361361],[24.0130784,-30.6363277],[24.0131039,-30.6369324],[24.0133583,-30.6423544],[24.0133667,-30.642518],[24.0133804,-30.6426371],[24.013412,-30.6428064]]}},{"type":"Feature","id":"w-244526615","properties":{"gauge":"1067","railway":"rail","service":"yard","railClass":"yard","active":true},"geometry":{"type":"LineString","coordinates":[[24.0155912,-30.6451003],[24.0156851,-30.6466131],[24.0156089,-30.64698],[24.0156163,-30.6472012],[24.0156272,-30.6474204],[24.0157229,-30.6478231],[24.0157941,-30.6482149],[24.0158987,-30.6506825]]}},{"type":"Feature","id":"w-244526616","properties":{"gauge":"1067","railway":"abandoned","service":"yard","railClass":"yard","active":false},"geometry":{"type":"LineString","coordinates":[[24.013956,-30.658799],[24.0139516,-30.6587355],[24.0139468,-30.6586874],[24.0139324,-30.6585023],[24.0139005,-30.6583269],[24.013887,-30.6582011],[24.013889,-30.6579748],[24.0138928,-30.6571609],[24.0138805,-30.6563248],[24.0138707,-30.6558673],[24.0138188,-30.654644],[24.0138545,-30.6543562],[24.0138996,-30.6540576],[24.0139325,-30.6538447]]}},{"type":"Feature","id":"w-244526618","properties":{"gauge":"1067","railway":"rail","service":"yard","railClass":"yard","active":true},"geometry":{"type":"LineString","coordinates":[[24.0154475,-30.6544947],[24.0154748,-30.6545874],[24.0155483,-30.654836],[24.0155998,-30.6550076],[24.015681,-30.6552937],[24.0157011,-30.6554439],[24.0157222,-30.6558143],[24.0157155,-30.6560296],[24.0156833,-30.6563176],[24.0156655,-30.6565157],[24.0156467,-30.6567417],[24.0156548,-30.6568171],[24.0156777,-30.6573127],[24.0156788,-30.6573615],[24.0157066,-30.6579816],[24.0157656,-30.6592734]]}},{"type":"Feature","id":"w-244526619","properties":{"gauge":"1067","railway":"rail","service":"yard","railClass":"yard","active":true},"geometry":{"type":"LineString","coordinates":[[24.0144157,-30.6482968],[24.0143972,-30.6479304],[24.0144115,-30.6477531],[24.0144282,-30.6476508],[24.0144651,-30.6475131],[24.0145321,-30.6472961],[24.0145573,-30.6471779],[24.0145698,-30.6470943],[24.0145715,-30.6468946],[24.0145564,-30.6463929],[24.0145598,-30.6461954],[24.0145975,-30.645964],[24.0147114,-30.6452865],[24.0148113,-30.6447133],[24.0148329,-30.6445878],[24.0148991,-30.6442029],[24.014961,-30.6438872],[24.0150207,-30.6435139],[24.0150849,-30.6431125],[24.0151568,-30.6425479]]}},{"type":"Feature","id":"w-244526620","properties":{"electrified":"contact_line","frequency":"50","gauge":"1067","railway":"rail","service":"siding","voltage":"25000","railClass":"siding","active":true},"geometry":{"type":"LineString","coordinates":[[24.0134919,-30.6471447],[24.013441,-30.6475466],[24.0134157,-30.6477865],[24.0134007,-30.6479771],[24.0134089,-30.6482123],[24.0135795,-30.6519162],[24.0136058,-30.6520649],[24.0136543,-30.6522395],[24.0137579,-30.652546],[24.0138534,-30.6528205],[24.0138694,-30.6528695]]}},{"type":"Feature","id":"w-244526621","properties":{"gauge":"1067","railway":"rail","service":"yard","railClass":"yard","active":true},"geometry":{"type":"LineString","coordinates":[[24.0144938,-30.6434574],[24.0145807,-30.6432879],[24.0146723,-30.6430911],[24.0147076,-30.6429892],[24.0147319,-30.642871],[24.0147436,-30.6427374],[24.014735,-30.6425032],[24.014717,-30.642184],[24.0146872,-30.6415354],[24.0145687,-30.6392562],[24.0145491,-30.6387298],[24.0145428,-30.6384504],[24.014559,-30.6382434]]}},{"type":"Feature","id":"w-244526622","properties":{"gauge":"1067","railway":"rail","service":"yard","railClass":"yard","active":true},"geometry":{"type":"LineString","coordinates":[[24.0144191,-30.6516323],[24.0143135,-30.6492841],[24.0141977,-30.6470498],[24.0141794,-30.6466166],[24.0141472,-30.6463374],[24.0141335,-30.6462149],[24.0140195,-30.6457408],[24.0139733,-30.6455221],[24.0139444,-30.6453332],[24.0139045,-30.6449788]]}},{"type":"Feature","id":"w-244526623","properties":{"gauge":"1067","railway":"rail","service":"yard","railClass":"yard","active":true},"geometry":{"type":"LineString","coordinates":[[24.0138835,-30.645789],[24.0139005,-30.6455084],[24.0139025,-30.6453151],[24.0139045,-30.6451294],[24.0139045,-30.6449788],[24.0139031,-30.6448801],[24.0138999,-30.6447197],[24.0139092,-30.6443451],[24.0139085,-30.6441452],[24.0139072,-30.6440361],[24.0137073,-30.6396007],[24.0136684,-30.6388663],[24.0136453,-30.6386806],[24.0136349,-30.6386234],[24.0136076,-30.6384361],[24.0136014,-30.6383618],[24.0136036,-30.6383256],[24.013541,-30.637934],[24.013411,-30.6373558],[24.0133198,-30.6370143],[24.0132956,-30.636909],[24.0132708,-30.6368043],[24.0132509,-30.6367088],[24.0132381,-30.6366471]]}},{"type":"Feature","id":"w-244526624","properties":{"gauge":"1067","railway":"rail","service":"yard","railClass":"yard","active":true},"geometry":{"type":"LineString","coordinates":[[24.0132517,-30.634882],[24.0132183,-30.6350698],[24.0131937,-30.6351738],[24.0131669,-30.6352517],[24.013075,-30.6355886],[24.0130294,-30.6358212],[24.0129805,-30.6361327],[24.0129429,-30.6363081],[24.0129248,-30.636435],[24.0128993,-30.6365891],[24.0128832,-30.6367604],[24.0128832,-30.636881],[24.012894,-30.6372312],[24.0129248,-30.637863],[24.0129409,-30.638193],[24.0129724,-30.6388605],[24.0130046,-30.6395788],[24.0130361,-30.640259],[24.0130542,-30.640664],[24.0130696,-30.640994],[24.0130884,-30.6413367],[24.0130945,-30.6415138],[24.0131045,-30.641605],[24.0131146,-30.6416817],[24.0131441,-30.6418352]]}},{"type":"Feature","id":"w-244540365","properties":{"gauge":"1067","railway":"abandoned","railClass":"unknown","active":false},"geometry":{"type":"LineString","coordinates":[[24.0161951,-30.6349142],[24.0164936,-30.6355549],[24.0166591,-30.6359123],[24.0170547,-30.6367697],[24.0172479,-30.6371205],[24.0173981,-30.6373178],[24.0176716,-30.6375393],[24.017854,-30.6376628],[24.0184906,-30.6380286],[24.0187646,-30.6383367],[24.0188673,-30.6384867],[24.0191072,-30.6389174],[24.0192059,-30.6393059],[24.019242,-30.6397029],[24.01934,-30.6412698],[24.0194127,-30.6428085]]}},{"type":"Feature","id":"w-261051520","properties":{"electrified":"contact_line","frequency":"50","gauge":"1067","name":"Cape Main Line","passenger_lines":"2","railway":"rail","usage":"main","voltage":"25000","railClass":"main","active":true},"geometry":{"type":"LineString","coordinates":[[24.0141596,-30.6561078],[24.014175,-30.6563492],[24.0141821,-30.6565231],[24.0141936,-30.6567657],[24.0141908,-30.6571221],[24.0141648,-30.6574889],[24.0141156,-30.6583238],[24.0140582,-30.6589177],[24.0139461,-30.6597161],[24.0138005,-30.6604854],[24.0136768,-30.6610543],[24.0134855,-30.6617715],[24.0132681,-30.6625064],[24.0130543,-30.6630869],[24.0125462,-30.6643683],[24.0122524,-30.6649651],[24.0119313,-30.6655801],[24.0117453,-30.6659222],[24.0112723,-30.6667347],[24.0110801,-30.6670469],[24.0106654,-30.6676671],[24.0098971,-30.6687642],[24.009431,-30.669412],[24.0087612,-30.6703538],[24.0078098,-30.6716859],[24.0072602,-30.672456],[24.0065453,-30.6734613],[24.0056335,-30.6747275],[24.0046753,-30.6760772],[24.0029775,-30.6784544],[24.0012906,-30.6808222],[24.0004951,-30.681939],[23.9994449,-30.6834056],[23.998893,-30.6841774],[23.99832,-30.6849695],[23.9900811,-30.6965387],[23.9897309,-30.6970923],[23.9894086,-30.6976583],[23.9891148,-30.6982357],[23.9888501,-30.6988234],[23.9886149,-30.6994203],[23.9884097,-30.7000252],[23.9882348,-30.7006372],[23.9880906,-30.7012551],[23.9874401,-30.7046441],[23.9870287,-30.7066411],[23.9866211,-30.7086971],[23.9862194,-30.7107322],[23.9861671,-30.7109616],[23.9860356,-30.7114212]]}},{"type":"Feature","id":"w-261051522","properties":{"gauge":"1067","railway":"abandoned","railClass":"unknown","active":false},"geometry":{"type":"LineString","coordinates":[[24.0151856,-30.659159],[24.0149894,-30.6586245],[24.0149237,-30.6584411],[24.01485,-30.6582334],[24.0148037,-30.658111],[24.0146139,-30.6576081]]}},{"type":"Feature","id":"w-261058918","properties":{"gauge":"1067","railway":"rail","service":"spur","railClass":"spur","active":true},"geometry":{"type":"LineString","coordinates":[[24.0133655,-30.6349373],[24.0134096,-30.6354911],[24.0136036,-30.6383256]]}},{"type":"Feature","id":"w-488352714","properties":{"gauge":"1067","railway":"rail","service":"yard","railClass":"yard","active":true},"geometry":{"type":"LineString","coordinates":[[24.014907,-30.6511419],[24.0150348,-30.6508557],[24.0150974,-30.650709],[24.0151427,-30.6505847],[24.0151861,-30.650422],[24.0152016,-30.6503005],[24.0152072,-30.6500517],[24.0152228,-30.6496268],[24.015225,-30.6491072],[24.0152401,-30.6482036],[24.0152502,-30.6479261],[24.0152527,-30.6475095],[24.0152879,-30.6458271],[24.0152728,-30.6449707],[24.0152529,-30.6443596]]}},{"type":"Feature","id":"w-642889418","properties":{"electrified":"no","gauge":"1067","railway":"abandoned","railClass":"unknown","active":false},"geometry":{"type":"LineString","coordinates":[[24.0151292,-30.6276667],[24.0152311,-30.6298745],[24.0152871,-30.6309801],[24.0153063,-30.6315341],[24.0153268,-30.6320917]]}},{"type":"Feature","id":"w-759462360","properties":{"gauge":"1067","railway":"abandoned","service":"spur","railClass":"spur","active":false},"geometry":{"type":"LineString","coordinates":[[24.0134296,-30.6614811],[24.013521,-30.6611413],[24.0136194,-30.6607497],[24.0137657,-30.6600418],[24.0139034,-30.6593356]]}},{"type":"Feature","id":"w-759462361","properties":{"electrified":"contact_line","frequency":"50","gauge":"1067","name":"Cape Main Line","passenger_lines":"2","railway":"rail","source":"Landsat","usage":"main","voltage":"25000","railClass":"main","active":true},"geometry":{"type":"LineString","coordinates":[[23.9860356,-30.7114212],[23.9861027,-30.7110844],[23.9862234,-30.7104998],[23.9865768,-30.7086809],[23.9869845,-30.7066319],[23.9873882,-30.7046415],[23.9874694,-30.7042092],[23.9880494,-30.7012492],[23.9881776,-30.7006246],[23.9883384,-30.7000055],[23.9885316,-30.6993933],[23.9887568,-30.6987892],[23.9890134,-30.6981945],[23.989301,-30.6976104],[23.989619,-30.697038],[23.9899667,-30.6964785],[23.9982056,-30.6849093],[23.9990453,-30.6837282],[23.9995211,-30.6830579],[23.9998982,-30.6825407],[24.0003775,-30.6818763],[24.0011701,-30.6807523],[24.0032547,-30.6778325],[24.0046254,-30.6759085],[24.0056325,-30.6744989],[24.0064201,-30.6733935],[24.0070987,-30.6724365],[24.0078411,-30.671393],[24.0085482,-30.6704057],[24.0090023,-30.6697672],[24.0093032,-30.6693609],[24.0096039,-30.668927],[24.009929,-30.6684629],[24.0105641,-30.6675822],[24.011107,-30.6667664],[24.0113248,-30.6664248],[24.0115276,-30.6660789],[24.0117739,-30.6656407],[24.0119633,-30.665289],[24.0121811,-30.6648566],[24.0123437,-30.6645308],[24.012471,-30.6642613],[24.0126805,-30.6637727],[24.0128095,-30.6634628],[24.0130005,-30.662964],[24.0131798,-30.6624423],[24.0134362,-30.6616178],[24.0135384,-30.6612214],[24.0136608,-30.6607486],[24.0137462,-30.6603464],[24.0138082,-30.6600596],[24.0138568,-30.6597684],[24.0139255,-30.659359],[24.0139783,-30.6589302],[24.0140295,-30.6584327],[24.0140698,-30.6579427],[24.0140842,-30.6576642],[24.0141115,-30.6573502],[24.0141375,-30.6568363],[24.0141492,-30.6565733],[24.0141526,-30.6564458],[24.0141596,-30.6561078],[24.0141441,-30.6559072]]}},{"type":"Feature","id":"w-759462362","properties":{"gauge":"1067","railway":"rail","service":"crossover","railClass":"crossover","active":true},"geometry":{"type":"LineString","coordinates":[[24.0142662,-30.6530006],[24.0143727,-30.6527362],[24.0144298,-30.6525877]]}},{"type":"Feature","id":"w-759462363","properties":{"gauge":"1067","railway":"rail","service":"yard","railClass":"yard","active":true},"geometry":{"type":"LineString","coordinates":[[24.014907,-30.6511419],[24.0148767,-30.6512123],[24.0147945,-30.6514],[24.014651,-30.6517101],[24.0145965,-30.6518594],[24.0145576,-30.6519847],[24.0144719,-30.6522785],[24.0143763,-30.652623],[24.0142662,-30.6530006],[24.014235,-30.6531158],[24.0142183,-30.6532172],[24.0141988,-30.6533362],[24.0141721,-30.6535644],[24.0141553,-30.6536891],[24.0141358,-30.6539123],[24.0141192,-30.654244],[24.0141155,-30.6545652]]}},{"type":"Feature","id":"w-759462364","properties":{"gauge":"1067","railway":"rail","service":"yard","railClass":"yard","active":true},"geometry":{"type":"LineString","coordinates":[[24.0157723,-30.65713],[24.0157222,-30.6558143]]}},{"type":"Feature","id":"w-759462365","properties":{"gauge":"1067","railway":"rail","service":"yard","triangle":"yes","railClass":"yard","active":true},"geometry":{"type":"LineString","coordinates":[[24.0148893,-30.6517091],[24.0149727,-30.6518467],[24.0151997,-30.6522701],[24.0152762,-30.6524288],[24.0153158,-30.6525652],[24.0153569,-30.6527217],[24.0153774,-30.6529086],[24.0153869,-30.6530815],[24.0153954,-30.6533206],[24.0153987,-30.6534477],[24.0154141,-30.6539493],[24.0154475,-30.6544947],[24.0154564,-30.6547846],[24.0155209,-30.6562659],[24.0155231,-30.6564429],[24.0155376,-30.6566276],[24.0156076,-30.6569013],[24.0156388,-30.6570486],[24.0156777,-30.6573127]]}},{"type":"Feature","id":"w-759462366","properties":{"gauge":"1067","railway":"abandoned","railClass":"unknown","active":false},"geometry":{"type":"LineString","coordinates":[[24.0153954,-30.6533206],[24.0153618,-30.6535579],[24.0153451,-30.6536335],[24.015255,-30.6539186],[24.0151549,-30.6541722],[24.0150604,-30.6544421],[24.0150292,-30.6546191],[24.0150103,-30.6547751],[24.015007,-30.6549674],[24.0150526,-30.6560975],[24.0151182,-30.6568199],[24.0151827,-30.6580476],[24.0152016,-30.6583261],[24.0152417,-30.6585605],[24.0152973,-30.6587433]]}},{"type":"Feature","id":"w-759462367","properties":{"gauge":"1067","railway":"rail","service":"yard","railClass":"yard","active":true},"geometry":{"type":"LineString","coordinates":[[24.0156076,-30.6569013],[24.0155909,-30.6566085],[24.015552,-30.6557052],[24.0155142,-30.6549215],[24.0155042,-30.654754],[24.0154748,-30.6545874]]}},{"type":"Feature","id":"w-759462368","properties":{"gauge":"1067","railway":"rail","service":"yard","railClass":"yard","active":true},"geometry":{"type":"LineString","coordinates":[[24.0156833,-30.6563176],[24.0156822,-30.6560994],[24.0156466,-30.6553559],[24.0156288,-30.6551655],[24.0155998,-30.6550076]]}},{"type":"Feature","id":"w-759462374","properties":{"gauge":"1067","railway":"disused","service":"siding","railClass":"siding","active":false},"geometry":{"type":"LineString","coordinates":[[24.0237049,-30.633911],[24.0231033,-30.6339067],[24.0228537,-30.6338778],[24.0221876,-30.6338122],[24.0210774,-30.6337063],[24.0202974,-30.6336327],[24.0199384,-30.6336106]]}},{"type":"Feature","id":"w-759462375","properties":{"gauge":"1067","railway":"disused","service":"siding","railClass":"siding","active":false},"geometry":{"type":"LineString","coordinates":[[24.0194116,-30.6335383],[24.0196784,-30.6335776],[24.0198339,-30.6335984],[24.0199384,-30.6336106],[24.0203166,-30.6336053],[24.0206677,-30.6335909],[24.0208579,-30.6336003],[24.0210749,-30.633619],[24.021643,-30.6336738],[24.0228721,-30.6337899],[24.0237703,-30.6338778]]}},{"type":"Feature","id":"w-759462376","properties":{"gauge":"1067","railway":"rail","service":"siding","railClass":"siding","active":true},"geometry":{"type":"LineString","coordinates":[[24.0234519,-30.6340566],[24.0222068,-30.6339471],[24.0209425,-30.6338245],[24.0205024,-30.6337689]]}},{"type":"Feature","id":"w-759462377","properties":{"gauge":"1067","railway":"rail","service":"siding","railClass":"siding","active":true},"geometry":{"type":"LineString","coordinates":[[24.015697,-30.6340317],[24.0161656,-30.6350065],[24.0164426,-30.6356091],[24.0167563,-30.6366162],[24.0168802,-30.6381658],[24.0170024,-30.6410021],[24.0170041,-30.6412485],[24.0169568,-30.6416506],[24.0169542,-30.6417613],[24.0169555,-30.6418675],[24.016963,-30.6423591],[24.0170567,-30.6440003]]}},{"type":"Feature","id":"w-759462378","properties":{"gauge":"1067","railway":"rail","service":"spur","railClass":"spur","active":true},"geometry":{"type":"LineString","coordinates":[[24.0155166,-30.6360874],[24.0156414,-30.6388175],[24.0156549,-30.6391253],[24.0156641,-30.6394771],[24.0156666,-30.6396328],[24.0156373,-30.6398281],[24.0155208,-30.6404697],[24.0153703,-30.641326],[24.0152255,-30.6420763],[24.0151769,-30.6423356],[24.0151538,-30.6424917]]}},{"type":"Feature","id":"w-759462379","properties":{"gauge":"1067","railway":"rail","service":"yard","railClass":"yard","active":true},"geometry":{"type":"LineString","coordinates":[[24.0155761,-30.6489699],[24.0155342,-30.6479982],[24.015551,-30.6477445],[24.0155845,-30.6475441]]}},{"type":"Feature","id":"w-759462380","properties":{"gauge":"1067","railway":"rail","service":"yard","railClass":"yard","active":true},"geometry":{"type":"LineString","coordinates":[[24.015786,-30.6507932],[24.0156669,-30.6482248],[24.0156414,-30.6478021],[24.0156272,-30.6474204]]}},{"type":"Feature","id":"w-759462381","properties":{"gauge":"1067","railway":"rail","service":"yard","railClass":"yard","active":true},"geometry":{"type":"LineString","coordinates":[[24.0147466,-30.6507654],[24.0146972,-30.6497433],[24.0146536,-30.6486837],[24.0146243,-30.6480544],[24.0145992,-30.6474576],[24.0145832,-30.6471693],[24.0145715,-30.6468946]]}},{"type":"Feature","id":"w-759462382","properties":{"gauge":"1067","railway":"rail","service":"yard","railClass":"yard","active":true},"geometry":{"type":"LineString","coordinates":[[24.0152925,-30.6434557],[24.0153545,-30.6440726]]}},{"type":"Feature","id":"w-759462383","properties":{"gauge":"1067","railway":"abandoned","service":"yard","railClass":"yard","active":false},"geometry":{"type":"LineString","coordinates":[[24.015412,-30.6528493],[24.0153842,-30.6522254],[24.0153663,-30.6511209],[24.0153584,-30.6481976],[24.0153604,-30.6463834]]}},{"type":"Feature","id":"w-759462384","properties":{"gauge":"1067","railway":"abandoned","railClass":"unknown","active":false},"geometry":{"type":"LineString","coordinates":[[24.0157762,-30.6608745],[24.0157238,-30.66062],[24.015556,-30.6601763],[24.015294,-30.6594528]]}},{"type":"Feature","id":"w-759462385","properties":{"gauge":"1067","railway":"abandoned","triangle":"yes","railClass":"unknown","active":false},"geometry":{"type":"LineString","coordinates":[[24.0175819,-30.6594455],[24.0169552,-30.6595075],[24.016698,-30.6595678],[24.0165379,-30.6596199],[24.0162615,-30.6597511],[24.0161408,-30.6598477],[24.0159607,-30.6600387],[24.0158517,-30.6602217],[24.0157805,-30.6604408],[24.0157579,-30.6605778],[24.0157589,-30.6606916],[24.0157762,-30.6608745],[24.0159129,-30.6616985]]}},{"type":"Feature","id":"w-759462386","properties":{"gauge":"1067","railway":"disused","railClass":"unknown","active":false},"geometry":{"type":"LineString","coordinates":[[24.0149237,-30.6584411],[24.0149049,-30.6583292],[24.0148781,-30.6581538],[24.0148741,-30.6580038],[24.0148706,-30.6578455],[24.0148455,-30.6573352],[24.0147952,-30.6564616],[24.0147578,-30.6554985]]}},{"type":"Feature","id":"w-759462387","properties":{"gauge":"1067","railway":"disused","railClass":"unknown","active":false},"geometry":{"type":"LineString","coordinates":[[24.01485,-30.6582334],[24.0148379,-30.6580996],[24.014812,-30.6578556],[24.0147919,-30.6573179],[24.0147483,-30.6564703],[24.0146989,-30.6554832]]}},{"type":"Feature","id":"w-759462388","properties":{"gauge":"1067","railway":"disused","railClass":"unknown","active":false},"geometry":{"type":"LineString","coordinates":[[24.0148037,-30.658111],[24.0147775,-30.6579761],[24.0147516,-30.6577893],[24.0147282,-30.6573006],[24.014693,-30.6564861],[24.0146443,-30.6555215]]}},{"type":"Feature","id":"w-759462389","properties":{"gauge":"1067","railway":"disused","railClass":"unknown","active":false},"geometry":{"type":"LineString","coordinates":[[24.0146913,-30.6576811],[24.0146712,-30.6572948],[24.014631,-30.656502],[24.0145854,-30.6555033]]}},{"type":"Feature","id":"w-759462390","properties":{"railway":"rail","railClass":"main","active":true},"geometry":{"type":"LineString","coordinates":[[24.0231151,-30.6782785],[24.0233237,-30.6784637],[24.0234561,-30.6785804]]}},{"type":"Feature","id":"w-759462391","properties":{"gauge":"1067","railway":"rail","railClass":"main","active":true},"geometry":{"type":"LineString","coordinates":[[24.0236412,-30.6788896],[24.0233916,-30.6785876],[24.0231151,-30.6782785],[24.0228738,-30.6780313],[24.0224641,-30.6776069],[24.0218801,-30.6769958],[24.0213304,-30.6764259],[24.0208696,-30.6759423],[24.0201935,-30.675234],[24.0195073,-30.6745119],[24.0190155,-30.6740046],[24.018671,-30.6736385],[24.0184308,-30.6733467],[24.0181582,-30.6729918],[24.017968,-30.6727038],[24.0177956,-30.6724206],[24.0176494,-30.6721613]]}},{"type":"Feature","id":"w-759462395","properties":{"electrified":"contact_line","frequency":"50","gauge":"1067","name":"Cape Midland Line","operator":"Transnet","passenger_lines":"1","railway":"rail","start_date":"1884","usage":"main","voltage":"25000","railClass":"main","active":true},"geometry":{"type":"LineString","coordinates":[[24.0187725,-30.6737967],[24.0189895,-30.6740284],[24.0194822,-30.6745393],[24.0201575,-30.6752498],[24.0208453,-30.6759661],[24.0217561,-30.6769166],[24.0236412,-30.6788896],[24.0240531,-30.6793209],[24.0297719,-30.6852828],[24.0340003,-30.6896811],[24.0343833,-30.6900958],[24.0349324,-30.6906621],[24.0352794,-30.6910104],[24.0355868,-30.6912987],[24.0362437,-30.6918686],[24.0365317,-30.692104],[24.03685,-30.6923451],[24.0374513,-30.6927695],[24.0377545,-30.6929701],[24.0387971,-30.6936197],[24.0414559,-30.6952376],[24.0422964,-30.695764],[24.0429954,-30.6961978],[24.0434973,-30.696494],[24.0441045,-30.6968728],[24.0447749,-30.6972747],[24.0450697,-30.6974593],[24.0462724,-30.6981956],[24.0463048,-30.6982165],[24.0502393,-30.7006255],[24.0505749,-30.7008136],[24.0509579,-30.7010186],[24.051375,-30.7012194],[24.0534996,-30.7021759],[24.0543428,-30.7025407],[24.0552605,-30.7028743],[24.055692,-30.7030099],[24.056434,-30.7032136],[24.0607479,-30.7042981],[24.061391,-30.7044675],[24.0637912,-30.7050787],[24.064415,-30.7052402],[24.0660027,-30.7056435],[24.0675637,-30.7060428],[24.0687409,-30.7063458],[24.0762244,-30.7082716],[24.0764823,-30.7083415],[24.0778069,-30.7086801],[24.0802522,-30.7093053],[24.0818006,-30.7096996],[24.0839512,-30.7102462],[24.0844379,-30.7103664],[24.0849334,-30.7105016],[24.0852043,-30.7105846],[24.085553,-30.710693],[24.0857944,-30.7107806],[24.0861538,-30.7109328],[24.0865186,-30.7110896],[24.0871221,-30.7113525],[24.0888762,-30.7121204],[24.0924108,-30.7136585],[24.092976,-30.7138969],[24.0961258,-30.7152949],[24.0976522,-30.7159472],[24.0994509,-30.7167331],[24.1002089,-30.7170629],[24.1021808,-30.7179273],[24.1038973,-30.7186796],[24.1072906,-30.7201605],[24.1101573,-30.7214148],[24.1157444,-30.7238585],[24.1195876,-30.7255423],[24.1210524,-30.7261754],[24.1231997,-30.7271194],[24.1250513,-30.7279358],[24.1267672,-30.7286848],[24.1291927,-30.7297407],[24.1309283,-30.7305048],[24.1390361,-30.7340536],[24.1398313,-30.7344018],[24.1436189,-30.7360594],[24.1446207,-30.7364992],[24.1452556,-30.7367763],[24.1465361,-30.7373399],[24.1469501,-30.7375236],[24.1474289,-30.7377518],[24.1477185,-30.7378924],[24.1480337,-30.738063],[24.1482268,-30.7381725],[24.1484039,-30.7382717],[24.1486627,-30.7384353],[24.1489376,-30.7386048],[24.1491812,-30.7387586],[24.149864,-30.739204],[24.150417,-30.739565],[24.1509865,-30.7399358],[24.1519578,-30.7405717],[24.1542136,-30.7420548],[24.1550954,-30.7426185],[24.1621743,-30.7472582],[24.1636452,-30.7482041],[24.1639602,-30.7483923],[24.1643442,-30.7486058],[24.1647198,-30.7487969],[24.1652605,-30.7490531],[24.1659216,-30.7493563],[24.1675958,-30.7501221],[24.1686708,-30.75062],[24.178049,-30.7549361],[24.1788059,-30.7552876],[24.1823173,-30.756893],[24.1865262,-30.7588102],[24.1889513,-30.7599171],[24.1902061,-30.7604913],[24.1914381,-30.761068],[24.1925353,-30.7615676],[24.1929647,-30.7617667],[24.1941788,-30.7623217],[24.1947102,-30.7625801],[24.1951853,-30.7628392],[24.1963292,-30.7634922],[24.1968915,-30.7638188],[24.1976452,-30.7642465],[24.1992942,-30.7651952],[24.2034421,-30.767579],[24.2044917,-30.7681802],[24.2064539,-30.7693045],[24.2076665,-30.7700031],[24.2082928,-30.7703561],[24.2088717,-30.7707049],[24.2130127,-30.7732252],[24.2143573,-30.7740457],[24.2157804,-30.7749121],[24.2175421,-30.775984],[24.2192877,-30.7770483],[24.2226418,-30.7790904],[24.2231784,-30.7794219],[24.22623,-30.7812767],[24.2274576,-30.7820287],[24.2285677,-30.7827062],[24.2304208,-30.7838321],[24.2323307,-30.7849969],[24.2332396,-30.7855584],[24.2342904,-30.7861927],[24.2356213,-30.7870045],[24.2367742,-30.7877222],[24.2371091,-30.787922],[24.2377864,-30.7883404],[24.2393116,-30.7892666],[24.2403014,-30.7898709],[24.241717,-30.7907309],[24.2431363,-30.7915908],[24.2439531,-30.792072],[24.2451309,-30.7927876],[24.2466847,-30.7937319],[24.2480181,-30.7945512],[24.2514868,-30.7966655],[24.2522662,-30.7971382],[24.2532,-30.7977104],[24.2543244,-30.7983974],[24.254648,-30.7985852],[24.2549617,-30.798751],[24.255137,-30.798852]]}},{"type":"Feature","id":"w-759462496","properties":{"gauge":"1067","railway":"disused","railClass":"unknown","active":false},"geometry":{"type":"LineString","coordinates":[[24.0146911,-30.6540493],[24.0146925,-30.6538541],[24.0147444,-30.6535213],[24.0149276,-30.6525476],[24.0149591,-30.6522595],[24.0149317,-30.6520219]]}},{"type":"Feature","id":"w-759617551","properties":{"electrified":"no","gauge":"1067","railway":"abandoned","railClass":"unknown","active":false},"geometry":{"type":"LineString","coordinates":[[24.0152243,-30.6312695],[24.0151915,-30.6303485],[24.015145,-30.6294063],[24.0151053,-30.6284653],[24.0150698,-30.6277007]]}},{"type":"Feature","id":"w-759617552","properties":{"electrified":"no","gauge":"1067","passenger_lines":"1","railway":"rail","usage":"main","railClass":"main","active":true},"geometry":{"type":"LineString","coordinates":[[24.0131546,-30.6331973],[24.0131136,-30.632855],[24.0130658,-30.6326657],[24.0130422,-30.6325629],[24.0129677,-30.6323489],[24.0128852,-30.632162],[24.0128122,-30.6320287],[24.0127109,-30.631851],[24.0125882,-30.631682],[24.0124205,-30.6314673],[24.0122019,-30.6312071],[24.0120779,-30.6310652],[24.0119686,-30.6309509],[24.0118506,-30.6308442],[24.0116467,-30.6306688],[24.0115079,-30.6305586],[24.0112974,-30.6304155],[24.0111069,-30.6303006],[24.0109145,-30.6301962],[24.0107261,-30.6301068],[24.0103901,-30.6299729],[24.0101554,-30.6299002],[24.009908,-30.629835],[24.0096699,-30.629786],[24.009444,-30.6297519],[24.0092321,-30.6297294],[24.0089706,-30.6297173],[24.0087929,-30.6297133],[24.008652,-30.6297133],[24.0084355,-30.6297265],[24.0081096,-30.6297514],[24.0074249,-30.6298171],[24.0068248,-30.6298725],[24.0055692,-30.6299884],[24.003417,-30.6301922],[23.9982108,-30.6306555]]}},{"type":"Feature","id":"w-759617553","properties":{"gauge":"1067","railway":"rail","service":"yard","railClass":"yard","active":true},"geometry":{"type":"LineString","coordinates":[[24.0140517,-30.643991],[24.0140651,-30.6435698],[24.014035,-30.6429406],[24.013994,-30.6419609],[24.0139353,-30.6406975],[24.0138777,-30.6395032]]}},{"type":"Feature","id":"w-759617554","properties":{"gauge":"1067","railway":"rail","service":"spur","railClass":"spur","active":true},"geometry":{"type":"LineString","coordinates":[[24.0141014,-30.6442585],[24.0141861,-30.6440784],[24.0143726,-30.6436992],[24.0144938,-30.6434574]]}},{"type":"Feature","id":"w-759617555","properties":{"gauge":"1067","railway":"rail","service":"spur","railClass":"spur","active":true},"geometry":{"type":"LineString","coordinates":[[24.0147472,-30.6431264],[24.0146173,-30.6433945],[24.0144492,-30.6436768],[24.0143757,-30.6437827],[24.0143012,-30.6438922],[24.0141861,-30.6440784]]}},{"type":"Feature","id":"w-759617556","properties":{"gauge":"1067","railway":"rail","service":"crossover","railClass":"crossover","active":true},"geometry":{"type":"LineString","coordinates":[[24.0144157,-30.6482968],[24.0143795,-30.6480764],[24.0143532,-30.6479513]]}},{"type":"Feature","id":"w-759617557","properties":{"gauge":"1067","railway":"rail","service":"yard","triangle":"yes","railClass":"yard","active":true},"geometry":{"type":"LineString","coordinates":[[24.0144157,-30.6482968],[24.014508,-30.6505096],[24.0145449,-30.6508659],[24.0146078,-30.6511023],[24.0147265,-30.6513877]]}},{"type":"Feature","id":"w-759617559","properties":{"gauge":"1067","railway":"abandoned","railClass":"unknown","active":false},"geometry":{"type":"LineString","coordinates":[[24.0148784,-30.6549866],[24.0149618,-30.6546126],[24.0150151,-30.6544256]]}},{"type":"Feature","id":"w-759617560","properties":{"gauge":"1067","railway":"abandoned","railClass":"unknown","active":false},"geometry":{"type":"LineString","coordinates":[[24.0147817,-30.6548858],[24.0148839,-30.65517],[24.014929,-30.6553029],[24.0149659,-30.655417],[24.0149872,-30.655511]]}},{"type":"Feature","id":"w-759617561","properties":{"gauge":"1067","railway":"abandoned","railClass":"unknown","active":false},"geometry":{"type":"LineString","coordinates":[[24.0147376,-30.6549866],[24.0147171,-30.6546055],[24.014713,-30.6544444]]}},{"type":"Feature","id":"w-759617562","properties":{"gauge":"1067","railway":"abandoned","railClass":"unknown","active":false},"geometry":{"type":"LineString","coordinates":[[24.0146952,-30.6541622],[24.0146706,-30.6544292],[24.0146597,-30.654642],[24.0146747,-30.6549195],[24.0146843,-30.6552029]]}},{"type":"Feature","id":"w-759617563","properties":{"gauge":"1067","railway":"abandoned","railClass":"unknown","active":false},"geometry":{"type":"LineString","coordinates":[[24.0149304,-30.6557196],[24.0149195,-30.6556207],[24.0148224,-30.6551077],[24.0147817,-30.6548858],[24.0147458,-30.6546902],[24.014713,-30.6544444],[24.0146952,-30.6541622],[24.0146911,-30.6540493]]}},{"type":"Feature","id":"w-759617564","properties":{"gauge":"1067","railway":"abandoned","railClass":"unknown","active":false},"geometry":{"type":"LineString","coordinates":[[24.0150028,-30.6560543],[24.0149872,-30.655511],[24.0149864,-30.6552535],[24.014996,-30.6551547],[24.015007,-30.6549674]]}},{"type":"Feature","id":"w-759617565","properties":{"railway":"abandoned","railClass":"unknown","active":false},"geometry":{"type":"LineString","coordinates":[[24.0151873,-30.6544245],[24.0152038,-30.6543221],[24.0152434,-30.6541211]]}},{"type":"Feature","id":"w-759617566","properties":{"railway":"abandoned","railClass":"unknown","active":false},"geometry":{"type":"LineString","coordinates":[[24.0153451,-30.6536335],[24.0152858,-30.6539153],[24.0152434,-30.6541211],[24.0152256,-30.6543363],[24.0152243,-30.654602],[24.0152461,-30.6551077],[24.0152721,-30.6556627]]}},{"type":"Feature","id":"w-759617568","properties":{"gauge":"1067","railway":"rail","service":"siding","railClass":"siding","active":true},"geometry":{"type":"LineString","coordinates":[[24.0141137,-30.6519155],[24.0140951,-30.6515233],[24.0140541,-30.6505861],[24.0139584,-30.648561],[24.0139352,-30.6480153],[24.0139132,-30.6478373],[24.0138877,-30.647719],[24.0138642,-30.6476446],[24.0137985,-30.6474343],[24.0137425,-30.6472473],[24.0137178,-30.6470886],[24.0136898,-30.6468662]]}},{"type":"Feature","id":"w-759617570","properties":{"gauge":"1067","railway":"rail","service":"crossover","railClass":"crossover","active":true},"geometry":{"type":"LineString","coordinates":[[24.0136322,-30.6456319],[24.0135907,-30.6453339],[24.0135553,-30.6450204]]}},{"type":"Feature","id":"w-759617571","properties":{"gauge":"1067","railway":"rail","service":"spur","railClass":"spur","active":true},"geometry":{"type":"LineString","coordinates":[[24.0134554,-30.6458631],[24.0133187,-30.6461959],[24.0132667,-30.6463312],[24.0132312,-30.6464606],[24.0132199,-30.6465458],[24.0132134,-30.6466946],[24.0132346,-30.6471944],[24.0132524,-30.6474614]]}},{"type":"Feature","id":"w-759617572","properties":{"gauge":"1067","railway":"rail","service":"spur","railClass":"spur","active":true},"geometry":{"type":"LineString","coordinates":[[24.0133112,-30.6474773],[24.013279,-30.6469427],[24.0132722,-30.6466864],[24.0132749,-30.6465417],[24.0133078,-30.6463618],[24.0134144,-30.6460031],[24.0134554,-30.6458631],[24.0135183,-30.645675],[24.0135497,-30.6455115],[24.013562,-30.6453809],[24.0135647,-30.6452633],[24.0135553,-30.6450204],[24.0135511,-30.6448917],[24.0135337,-30.6445865]]}},{"type":"Feature","id":"w-759617573","properties":{"electrified":"contact_line","frequency":"50","gauge":"1067","railway":"rail","service":"siding","voltage":"25000","railClass":"siding","active":true},"geometry":{"type":"LineString","coordinates":[[24.0138026,-30.6525994],[24.0137254,-30.6522854],[24.0136529,-30.651949],[24.0136358,-30.6518161],[24.0136126,-30.6514069],[24.0135921,-30.6508848],[24.0135483,-30.6499493],[24.0135231,-30.6494306],[24.0134978,-30.6489067],[24.0134752,-30.6484034],[24.0134636,-30.6480382],[24.0134663,-30.6477789],[24.0134758,-30.6475116]]}},{"type":"Feature","id":"w-759617574","properties":{"gauge":"1067","railway":"abandoned","service":"yard","railClass":"yard","active":false},"geometry":{"type":"LineString","coordinates":[[24.0139324,-30.6585023],[24.0139139,-30.658283],[24.0139226,-30.6577685],[24.0139393,-30.656781],[24.0139284,-30.6562766],[24.0139079,-30.6557521],[24.0138723,-30.6549254],[24.0138545,-30.6543562]]}},{"type":"Feature","id":"w-761665274","properties":{"gauge":"1067","railway":"rail","service":"yard","triangle":"yes","railClass":"yard","active":true},"geometry":{"type":"LineString","coordinates":[[24.0176653,-30.6593718],[24.0177154,-30.6593647],[24.0178894,-30.6593143],[24.0179925,-30.659279],[24.0182782,-30.6591615],[24.0185982,-30.6590318],[24.0194235,-30.6586967],[24.0201952,-30.6583795],[24.0204775,-30.6582671],[24.0207096,-30.6581684],[24.021364,-30.6579046]]}},{"type":"Feature","id":"w-761665275","properties":{"bridge":"yes","gauge":"1067","layer":"1","railway":"rail","service":"yard","triangle":"yes","railClass":"yard","active":true},"geometry":{"type":"LineString","coordinates":[[24.0175861,-30.659383],[24.0176653,-30.6593718]]}},{"type":"Feature","id":"w-761665283","properties":{"gauge":"1067","railway":"rail","service":"yard","triangle":"yes","railClass":"yard","active":true},"geometry":{"type":"LineString","coordinates":[[24.0148188,-30.6516952],[24.0150124,-30.6520572],[24.0152243,-30.6524665],[24.0153254,-30.6527616],[24.0153869,-30.6530815]]}},{"type":"Feature","id":"w-761665284","properties":{"bridge":"yes","gauge":"1067","layer":"1","railway":"rail","service":"yard","triangle":"yes","railClass":"yard","active":true},"geometry":{"type":"LineString","coordinates":[[24.0146891,-30.651429],[24.0148188,-30.6516952]]}},{"type":"Feature","id":"w-761665285","properties":{"gauge":"1067","railway":"rail","railClass":"main","active":true},"geometry":{"type":"LineString","coordinates":[[24.0175111,-30.6718904],[24.0174975,-30.6718513],[24.0173874,-30.6715825],[24.0172706,-30.6712754],[24.0171705,-30.6709778],[24.0170793,-30.6706669],[24.0168434,-30.669779],[24.0166232,-30.6689572],[24.0161304,-30.6671326],[24.015463,-30.6646268],[24.0146532,-30.6615927],[24.014572,-30.6612167],[24.014512,-30.6608368],[24.0144842,-30.6605029],[24.0144552,-30.6601183],[24.0144521,-30.6600445],[24.0143932,-30.6588689],[24.0143596,-30.6579806],[24.014324,-30.6572304],[24.0143171,-30.6571065],[24.0143001,-30.6567071],[24.0142854,-30.6564268],[24.0142689,-30.656259]]}},{"type":"Feature","id":"w-761665286","properties":{"bridge":"yes","gauge":"1067","layer":"1","railway":"rail","railClass":"main","active":true},"geometry":{"type":"LineString","coordinates":[[24.0176494,-30.6721613],[24.0175111,-30.6718904]]}},{"type":"Feature","id":"w-761665287","properties":{"electrified":"contact_line","frequency":"50","gauge":"1067","name":"Cape Midland Line","passenger_lines":"1","railway":"rail","usage":"main","voltage":"25000","railClass":"main","active":true},"geometry":{"type":"LineString","coordinates":[[24.017478,-30.6718968],[24.0173582,-30.6716215],[24.0172258,-30.6712655],[24.0170909,-30.6708172],[24.016977,-30.6704122],[24.0167533,-30.6695979],[24.0165237,-30.6687374],[24.0160956,-30.6671462],[24.0158459,-30.666205],[24.0154513,-30.6647442],[24.0148807,-30.6626152],[24.0146595,-30.6617979],[24.0145757,-30.6614232],[24.0145204,-30.6611277],[24.0144752,-30.6608711],[24.01444,-30.660567],[24.0144165,-30.6600583],[24.0143538,-30.658876],[24.0143207,-30.6579845],[24.0142873,-30.6573051],[24.0142816,-30.6571065],[24.0142436,-30.656471],[24.0141743,-30.655632],[24.0141579,-30.6552731],[24.0141522,-30.6551787],[24.0141155,-30.6545652]]}},{"type":"Feature","id":"w-761665288","properties":{"bridge":"yes","electrified":"contact_line","frequency":"50","gauge":"1067","layer":"1","name":"Cape Midland Line","passenger_lines":"1","railway":"rail","usage":"main","voltage":"25000","railClass":"main","active":true},"geometry":{"type":"LineString","coordinates":[[24.0176179,-30.6721749],[24.017478,-30.6718968]]}},{"type":"Feature","id":"w-761665290","properties":{"gauge":"1067","railway":"rail","service":"yard","railClass":"yard","active":true},"geometry":{"type":"LineString","coordinates":[[24.0152529,-30.6443596],[24.0153181,-30.6449815],[24.0153381,-30.6458285],[24.0152963,-30.6475095],[24.0152912,-30.6479622],[24.0152845,-30.6482036],[24.0152728,-30.6486287],[24.0152572,-30.6494737],[24.0152483,-30.6501608],[24.0152383,-30.6503264],[24.0152116,-30.6504804],[24.0151849,-30.6505857],[24.0151596,-30.6506667],[24.0150873,-30.6508694],[24.0149957,-30.6510984]]}},{"type":"Feature","id":"w-761665291","properties":{"electrified":"contact_line","frequency":"50","gauge":"1067","passenger_lines":"2","railway":"rail","usage":"main","voltage":"25000","railClass":"main","active":true},"geometry":{"type":"LineString","coordinates":[[24.0141581,-30.6241024],[24.0144955,-30.6228298],[24.0147311,-30.6221259],[24.0151468,-30.6212486],[24.015719,-30.6202616],[24.0161227,-30.6195276],[24.0164392,-30.618984],[24.0167959,-30.6183677],[24.0171982,-30.617666],[24.0176193,-30.6169343],[24.0182698,-30.6157882],[24.0188451,-30.6147876],[24.019458,-30.6137096],[24.019802,-30.6131015],[24.0202232,-30.6123689],[24.0214135,-30.6102761],[24.0218827,-30.6094513],[24.0227611,-30.6079178],[24.0256177,-30.6029148],[24.0258919,-30.6024136],[24.0260314,-30.6021421],[24.0261369,-30.6019176],[24.0263638,-30.6013708],[24.0264936,-30.6010228],[24.0265724,-30.600767],[24.026644,-30.600532],[24.0267059,-30.6003274],[24.0267689,-30.6000674],[24.0267908,-30.5999358],[24.0268648,-30.5995797],[24.0269121,-30.5992884],[24.0269545,-30.598948],[24.0270164,-30.5982661],[24.0270746,-30.5975101],[24.0271947,-30.5959292],[24.02727,-30.5949821],[24.027327,-30.5941039],[24.0273719,-30.5935912],[24.0274277,-30.5929145],[24.027574,-30.5909872],[24.0276429,-30.5901178]]}},{"type":"Feature","id":"w-761665292","properties":{"bridge":"yes","electrified":"contact_line","frequency":"50","gauge":"1067","layer":"1","passenger_lines":"2","railway":"rail","usage":"main","voltage":"25000","railClass":"main","active":true},"geometry":{"type":"LineString","coordinates":[[24.0140912,-30.6243687],[24.0141581,-30.6241024]]}},{"type":"Feature","id":"w-868105065","properties":{"gauge":"1067","railway":"abandoned","railClass":"unknown","active":false},"geometry":{"type":"LineString","coordinates":[[24.0164936,-30.6355549],[24.0166403,-30.6357877],[24.0167664,-30.6359227],[24.0168817,-30.6360369],[24.0169662,-30.6361073],[24.0170722,-30.6361581],[24.0172546,-30.6362435],[24.0173431,-30.6362793],[24.0174933,-30.6363173],[24.0177467,-30.6363658],[24.0178742,-30.6363739]]}},{"type":"Feature","id":"w-868105066","properties":{"gauge":"1067","railway":"rail","service":"yard","railClass":"yard","active":true},"geometry":{"type":"LineString","coordinates":[[24.0140337,-30.6438958],[24.0140024,-30.6436479],[24.0139809,-30.6434898],[24.0139528,-30.643019],[24.0138428,-30.6404183],[24.0138012,-30.6396763]]}},{"type":"Feature","id":"w-868105067","properties":{"gauge":"1067","railway":"rail","service":"yard","railClass":"yard","active":true},"geometry":{"type":"LineString","coordinates":[[24.0136168,-30.6386246],[24.0136329,-30.6389857],[24.0136503,-30.6393677],[24.0136738,-30.6398586],[24.013704,-30.6405129],[24.0137342,-30.6412144],[24.0137784,-30.642158],[24.0138418,-30.643554],[24.0138552,-30.6438896],[24.0138812,-30.6443423]]}},{"type":"Feature","id":"w-868105068","properties":{"gauge":"1067","railway":"rail","service":"yard","railClass":"yard","active":true},"geometry":{"type":"LineString","coordinates":[[24.0138575,-30.6441503],[24.0138146,-30.6439017],[24.0137965,-30.6435059],[24.0137047,-30.6414636],[24.013643,-30.6400156],[24.0136161,-30.6394773],[24.013596,-30.6391057],[24.0136014,-30.6388698]]}},{"type":"Feature","id":"w-868105069","properties":{"gauge":"1067","railway":"rail","service":"yard","railClass":"yard","active":true},"geometry":{"type":"LineString","coordinates":[[24.0138812,-30.6443423],[24.0138575,-30.6441503],[24.0137938,-30.6439109],[24.0137375,-30.6436819],[24.0137154,-30.6435071],[24.0136631,-30.6423948],[24.013596,-30.6410944],[24.0135384,-30.6397467],[24.0135343,-30.6395275],[24.0135491,-30.6392921],[24.0135766,-30.6390691],[24.0136014,-30.6388698],[24.0136101,-30.6387688],[24.0136168,-30.6386246],[24.0136076,-30.6384361]]}},{"type":"Feature","id":"w-868105070","properties":{"gauge":"1067","railway":"rail","service":"yard","railClass":"yard","active":true},"geometry":{"type":"LineString","coordinates":[[24.0135784,-30.6434054],[24.0135444,-30.6432209],[24.0135317,-30.6430634],[24.0135156,-30.6427317],[24.0134874,-30.6420636],[24.0134425,-30.6411336],[24.0133412,-30.6389869],[24.0133084,-30.638234],[24.0132654,-30.637391],[24.0132561,-30.6372237],[24.0132433,-30.6371176],[24.0132312,-30.6370443],[24.0132081,-30.6369106]]}},{"type":"Feature","id":"w-868105071","properties":{"gauge":"1067","railway":"rail","service":"yard","railClass":"yard","active":true},"geometry":{"type":"LineString","coordinates":[[24.0133573,-30.6375895],[24.0133452,-30.6374591],[24.0133177,-30.637312],[24.0132594,-30.6371003],[24.0132081,-30.6369106],[24.0131595,-30.636731],[24.0131025,-30.6365066]]}},{"type":"Feature","id":"w-868105072","properties":{"gauge":"1067","railway":"rail","service":"yard","railClass":"yard","active":true},"geometry":{"type":"LineString","coordinates":[[24.0136325,-30.6435961],[24.0136007,-30.6434015],[24.0135833,-30.6432008],[24.0135605,-30.6427133],[24.0135223,-30.6419275],[24.0134847,-30.6411452],[24.0134203,-30.6397611],[24.0133848,-30.6389921],[24.0133479,-30.638238],[24.0133191,-30.6375728],[24.0133063,-30.6373841],[24.0132936,-30.6372987],[24.0132594,-30.6371003]]}},{"type":"Feature","id":"w-868105073","properties":{"gauge":"1067","railway":"rail","service":"yard","railClass":"yard","active":true},"geometry":{"type":"LineString","coordinates":[[24.0136825,-30.643788],[24.0136456,-30.6436023],[24.0136336,-30.6434252],[24.0136182,-30.6431979],[24.0135853,-30.6424969],[24.0135511,-30.6417469],[24.0134901,-30.6404425],[24.0134539,-30.6396238],[24.013415,-30.6388121],[24.0133848,-30.6381843],[24.0133573,-30.6375895],[24.0133486,-30.6373657],[24.0133291,-30.6371631],[24.0132956,-30.636909]]}},{"type":"Feature","id":"w-868105074","properties":{"gauge":"1067","railway":"rail","service":"yard","railClass":"yard","active":true},"geometry":{"type":"LineString","coordinates":[[24.0137932,-30.6459249],[24.0138401,-30.6456388],[24.0138528,-30.6454386],[24.0138562,-30.6451905],[24.0138508,-30.6448957],[24.0138301,-30.6446609],[24.013759,-30.6441873],[24.0137335,-30.6440465]]}},{"type":"Feature","id":"w-868105075","properties":{"railway":"rail","railClass":"main","active":true},"geometry":{"type":"LineString","coordinates":[[24.0149165,-30.6500616],[24.0148392,-30.649651],[24.0148151,-30.649298],[24.0148245,-30.6486496],[24.0148285,-30.6474104],[24.0148258,-30.6461112],[24.0148298,-30.6451213],[24.0148312,-30.6449101],[24.0148329,-30.6445878]]}},{"type":"Feature","id":"w-868105076","properties":{"electrified":"contact_line","gauge":"1067","railway":"rail","service":"yard","railClass":"yard","active":true},"geometry":{"type":"LineString","coordinates":[[24.0154487,-30.6464052],[24.0154378,-30.6458552],[24.0153822,-30.6445173],[24.0153545,-30.6440726]]}},{"type":"Feature","id":"w-868105077","properties":{"gauge":"1067","railway":"rail","railClass":"main","active":true},"geometry":{"type":"LineString","coordinates":[[24.0137409,-30.645299],[24.0137315,-30.6447971],[24.0137234,-30.6445501],[24.0137288,-30.6444025],[24.0137382,-30.6442986],[24.0137377,-30.6442019],[24.0137335,-30.6440465],[24.0137012,-30.6438599]]}},{"type":"Feature","id":"w-868105078","properties":{"electrified":"contact_line","frequency":"50","gauge":"1067","railway":"rail","usage":"main","voltage":"25000","railClass":"main","active":true},"geometry":{"type":"LineString","coordinates":[[24.0135318,-30.6432411],[24.0134934,-30.6430311],[24.0134834,-30.6428575],[24.0134539,-30.6422696],[24.0134277,-30.6417573],[24.0133794,-30.6405815],[24.0133566,-30.6401921],[24.0133345,-30.6397825],[24.013307,-30.6391767],[24.0132782,-30.638478],[24.0132225,-30.6373616],[24.013212,-30.6370723],[24.0131917,-30.6369254],[24.0131595,-30.636731]]}},{"type":"Feature","id":"w-868105079","properties":{"gauge":"1067","railway":"rail","service":"yard","railClass":"yard","active":true},"geometry":{"type":"LineString","coordinates":[[24.013309,-30.6424303],[24.0132782,-30.6422604],[24.0132715,-30.6421594],[24.0132681,-30.6420325],[24.013246,-30.641721],[24.0132192,-30.6411186],[24.0131508,-30.6396532],[24.0130971,-30.6385478],[24.0130556,-30.6376062],[24.0130227,-30.6369249],[24.0130113,-30.6365406],[24.0130126,-30.6364154],[24.0130282,-30.6361629]]}},{"type":"Feature","id":"w-868105080","properties":{"gauge":"1067","railway":"rail","service":"yard","railClass":"yard","active":true},"geometry":{"type":"LineString","coordinates":[[24.0131669,-30.6352517],[24.0131159,-30.6353896],[24.0130582,-30.635524],[24.0130261,-30.6356458],[24.0129764,-30.6359088],[24.0129054,-30.6362741],[24.0128577,-30.6365764],[24.012843,-30.6367495],[24.012845,-30.6369878],[24.0128591,-30.6373276],[24.0128866,-30.6379559],[24.0129248,-30.6386984],[24.0129483,-30.6391865],[24.012965,-30.6395741],[24.0129738,-30.6397773],[24.0130046,-30.6404038],[24.0130308,-30.6410304],[24.0130428,-30.6413021],[24.0130482,-30.6413783],[24.0130576,-30.6414775],[24.0130763,-30.6415929],[24.0131441,-30.6418352],[24.0131938,-30.6420207],[24.0132393,-30.6421871],[24.013309,-30.6424303],[24.0133472,-30.6425554],[24.013412,-30.6428064],[24.0134642,-30.6430081],[24.0135318,-30.6432411],[24.0135784,-30.6434054],[24.0136325,-30.6435961],[24.0136825,-30.643788],[24.0137012,-30.6438599],[24.013767,-30.644088],[24.0138099,-30.6442398],[24.0138999,-30.6447197]]}},{"type":"Feature","id":"w-868105081","properties":{"electrified":"contact_line","frequency":"50","gauge":"1067","railway":"rail","usage":"main","voltage":"25000","railClass":"main","active":true},"geometry":{"type":"LineString","coordinates":[[24.0132381,-30.6366471],[24.0132058,-30.636337],[24.0131984,-30.6361431],[24.0131991,-30.6358875],[24.0132125,-30.6356717],[24.0132257,-30.6352201],[24.0132517,-30.634882],[24.0132943,-30.634602],[24.0133057,-30.6344855],[24.0133117,-30.6344053],[24.0133063,-30.6342183],[24.0132755,-30.6340141],[24.0132343,-30.6338487],[24.0131785,-30.6335272],[24.0131586,-30.6332702]]}},{"type":"Feature","id":"w-868105082","properties":{"gauge":"1067","railway":"rail","service":"yard","railClass":"yard","active":true},"geometry":{"type":"LineString","coordinates":[[24.0141635,-30.6518751],[24.0141874,-30.6526287],[24.0141872,-30.6527375],[24.014167,-30.6529394],[24.0141445,-30.6530597],[24.0141175,-30.6533232]]}},{"type":"Feature","id":"w-868105083","properties":{"gauge":"1067","railway":"abandoned","service":"yard","railClass":"yard","active":false},"geometry":{"type":"LineString","coordinates":[[24.0141635,-30.6518751],[24.0140493,-30.6495414],[24.0140119,-30.6485618],[24.0139566,-30.6473237],[24.0139213,-30.6459989]]}},{"type":"Feature","id":"w-868105084","properties":{"gauge":"1067","railway":"rail","service":"yard","triangle":"yes","railClass":"yard","active":true},"geometry":{"type":"LineString","coordinates":[[24.0141361,-30.6459372],[24.0141882,-30.646196],[24.0142152,-30.646395],[24.0142469,-30.6468734],[24.0142693,-30.6473816],[24.0142889,-30.6476037]]}},{"type":"Feature","id":"w-868105085","properties":{"gauge":"1067","railway":"disused","service":"yard","railClass":"yard","active":false},"geometry":{"type":"LineString","coordinates":[[24.0161522,-30.6479527],[24.0160274,-30.6475639],[24.0159725,-30.6473354],[24.0159389,-30.6472246],[24.0159045,-30.6469962]]}},{"type":"Feature","id":"w-868105086","properties":{"gauge":"1067","railway":"abandoned","service":"yard","railClass":"yard","active":false},"geometry":{"type":"LineString","coordinates":[[24.0161235,-30.6480887],[24.0163802,-30.6489057],[24.0164311,-30.6491641],[24.0164781,-30.649493],[24.0165062,-30.6500894],[24.0165237,-30.650649]]}},{"type":"Feature","id":"w-868105087","properties":{"gauge":"1067","railway":"rail","service":"yard","railClass":"yard","active":true},"geometry":{"type":"LineString","coordinates":[[24.0159027,-30.6477727],[24.0159389,-30.6480196],[24.0159523,-30.6481846],[24.0159778,-30.6485919],[24.0160851,-30.6508515]]}},{"type":"Feature","id":"w-868105095","properties":{"gauge":"1067","railway":"disused","railClass":"unknown","active":false},"geometry":{"type":"LineString","coordinates":[[24.0165813,-30.6354473],[24.0160181,-30.6342391],[24.0159242,-30.6340499],[24.0158397,-30.6338941],[24.0157016,-30.6337025],[24.0156104,-30.6336033]]}},{"type":"Feature","id":"w-868105096","properties":{"gauge":"1067","railway":"disused","railClass":"unknown","active":false},"geometry":{"type":"LineString","coordinates":[[24.0156104,-30.6336033],[24.0158759,-30.6340799],[24.0160637,-30.6344803],[24.0165237,-30.6354669]]}},{"type":"Feature","id":"w-868105097","properties":{"gauge":"1067","railway":"disused","railClass":"unknown","active":false},"geometry":{"type":"LineString","coordinates":[[24.014917,-30.6385051],[24.0149707,-30.6396936],[24.0149951,-30.6402414],[24.015047,-30.6413936],[24.0150756,-30.6419884]]}},{"type":"Feature","id":"w-868105098","properties":{"gauge":"1067","railway":"abandoned","railClass":"unknown","active":false},"geometry":{"type":"LineString","coordinates":[[24.0148773,-30.6376762],[24.0148634,-30.6373178],[24.0148473,-30.6368262]]}},{"type":"Feature","id":"w-868105099","properties":{"gauge":"1067","railway":"rail","service":"spur","railClass":"spur","active":true},"geometry":{"type":"LineString","coordinates":[[24.0154172,-30.6430086],[24.0153757,-30.6421225],[24.0153534,-30.6416723],[24.0153494,-30.6415478],[24.0153703,-30.641326]]}},{"type":"Feature","id":"w-868105100","properties":{"gauge":"1067","railway":"rail","service":"yard","railClass":"yard","active":true},"geometry":{"type":"LineString","coordinates":[[24.0141155,-30.6545652],[24.0140943,-30.6542192],[24.0140873,-30.6540959],[24.0140905,-30.6538696],[24.0141175,-30.6533232],[24.0141303,-30.6526328],[24.0141284,-30.6522527],[24.0141137,-30.6519155]]}},{"type":"Feature","id":"w-868105101","properties":{"gauge":"1067","railway":"rail","service":"yard","railClass":"yard","active":true},"geometry":{"type":"LineString","coordinates":[[24.0140905,-30.6538696],[24.0141356,-30.653513],[24.0142264,-30.6528628]]}},{"type":"Feature","id":"w-868105109","properties":{"gauge":"1067","railway":"rail","service":"yard","railClass":"yard","active":true},"geometry":{"type":"LineString","coordinates":[[24.0164646,-30.6577212],[24.0165049,-30.6575574],[24.0165243,-30.6574657],[24.0165357,-30.6573284],[24.016531,-30.6572217]]}},{"type":"Feature","id":"w-868105110","properties":{"gauge":"1067","railway":"rail","service":"yard","railClass":"yard","active":true},"geometry":{"type":"LineString","coordinates":[[24.0164271,-30.6579069],[24.0164539,-30.6577656],[24.0164646,-30.6577212],[24.0165263,-30.6575401],[24.016576,-30.6574368],[24.0165988,-30.6573491],[24.0166075,-30.6572903],[24.0166088,-30.6572176]]}},{"type":"Feature","id":"w-868105111","properties":{"gauge":"1067","railway":"rail","service":"yard","railClass":"yard","active":true},"geometry":{"type":"LineString","coordinates":[[24.0164136,-30.658129],[24.0164224,-30.6579606],[24.0164271,-30.6579069],[24.0164499,-30.6577229],[24.0164586,-30.657622],[24.0164747,-30.6574645],[24.016472,-30.6572522],[24.0164412,-30.6564885],[24.0163922,-30.6562999],[24.0163346,-30.6561372],[24.01624,-30.6558817]]}},{"type":"Feature","id":"w-868105112","properties":{"gauge":"1067","railway":"rail","service":"yard","railClass":"yard","active":true},"geometry":{"type":"LineString","coordinates":[[24.0160518,-30.6580896],[24.0160006,-30.6578746],[24.0159698,-30.6576485],[24.015943,-30.6569552],[24.0159255,-30.6564729],[24.0158668,-30.6551435],[24.0158568,-30.6549866],[24.0157895,-30.6547138]]}},{"type":"Feature","id":"w-868105113","properties":{"gauge":"1067","railway":"abandoned","railClass":"unknown","active":false},"geometry":{"type":"LineString","coordinates":[[24.0153073,-30.6579796],[24.0153408,-30.6576208],[24.0153193,-30.6571074],[24.0152898,-30.6564175]]}},{"type":"Feature","id":"w-868105114","properties":{"gauge":"1067","railway":"abandoned","railClass":"unknown","active":false},"geometry":{"type":"LineString","coordinates":[[24.0152536,-30.6581677],[24.0152858,-30.6579346],[24.0152979,-30.6577143],[24.0152335,-30.6565825],[24.0152402,-30.6560772]]}},{"type":"Feature","id":"w-868105115","properties":{"gauge":"1067","railway":"abandoned","railClass":"unknown","active":false},"geometry":{"type":"LineString","coordinates":[[24.0152417,-30.6585605],[24.0152268,-30.6583603],[24.0152536,-30.6581677],[24.0153073,-30.6579796],[24.0153663,-30.6577616],[24.0153971,-30.6575608],[24.0154038,-30.6571986]]}},{"type":"Feature","id":"w-868105116","properties":{"gauge":"1067","railway":"abandoned","railClass":"unknown","active":false},"geometry":{"type":"LineString","coordinates":[[24.0153462,-30.6594159],[24.0151262,-30.6588264]]}},{"type":"Feature","id":"w-868105123","properties":{"electrified":"contact_line","frequency":"50","gauge":"1067","passenger_lines":"1","railway":"abandoned","usage":"main","voltage":"25000","railClass":"unknown","active":false},"geometry":{"type":"LineString","coordinates":[[24.0130596,-30.6307692],[24.0130381,-30.6305661],[24.0130247,-30.6303791],[24.0130354,-30.6296267],[24.0130542,-30.6292598],[24.0131129,-30.6285982],[24.0132339,-30.6278369],[24.0133271,-30.6273804],[24.013411,-30.6270423],[24.0135048,-30.6266517],[24.0136456,-30.6261174]]}},{"type":"Feature","id":"w-868105124","properties":{"gauge":"1067","railway":"rail","service":"yard","railClass":"yard","active":true},"geometry":{"type":"LineString","coordinates":[[24.0138857,-30.6387959],[24.0138803,-30.6386159],[24.0138897,-30.6384994],[24.0139171,-30.6383877],[24.0139554,-30.6382547],[24.0140104,-30.6381382],[24.0140882,-30.6380205],[24.0141714,-30.6379132],[24.0142652,-30.6378099],[24.0144221,-30.6376409],[24.0145234,-30.6375278],[24.0145797,-30.6374384],[24.014628,-30.6373466],[24.0146575,-30.6372866],[24.0146884,-30.6372082],[24.0147051,-30.6371464],[24.0147429,-30.6369375]]}},{"type":"Feature","id":"w-1057872641","properties":{"electrified":"contact_line","frequency":"50","gauge":"1067","passenger_lines":"2","railway":"rail","usage":"main","voltage":"25000","railClass":"main","active":true},"geometry":{"type":"LineString","coordinates":[[24.0137275,-30.6259598],[24.0137838,-30.6256719],[24.0138334,-30.6253765],[24.0140049,-30.6247156],[24.0140912,-30.6243687]]}},{"type":"Feature","id":"w-1057872642","properties":{"bridge":"yes","electrified":"contact_line","frequency":"50","gauge":"1067","layer":"1","passenger_lines":"2","railway":"rail","usage":"main","voltage":"25000","railClass":"main","active":true},"geometry":{"type":"LineString","coordinates":[[24.0141282,-30.6243748],[24.014201,-30.6241058]]}},{"type":"Feature","id":"w-1057872643","properties":{"electrified":"contact_line","frequency":"50","gauge":"1067","passenger_lines":"2","railway":"rail","usage":"main","voltage":"25000","railClass":"main","active":true},"geometry":{"type":"LineString","coordinates":[[24.0137275,-30.6259598],[24.0137997,-30.6256762],[24.0138748,-30.6253845],[24.0140339,-30.6247421],[24.0141282,-30.6243748]]}},{"type":"Feature","id":"w-1057872646","properties":{"electrified":"contact_line","frequency":"50","gauge":"1067","passenger_lines":"2","railway":"rail","usage":"main","voltage":"25000","railClass":"main","active":true},"geometry":{"type":"LineString","coordinates":[[24.014201,-30.6241058],[24.0145271,-30.6228849],[24.0146214,-30.6225801],[24.0147142,-30.6223146],[24.0148189,-30.6220536],[24.0148884,-30.6218868],[24.0149488,-30.6217568],[24.0150982,-30.6214431],[24.0152701,-30.6210991],[24.0153744,-30.6209114],[24.0157957,-30.6201884],[24.0167173,-30.618576],[24.0172169,-30.6177106],[24.0180226,-30.6163038],[24.0185478,-30.6153841],[24.0189842,-30.6146212],[24.019746,-30.6132845],[24.020037,-30.6127713],[24.0205014,-30.6119644],[24.0214111,-30.6103663],[24.0219027,-30.6095022],[24.0225797,-30.6083175],[24.0228291,-30.6078813],[24.0235085,-30.6066925],[24.0239738,-30.6058752],[24.0245852,-30.6048047],[24.0255421,-30.6031308],[24.0258306,-30.6026196],[24.0260536,-30.6021848],[24.0262535,-30.6017506],[24.0263998,-30.6013832],[24.0265396,-30.6010165],[24.0266188,-30.6007778],[24.0267003,-30.600495],[24.0267802,-30.6002074],[24.0268354,-30.5999459],[24.0269001,-30.5996467],[24.0269433,-30.5993597],[24.0269793,-30.5991293],[24.0270145,-30.5987818],[24.0270512,-30.59836],[24.0271112,-30.5975523],[24.0276851,-30.5901176]]}},{"type":"Feature","id":"w-1058415700","properties":{"gauge":"1067","railway":"abandoned","service":"yard","railClass":"yard","active":false},"geometry":{"type":"LineString","coordinates":[[24.013914,-30.6476333],[24.0138748,-30.64684],[24.0138789,-30.6466652],[24.0138944,-30.6464919],[24.0138878,-30.6459731],[24.0138835,-30.645789]]}},{"type":"Feature","id":"w-1058415701","properties":{"gauge":"1067","railway":"abandoned","service":"yard","railClass":"yard","active":false},"geometry":{"type":"LineString","coordinates":[[24.0139739,-30.6459298],[24.0139679,-30.6460908],[24.0140077,-30.6473379],[24.0140585,-30.6485665],[24.014195,-30.6517092],[24.0141995,-30.651887],[24.0142076,-30.65204]]}},{"type":"Feature","id":"w-1058415702","properties":{"gauge":"1067","railway":"rail","service":"crossover","railClass":"crossover","active":true},"geometry":{"type":"LineString","coordinates":[[24.0142689,-30.656259],[24.0142183,-30.6559733],[24.0141743,-30.655632]]}},{"type":"Feature","id":"w-1058415703","properties":{"gauge":"1067","railway":"rail","service":"crossover","railClass":"crossover","active":true},"geometry":{"type":"LineString","coordinates":[[24.0140724,-30.654549],[24.0141522,-30.6551787]]}},{"type":"Feature","id":"w-1058415704","properties":{"gauge":"1067","railway":"rail","service":"crossover","railClass":"crossover","active":true},"geometry":{"type":"LineString","coordinates":[[24.0141579,-30.6552731],[24.0141441,-30.6559072]]}},{"type":"Feature","id":"w-1058415705","properties":{"gauge":"1067","railway":"abandoned","service":"yard","railClass":"yard","active":false},"geometry":{"type":"LineString","coordinates":[[24.0138188,-30.654644],[24.0137997,-30.6540781],[24.013785,-30.6535025]]}},{"type":"Feature","id":"w-1058415708","properties":{"gauge":"1067","railway":"disused","service":"yard","railClass":"yard","active":false},"geometry":{"type":"LineString","coordinates":[[24.0139034,-30.6593356],[24.0139338,-30.6590082],[24.0139441,-30.6589005],[24.013956,-30.658799]]}},{"type":"Feature","id":"w-1058415709","properties":{"gauge":"1067","railway":"abandoned","triangle":"yes","railClass":"unknown","active":false},"geometry":{"type":"LineString","coordinates":[[24.0152973,-30.6587433],[24.0153231,-30.6588098],[24.0153705,-30.6589031],[24.0154863,-30.6590582],[24.0156324,-30.6592218],[24.015776,-30.659339],[24.0160355,-30.6594724],[24.0162346,-30.6595369],[24.0164255,-30.6595545],[24.0166034,-30.659558],[24.0167111,-30.6595524],[24.0169552,-30.6595075]]}},{"type":"Feature","id":"w-1058415710","properties":{"railway":"disused","railClass":"unknown","active":false},"geometry":{"type":"LineString","coordinates":[[24.0139546,-30.6448843],[24.0139694,-30.645086],[24.0139937,-30.6452946]]}},{"type":"Feature","id":"w-1058415711","properties":{"gauge":"1067","railway":"rail","service":"yard","railClass":"yard","active":true},"geometry":{"type":"LineString","coordinates":[[24.0144719,-30.6433261],[24.0145491,-30.6431295],[24.014615,-30.6429507],[24.0146409,-30.6428292],[24.0146566,-30.6427327],[24.0146628,-30.6426065],[24.0146456,-30.6423014],[24.0145977,-30.6414605],[24.014564,-30.6407896],[24.014524,-30.6400074],[24.0144848,-30.6392832],[24.0144762,-30.6389086],[24.0144934,-30.6386096]]}},{"type":"Feature","id":"w-1058415712","properties":{"gauge":"1067","railway":"rail","service":"yard","railClass":"yard","active":true},"geometry":{"type":"LineString","coordinates":[[24.0136738,-30.6383779],[24.0137023,-30.6385503],[24.0137746,-30.6387263],[24.0138569,-30.6389266],[24.0140142,-30.6392189],[24.0141741,-30.6395971],[24.0142902,-30.6398421],[24.0143389,-30.6399662],[24.0143593,-30.6400445],[24.0143718,-30.6401174],[24.0143875,-30.6402139],[24.0144063,-30.6404954],[24.0144377,-30.6411183],[24.0144675,-30.6417838],[24.0145099,-30.6427874],[24.0144942,-30.6430128],[24.0144824,-30.6430971],[24.0144573,-30.6432179],[24.0144063,-30.6433968],[24.0143412,-30.6435858],[24.0142553,-30.6438211]]}},{"type":"Feature","id":"w-1058415713","properties":{"gauge":"1067","railway":"rail","service":"yard","railClass":"yard","active":true},"geometry":{"type":"LineString","coordinates":[[24.0142553,-30.6438211],[24.0141014,-30.6442585],[24.0140323,-30.6444436],[24.0139889,-30.6445873],[24.0139702,-30.6447],[24.0139552,-30.6448577]]}},{"type":"Feature","id":"w-1058415714","properties":{"gauge":"1067","railway":"rail","service":"yard","railClass":"yard","active":true},"geometry":{"type":"LineString","coordinates":[[24.0141295,-30.6439093],[24.0141883,-30.643714],[24.0142142,-30.6435682],[24.0142607,-30.6430059],[24.0142034,-30.6422716]]}},{"type":"Feature","id":"w-1058415715","properties":{"gauge":"1067","railway":"rail","service":"yard","railClass":"yard","active":true},"geometry":{"type":"LineString","coordinates":[[24.0140414,-30.639786],[24.0139782,-30.6395726]]}},{"type":"Feature","id":"w-1058415716","properties":{"gauge":"1067","railway":"rail","service":"yard","railClass":"yard","active":true},"geometry":{"type":"LineString","coordinates":[[24.0142511,-30.6403086],[24.0142248,-30.640159],[24.0141687,-30.6398454],[24.0141404,-30.6396875],[24.0140142,-30.6392189]]}},{"type":"Feature","id":"w-1058416352","properties":{"gauge":"1067","railway":"rail","service":"yard","railClass":"yard","active":true},"geometry":{"type":"LineString","coordinates":[[24.0146559,-30.6380698],[24.0146323,-30.6387058],[24.0148276,-30.6424976],[24.0148991,-30.6442029],[24.0148688,-30.6479659],[24.0148647,-30.6490937],[24.0148727,-30.6495944],[24.0149165,-30.6500616],[24.014968,-30.6502447],[24.014996,-30.6505224],[24.0149869,-30.6508182],[24.014968,-30.6509283],[24.0149436,-30.6510303],[24.014907,-30.6511419]]}},{"type":"Feature","id":"w-1058416355","properties":{"gauge":"1067","railway":"disused","railClass":"unknown","active":false},"geometry":{"type":"LineString","coordinates":[[24.0147983,-30.6388719],[24.0148614,-30.6402511],[24.0149162,-30.6414007],[24.0149448,-30.6419819],[24.0149688,-30.6425069]]}},{"type":"Feature","id":"w-1058416356","properties":{"gauge":"1067","railway":"disused","railClass":"unknown","active":false},"geometry":{"type":"LineString","coordinates":[[24.0148651,-30.6384031],[24.0148734,-30.6386547],[24.0149516,-30.6402465],[24.0150049,-30.6414],[24.015032,-30.6419302]]}},{"type":"Feature","id":"w-1058416357","properties":{"gauge":"1067","railway":"disused","railClass":"unknown","active":false},"geometry":{"type":"LineString","coordinates":[[24.0148283,-30.638484],[24.0149065,-30.6402498],[24.0149651,-30.6414039],[24.0149891,-30.6419095],[24.0150109,-30.6425024]]}},{"type":"Feature","id":"w-1058416358","properties":{"gauge":"1067","railway":"abandoned","railClass":"unknown","active":false},"geometry":{"type":"LineString","coordinates":[[24.0167251,-30.6375374],[24.0167071,-30.6370298]]}},{"type":"Feature","id":"w-1058416359","properties":{"gauge":"1067","railway":"abandoned","railClass":"unknown","active":false},"geometry":{"type":"LineString","coordinates":[[24.0167687,-30.637518],[24.0167491,-30.6370524]]}},{"type":"Feature","id":"w-1310950481","properties":{"end_date":"1980s","railway":"abandoned","railClass":"unknown","active":false},"geometry":{"type":"LineString","coordinates":[[23.9909877,-30.6385582],[23.9911821,-30.6380666],[23.991264,-30.637687],[23.9915429,-30.6361189]]}},{"type":"Feature","id":"w-1311361875","properties":{"end_date":"1980s","railway":"abandoned","railClass":"unknown","active":false},"geometry":{"type":"LineString","coordinates":[[23.9912425,-30.637642],[23.9911848,-30.6370062],[23.9911459,-30.6366012],[23.99115,-30.6363093],[23.9911929,-30.6360658],[23.9912572,-30.635835],[23.991449,-30.63534],[23.9916126,-30.6349742],[23.9917561,-30.6345403],[23.9918084,-30.6342403],[23.9918581,-30.6335929],[23.9918943,-30.6329352],[23.9919426,-30.6321851]]}}]}