{"type":"Feature","properties":{"id":"pretoria-johannesburg-candidate","name":"Pretoria–Johannesburg mapped rail candidate","lengthMetres":69537.08989148065,"source":"OpenStreetMap","attribution":"© OpenStreetMap contributors","license":"ODbL-1.0","sourceFile":"data/route-ride.geojson","sourceSha256":"4af7762f6552ce7c3e57911ca91c4ffca4cac3bdd061686687c6702ed6e401ac","railAlignmentVerified":true,"confidence":"osm-mapped-connected-candidate","geometryType":"osm-rail-graph-shortest-path-candidate","reviewStatus":"automated-geometry-checks-passed-operational-route-review-pending","intendedUse":"Geographic simulation, not a current passenger service or timetable","hubOrder":["pretoria","johannesburg"],"endpointAnchorDistanceMetres":4.956963061037029},"geometry":{"type":"LineString","coordinates":[[28.18909,-25.75957],[28.18923,-25.75972],[28.18937,-25.75986],[28.18952,-25.76001],[28.18966,-25.76016],[28.1898,-25.7603],[28.18994,-25.76045],[28.19007,-25.76058],[28.1902,-25.76072],[28.19032,-25.76084],[28.19043,-25.76096],[28.19055,-25.76108],[28.19066,-25.7612],[28.1908,-25.76134],[28.19093,-25.76148],[28.19106,-25.76162],[28.1912,-25.76176],[28.19133,-25.7619],[28.19146,-25.76204],[28.19159,-25.76217],[28.19172,-25.76231],[28.19185,-25.76244],[28.19198,-25.76257],[28.1921,-25.7627],[28.19218,-25.76279],[28.19226,-25.76287],[28.19238,-25.763],[28.19246,-25.76311],[28.19255,-25.76323],[28.19263,-25.76336],[28.19272,-25.76351],[28.19278,-25.76362],[28.19284,-25.76374],[28.19292,-25.76391],[28.19299,-25.76407],[28.19306,-25.76423],[28.19312,-25.76437],[28.1932,-25.76455],[28.19323,-25.76466],[28.19327,-25.76477],[28.19331,-25.76495],[28.19335,-25.76513],[28.19338,-25.76527],[28.19341,-25.76541],[28.19344,-25.76555],[28.19346,-25.76575],[28.19349,-25.76595],[28.19351,-25.76614],[28.19352,-25.76626],[28.19352,-25.76637],[28.19351,-25.76651],[28.1935,-25.76665],[28.19349,-25.76679],[28.19348,-25.76691],[28.19347,-25.76704],[28.19345,-25.76721],[28.19343,-25.76739],[28.19341,-25.76752],[28.1934,-25.76766],[28.19338,-25.76781],[28.19336,-25.76797],[28.19334,-25.76813],[28.19332,-25.76829],[28.19331,-25.76845],[28.19329,-25.76862],[28.19327,-25.76878],[28.19325,-25.76898],[28.19323,-25.76918],[28.19321,-25.76938],[28.1932,-25.7695],[28.19319,-25.76963],[28.19318,-25.76979],[28.19318,-25.76995],[28.19317,-25.77007],[28.19317,-25.7702],[28.19317,-25.77037],[28.19317,-25.77053],[28.19317,-25.7707],[28.19317,-25.77086],[28.19318,-25.77106],[28.19319,-25.77127],[28.1932,-25.77147],[28.1932,-25.77168],[28.19321,-25.77189],[28.19322,-25.77209],[28.19323,-25.7723],[28.19324,-25.7725],[28.19324,-25.7727],[28.19325,-25.77289],[28.19326,-25.77308],[28.19326,-25.77327],[28.19327,-25.77346],[28.19328,-25.77366],[28.19328,-25.77385],[28.19329,-25.77405],[28.1933,-25.77425],[28.1933,-25.77443],[28.19331,-25.77461],[28.19332,-25.77478],[28.19332,-25.77496],[28.19333,-25.77513],[28.19334,-25.77531],[28.19334,-25.77549],[28.19335,-25.77566],[28.19336,-25.77585],[28.19336,-25.77603],[28.19336,-25.77622],[28.19337,-25.7764],[28.19336,-25.77653],[28.19336,-25.77666],[28.19335,-25.7768],[28.19334,-25.77694],[28.19332,-25.77709],[28.1933,-25.77722],[28.19329,-25.77736],[28.19326,-25.77752],[28.19322,-25.77771],[28.19318,-25.7779],[28.19314,-25.77806],[28.1931,-25.77823],[28.19306,-25.77839],[28.19302,-25.77856],[28.19299,-25.77872],[28.19295,-25.77889],[28.19291,-25.77905],[28.19287,-25.77922],[28.19283,-25.7794],[28.19278,-25.77958],[28.19274,-25.77976],[28.19272,-25.77987],[28.1927,-25.77998],[28.19268,-25.78009],[28.19266,-25.7802],[28.19263,-25.7804],[28.19261,-25.78052],[28.1926,-25.78063],[28.19259,-25.78081],[28.19258,-25.78094],[28.19257,-25.78108],[28.19257,-25.78124],[28.19257,-25.78135],[28.19257,-25.78146],[28.19258,-25.7816],[28.19259,-25.78174],[28.1926,-25.78188],[28.19262,-25.78205],[28.19264,-25.78218],[28.19265,-25.7823],[28.19267,-25.78241],[28.19269,-25.78252],[28.19274,-25.78271],[28.19277,-25.78284],[28.1928,-25.78296],[28.19286,-25.78316],[28.1929,-25.78329],[28.19294,-25.78342],[28.19296,-25.78345],[28.19302,-25.78363],[28.19309,-25.7838],[28.19315,-25.78396],[28.19322,-25.78413],[28.19329,-25.7843],[28.19335,-25.78445],[28.19341,-25.7846],[28.19347,-25.78475],[28.19354,-25.78493],[28.19362,-25.78511],[28.19369,-25.7853],[28.19377,-25.78548],[28.19382,-25.78561],[28.19387,-25.78574],[28.19393,-25.78587],[28.19399,-25.78603],[28.19405,-25.78618],[28.19412,-25.78634],[28.19418,-25.78649],[28.19426,-25.78669],[28.19434,-25.78688],[28.19442,-25.78707],[28.19449,-25.78727],[28.19457,-25.78746],[28.19465,-25.78766],[28.19473,-25.78785],[28.19481,-25.78804],[28.19488,-25.78823],[28.19496,-25.78842],[28.19503,-25.7886],[28.19511,-25.78879],[28.19518,-25.78897],[28.19526,-25.78916],[28.19532,-25.78931],[28.19538,-25.78947],[28.19542,-25.78958],[28.19546,-25.78969],[28.1955,-25.78982],[28.19555,-25.78996],[28.1956,-25.79015],[28.19563,-25.79027],[28.19566,-25.79039],[28.19568,-25.79049],[28.1957,-25.7906],[28.19572,-25.79072],[28.19575,-25.79084],[28.19576,-25.79098],[28.19578,-25.79111],[28.19579,-25.79129],[28.1958,-25.79141],[28.19581,-25.79153],[28.19581,-25.79169],[28.19581,-25.79184],[28.19581,-25.79196],[28.19581,-25.79208],[28.1958,-25.79224],[28.19579,-25.79236],[28.19578,-25.79248],[28.19576,-25.79264],[28.19574,-25.7928],[28.1957,-25.793],[28.19566,-25.7932],[28.19562,-25.7934],[28.19558,-25.7936],[28.19555,-25.7938],[28.19552,-25.79398],[28.1955,-25.79411],[28.19548,-25.79429],[28.19547,-25.79447],[28.19546,-25.79458],[28.19545,-25.79469],[28.19545,-25.79485],[28.19545,-25.79505],[28.19546,-25.79522],[28.19547,-25.79538],[28.19548,-25.79552],[28.1955,-25.79566],[28.19552,-25.7958],[28.19554,-25.79597],[28.19557,-25.79612],[28.1956,-25.79628],[28.19563,-25.79639],[28.19565,-25.79649],[28.19568,-25.79663],[28.19571,-25.79676],[28.19576,-25.79693],[28.1958,-25.79711],[28.19585,-25.79729],[28.19586,-25.79733],[28.1959,-25.7975],[28.19594,-25.79768],[28.19598,-25.79785],[28.19602,-25.79802],[28.19606,-25.79818],[28.1961,-25.79834],[28.19614,-25.7985],[28.19618,-25.79866],[28.19622,-25.79882],[28.19626,-25.79898],[28.1963,-25.79914],[28.19634,-25.79931],[28.19639,-25.79949],[28.19643,-25.79967],[28.19648,-25.79984],[28.19652,-25.80002],[28.19656,-25.80019],[28.1966,-25.80036],[28.19664,-25.80053],[28.19669,-25.8007],[28.19673,-25.80088],[28.19678,-25.80107],[28.19683,-25.80127],[28.19688,-25.80146],[28.19692,-25.80166],[28.19697,-25.80186],[28.19702,-25.80205],[28.19707,-25.80225],[28.19712,-25.80244],[28.19717,-25.80264],[28.19722,-25.80283],[28.19727,-25.80303],[28.1973,-25.80315],[28.19734,-25.80328],[28.1974,-25.80347],[28.19746,-25.80367],[28.19753,-25.80387],[28.19757,-25.80399],[28.19761,-25.80411],[28.19766,-25.80425],[28.19772,-25.8044],[28.19778,-25.80454],[28.19785,-25.80472],[28.19792,-25.80489],[28.198,-25.80505],[28.19807,-25.80521],[28.19814,-25.80534],[28.1982,-25.80547],[28.19826,-25.8056],[28.19836,-25.80578],[28.19845,-25.80596],[28.19855,-25.80614],[28.19864,-25.80632],[28.19874,-25.8065],[28.19883,-25.80669],[28.19892,-25.80687],[28.19902,-25.80705],[28.19911,-25.80723],[28.1992,-25.80742],[28.19926,-25.80753],[28.19932,-25.80765],[28.19939,-25.80778],[28.19946,-25.80792],[28.19952,-25.80806],[28.19959,-25.8082],[28.19967,-25.80837],[28.19975,-25.80855],[28.19982,-25.80873],[28.19989,-25.8089],[28.19996,-25.80908],[28.20003,-25.80926],[28.20008,-25.80939],[28.20012,-25.80953],[28.20017,-25.80967],[28.20022,-25.80981],[28.20026,-25.80997],[28.20031,-25.81012],[28.20035,-25.81028],[28.2004,-25.81043],[28.20045,-25.81062],[28.20049,-25.81081],[28.20054,-25.81099],[28.20058,-25.81118],[28.20063,-25.81137],[28.20068,-25.81156],[28.20072,-25.81174],[28.20077,-25.81192],[28.20082,-25.8121],[28.20086,-25.81228],[28.20091,-25.81246],[28.20095,-25.81264],[28.201,-25.81282],[28.20104,-25.813],[28.20108,-25.81316],[28.20113,-25.81332],[28.20118,-25.81351],[28.20123,-25.81371],[28.20128,-25.81391],[28.20133,-25.8141],[28.20138,-25.8143],[28.20143,-25.81449],[28.20148,-25.81468],[28.20152,-25.81482],[28.20156,-25.81496],[28.2016,-25.8151],[28.20165,-25.81526],[28.20171,-25.81542],[28.20177,-25.81561],[28.20184,-25.81579],[28.2019,-25.81595],[28.20195,-25.8161],[28.20201,-25.81626],[28.20207,-25.81642],[28.20213,-25.81659],[28.20219,-25.81675],[28.20226,-25.81692],[28.20232,-25.81709],[28.20238,-25.81726],[28.20244,-25.81743],[28.20251,-25.8176],[28.20256,-25.81775],[28.20262,-25.81789],[28.20268,-25.81806],[28.20274,-25.81823],[28.20281,-25.81842],[28.20288,-25.8186],[28.20294,-25.81876],[28.20299,-25.81892],[28.20305,-25.81908],[28.20311,-25.81923],[28.20316,-25.81937],[28.20322,-25.81951],[28.20327,-25.81965],[28.20332,-25.81978],[28.20338,-25.81991],[28.20344,-25.82006],[28.20349,-25.82017],[28.20355,-25.82029],[28.20363,-25.82047],[28.20372,-25.82064],[28.20381,-25.82082],[28.20389,-25.821],[28.20398,-25.82117],[28.20407,-25.82135],[28.20416,-25.82153],[28.20425,-25.82171],[28.20434,-25.8219],[28.20444,-25.82208],[28.20453,-25.82226],[28.20462,-25.82245],[28.20471,-25.82263],[28.2048,-25.82281],[28.20489,-25.823],[28.20498,-25.82318],[28.20508,-25.82336],[28.20517,-25.82354],[28.20526,-25.82373],[28.20535,-25.82391],[28.20544,-25.82409],[28.20553,-25.82428],[28.20563,-25.82446],[28.20572,-25.82464],[28.2058,-25.82481],[28.20589,-25.82498],[28.20597,-25.82515],[28.20606,-25.82532],[28.20615,-25.82549],[28.20623,-25.82565],[28.20631,-25.82582],[28.2064,-25.82599],[28.20648,-25.82615],[28.20657,-25.82632],[28.20665,-25.82649],[28.20673,-25.82666],[28.20682,-25.82682],[28.20691,-25.82701],[28.20699,-25.82717],[28.20707,-25.82733],[28.20716,-25.8275],[28.20724,-25.82766],[28.20732,-25.82783],[28.20741,-25.82799],[28.20749,-25.82816],[28.20752,-25.82823],[28.20762,-25.82842],[28.20771,-25.8286],[28.2078,-25.82879],[28.2079,-25.82897],[28.20798,-25.82914],[28.20806,-25.8293],[28.20812,-25.82942],[28.20818,-25.82954],[28.20827,-25.82971],[28.20835,-25.82988],[28.20844,-25.83005],[28.20851,-25.8302],[28.20859,-25.83034],[28.20866,-25.83049],[28.20873,-25.83063],[28.2088,-25.83077],[28.20887,-25.83092],[28.20894,-25.83106],[28.20901,-25.8312],[28.20909,-25.83134],[28.20916,-25.83148],[28.20923,-25.83163],[28.2093,-25.83177],[28.20938,-25.83192],[28.20945,-25.83207],[28.20953,-25.83222],[28.2096,-25.83237],[28.20969,-25.83255],[28.20978,-25.83273],[28.20987,-25.83291],[28.20996,-25.83309],[28.21006,-25.83327],[28.21015,-25.83346],[28.21024,-25.83365],[28.21031,-25.83378],[28.21038,-25.83392],[28.21045,-25.83405],[28.21053,-25.83421],[28.21061,-25.83437],[28.21068,-25.83452],[28.21076,-25.83468],[28.21084,-25.83484],[28.21092,-25.835],[28.211,-25.83515],[28.21107,-25.8353],[28.21115,-25.83545],[28.21122,-25.8356],[28.2113,-25.83575],[28.21138,-25.83591],[28.21146,-25.83606],[28.21153,-25.83622],[28.21161,-25.83638],[28.21169,-25.83654],[28.21177,-25.8367],[28.21184,-25.83684],[28.21191,-25.83698],[28.21198,-25.83712],[28.21207,-25.83729],[28.21215,-25.83746],[28.21222,-25.8376],[28.21229,-25.83773],[28.21236,-25.83787],[28.21245,-25.83805],[28.21254,-25.83823],[28.21263,-25.83841],[28.21269,-25.83853],[28.21277,-25.83869],[28.21285,-25.83885],[28.21293,-25.83902],[28.21302,-25.83918],[28.2131,-25.83934],[28.21318,-25.8395],[28.21326,-25.83965],[28.21334,-25.83982],[28.21343,-25.83998],[28.21351,-25.84015],[28.2136,-25.84031],[28.21366,-25.84041],[28.21372,-25.84051],[28.21379,-25.84063],[28.21387,-25.84075],[28.21397,-25.84089],[28.21406,-25.84103],[28.21416,-25.84115],[28.21425,-25.84128],[28.21434,-25.84138],[28.21442,-25.84148],[28.21452,-25.84159],[28.21461,-25.8417],[28.21475,-25.84185],[28.21485,-25.84195],[28.21495,-25.84205],[28.21507,-25.84216],[28.21518,-25.84227],[28.2153,-25.84238],[28.21545,-25.84252],[28.2156,-25.84266],[28.21575,-25.8428],[28.2159,-25.84294],[28.21605,-25.84307],[28.21619,-25.8432],[28.21633,-25.84333],[28.21646,-25.84346],[28.2166,-25.84359],[28.21675,-25.84372],[28.21689,-25.84386],[28.21704,-25.84399],[28.21718,-25.84412],[28.21732,-25.84425],[28.21746,-25.84439],[28.2176,-25.84452],[28.21774,-25.84465],[28.21789,-25.84478],[28.21803,-25.84491],[28.21817,-25.84504],[28.21831,-25.84517],[28.21844,-25.84529],[28.21858,-25.84542],[28.21871,-25.84555],[28.21884,-25.84567],[28.21897,-25.84579],[28.21909,-25.84591],[28.21919,-25.84602],[28.21929,-25.84613],[28.21943,-25.84629],[28.21957,-25.84645],[28.21969,-25.8466],[28.2198,-25.84674],[28.2199,-25.84687],[28.21996,-25.84696],[28.22003,-25.84706],[28.22012,-25.84719],[28.22021,-25.84733],[28.22029,-25.84745],[28.22037,-25.84758],[28.22044,-25.8477],[28.2205,-25.84782],[28.22057,-25.84795],[28.22064,-25.84808],[28.22071,-25.84821],[28.22077,-25.84834],[28.22084,-25.8485],[28.22091,-25.84867],[28.22096,-25.8488],[28.22101,-25.84893],[28.22109,-25.84911],[28.22116,-25.84929],[28.22123,-25.84948],[28.2213,-25.84966],[28.22137,-25.84984],[28.22144,-25.85002],[28.22151,-25.85021],[28.22158,-25.85039],[28.22166,-25.85057],[28.22173,-25.85076],[28.2218,-25.85094],[28.22187,-25.85112],[28.22194,-25.85131],[28.22202,-25.8515],[28.22209,-25.8517],[28.22217,-25.85189],[28.22225,-25.85208],[28.22232,-25.85228],[28.22238,-25.85242],[28.22243,-25.85256],[28.22248,-25.8527],[28.22255,-25.85289],[28.22258,-25.85301],[28.22262,-25.85313],[28.22265,-25.85324],[28.22268,-25.85335],[28.22272,-25.85351],[28.22275,-25.85363],[28.22278,-25.85374],[28.2228,-25.85386],[28.22282,-25.85397],[28.22284,-25.85408],[28.22286,-25.85419],[28.22287,-25.85429],[28.22289,-25.8544],[28.2229,-25.85451],[28.22292,-25.85463],[28.22293,-25.85474],[28.22294,-25.85485],[28.22295,-25.85506],[28.22296,-25.85526],[28.22295,-25.85544],[28.22295,-25.8556],[28.22295,-25.85575],[28.22294,-25.85593],[28.22293,-25.85607],[28.22293,-25.85622],[28.22292,-25.85636],[28.22292,-25.85647],[28.22291,-25.85657],[28.2229,-25.85674],[28.22289,-25.85691],[28.22288,-25.85708],[28.22288,-25.85724],[28.22287,-25.85741],[28.22286,-25.8576],[28.22285,-25.85778],[28.22284,-25.85797],[28.22283,-25.85813],[28.22283,-25.85829],[28.22282,-25.85846],[28.22281,-25.85862],[28.2228,-25.85877],[28.22279,-25.85893],[28.22279,-25.85909],[28.22278,-25.85929],[28.22277,-25.85948],[28.22276,-25.85968],[28.22275,-25.85987],[28.22274,-25.86004],[28.22273,-25.86022],[28.22272,-25.86039],[28.22271,-25.86056],[28.2227,-25.86075],[28.22269,-25.86093],[28.22268,-25.86112],[28.22268,-25.8613],[28.22267,-25.86147],[28.22266,-25.86164],[28.22265,-25.86178],[28.22264,-25.86192],[28.22263,-25.86205],[28.22262,-25.86224],[28.22261,-25.86243],[28.2226,-25.86263],[28.22259,-25.86281],[28.22259,-25.86299],[28.22258,-25.86318],[28.22257,-25.86336],[28.22256,-25.86356],[28.22255,-25.86376],[28.22254,-25.86396],[28.22253,-25.86417],[28.22253,-25.86431],[28.22253,-25.86446],[28.22254,-25.86466],[28.22254,-25.86482],[28.22255,-25.86499],[28.22257,-25.86516],[28.22259,-25.86533],[28.22261,-25.86549],[28.22264,-25.86566],[28.22267,-25.86585],[28.22271,-25.86604],[28.22274,-25.86623],[28.22278,-25.86642],[28.22281,-25.86662],[28.22285,-25.86681],[28.22286,-25.86688],[28.2229,-25.86705],[28.22293,-25.86721],[28.22296,-25.86739],[28.223,-25.86757],[28.22303,-25.86771],[28.22305,-25.86785],[28.22308,-25.868],[28.22311,-25.86814],[28.22313,-25.86828],[28.22316,-25.86842],[28.2232,-25.86862],[28.22324,-25.86882],[28.22328,-25.86903],[28.22331,-25.86922],[28.22335,-25.86941],[28.22339,-25.8696],[28.22342,-25.86979],[28.22346,-25.86998],[28.2235,-25.87017],[28.22353,-25.87036],[28.22357,-25.87055],[28.22361,-25.87075],[28.22364,-25.87094],[28.22368,-25.87113],[28.22372,-25.87132],[28.22375,-25.87151],[28.22379,-25.87171],[28.22383,-25.8719],[28.22386,-25.8721],[28.2239,-25.8723],[28.22394,-25.8725],[28.22398,-25.87271],[28.22402,-25.87291],[28.22406,-25.87311],[28.22408,-25.87326],[28.22411,-25.87341],[28.22414,-25.87356],[28.22417,-25.87372],[28.22419,-25.87388],[28.22422,-25.87404],[28.22424,-25.87419],[28.22426,-25.87439],[28.22429,-25.87459],[28.22431,-25.87478],[28.22434,-25.87498],[28.22436,-25.87518],[28.22439,-25.87538],[28.22441,-25.87556],[28.22443,-25.87574],[28.22444,-25.87589],[28.22445,-25.87604],[28.22446,-25.8762],[28.22446,-25.87636],[28.22446,-25.87651],[28.22446,-25.87666],[28.22445,-25.87684],[28.22444,-25.87702],[28.22443,-25.8772],[28.22443,-25.87725],[28.22442,-25.87743],[28.2244,-25.87761],[28.22439,-25.87778],[28.22438,-25.87796],[28.22436,-25.87813],[28.22435,-25.87829],[28.22433,-25.87846],[28.22431,-25.87862],[28.2243,-25.87877],[28.22428,-25.87893],[28.22427,-25.87908],[28.22425,-25.87925],[28.22423,-25.87942],[28.22421,-25.87959],[28.2242,-25.87976],[28.22418,-25.87993],[28.22416,-25.88013],[28.22414,-25.88034],[28.22412,-25.88054],[28.2241,-25.88069],[28.22409,-25.88084],[28.22407,-25.88099],[28.22406,-25.88116],[28.22404,-25.88133],[28.22402,-25.8815],[28.22401,-25.88163],[28.22399,-25.88177],[28.22398,-25.88191],[28.22396,-25.88206],[28.22395,-25.88222],[28.22393,-25.88237],[28.22392,-25.88254],[28.22391,-25.88265],[28.2239,-25.88278],[28.22389,-25.8829],[28.22388,-25.8831],[28.22388,-25.88324],[28.22388,-25.88335],[28.22388,-25.88346],[28.22389,-25.88361],[28.2239,-25.88376],[28.22391,-25.88391],[28.22393,-25.88406],[28.22394,-25.88422],[28.22395,-25.88437],[28.22397,-25.88453],[28.22398,-25.88469],[28.224,-25.88485],[28.22401,-25.88505],[28.22403,-25.88525],[28.22405,-25.88545],[28.22406,-25.88564],[28.22408,-25.88583],[28.2241,-25.88602],[28.22412,-25.88621],[28.22413,-25.8864],[28.22415,-25.8866],[28.22417,-25.8868],[28.22418,-25.887],[28.2242,-25.8872],[28.22422,-25.8874],[28.22423,-25.8876],[28.22425,-25.8878],[28.22426,-25.88787],[28.22428,-25.88806],[28.22429,-25.88825],[28.22431,-25.88845],[28.22433,-25.88864],[28.22434,-25.88883],[28.22436,-25.88903],[28.22438,-25.88922],[28.22439,-25.88937],[28.2244,-25.88953],[28.22442,-25.8897],[28.22444,-25.88988],[28.22445,-25.89002],[28.22446,-25.89016],[28.22448,-25.8903],[28.2245,-25.8905],[28.22452,-25.8907],[28.22454,-25.8909],[28.22456,-25.89108],[28.22457,-25.89125],[28.22459,-25.89143],[28.2246,-25.89158],[28.22462,-25.89174],[28.22463,-25.89189],[28.22465,-25.89205],[28.22466,-25.8922],[28.22468,-25.89236],[28.2247,-25.89252],[28.22471,-25.89268],[28.22473,-25.89285],[28.22475,-25.89301],[28.22476,-25.89318],[28.22478,-25.89338],[28.2248,-25.89359],[28.22482,-25.89379],[28.22484,-25.89399],[28.22486,-25.89419],[28.22487,-25.89439],[28.22489,-25.89455],[28.2249,-25.89471],[28.22492,-25.89486],[28.22493,-25.89502],[28.22495,-25.89521],[28.22497,-25.89539],[28.22498,-25.89558],[28.225,-25.89577],[28.22502,-25.89592],[28.22503,-25.89608],[28.22505,-25.89623],[28.22506,-25.8964],[28.22508,-25.89657],[28.22509,-25.89675],[28.22511,-25.89692],[28.22513,-25.89709],[28.22514,-25.89727],[28.22516,-25.89744],[28.22517,-25.89762],[28.22519,-25.89779],[28.2252,-25.89794],[28.22522,-25.89809],[28.22523,-25.89825],[28.22525,-25.89844],[28.22527,-25.89862],[28.22529,-25.89881],[28.2253,-25.89901],[28.22532,-25.8992],[28.22533,-25.89934],[28.22535,-25.89949],[28.22536,-25.89961],[28.22537,-25.89974],[28.22539,-25.89988],[28.2254,-25.90001],[28.22542,-25.90016],[28.22543,-25.90029],[28.22545,-25.90042],[28.22548,-25.90058],[28.2255,-25.90074],[28.22553,-25.90086],[28.22555,-25.90099],[28.22557,-25.9011],[28.2256,-25.90122],[28.22563,-25.90135],[28.22566,-25.90149],[28.2257,-25.90166],[28.22575,-25.90183],[28.22579,-25.902],[28.22584,-25.90218],[28.22588,-25.90235],[28.22593,-25.90255],[28.22598,-25.90274],[28.22603,-25.90294],[28.22608,-25.90314],[28.22614,-25.90334],[28.22619,-25.90354],[28.22624,-25.90374],[28.22629,-25.90393],[28.22634,-25.90413],[28.2264,-25.90433],[28.22645,-25.90453],[28.2265,-25.90471],[28.22655,-25.9049],[28.2266,-25.90509],[28.22664,-25.90527],[28.22669,-25.90546],[28.22674,-25.90565],[28.22679,-25.90583],[28.22684,-25.90602],[28.22688,-25.90621],[28.22693,-25.90639],[28.22698,-25.90657],[28.22703,-25.90675],[28.22707,-25.90694],[28.22712,-25.90712],[28.22717,-25.9073],[28.22721,-25.90748],[28.22726,-25.90767],[28.22731,-25.90785],[28.22736,-25.90803],[28.2274,-25.90821],[28.22745,-25.90839],[28.2275,-25.90857],[28.22755,-25.90875],[28.22759,-25.90894],[28.22764,-25.90912],[28.22769,-25.9093],[28.22774,-25.90948],[28.22778,-25.90966],[28.22783,-25.90985],[28.22788,-25.91003],[28.22792,-25.91021],[28.22797,-25.91039],[28.22802,-25.91058],[28.22806,-25.91076],[28.22811,-25.91094],[28.22816,-25.91113],[28.22821,-25.91131],[28.22826,-25.91149],[28.22831,-25.91168],[28.22835,-25.91187],[28.2284,-25.91206],[28.22845,-25.91225],[28.2285,-25.91244],[28.22855,-25.91263],[28.2286,-25.91282],[28.22865,-25.91301],[28.2287,-25.9132],[28.22874,-25.91336],[28.22878,-25.91352],[28.22883,-25.91369],[28.22887,-25.91385],[28.22891,-25.91402],[28.22895,-25.91419],[28.229,-25.91435],[28.22905,-25.91455],[28.2291,-25.91474],[28.22915,-25.91494],[28.2292,-25.91513],[28.22925,-25.91533],[28.22931,-25.91553],[28.22936,-25.91572],[28.22941,-25.91592],[28.22946,-25.91612],[28.22951,-25.91631],[28.22956,-25.91651],[28.22961,-25.9167],[28.22966,-25.9169],[28.22971,-25.9171],[28.22976,-25.91729],[28.22981,-25.91749],[28.22987,-25.91769],[28.22992,-25.91788],[28.22997,-25.91808],[28.23002,-25.91828],[28.23007,-25.91847],[28.23012,-25.91867],[28.23017,-25.91887],[28.23022,-25.91906],[28.23027,-25.91926],[28.23032,-25.91945],[28.23037,-25.91965],[28.23043,-25.91985],[28.23047,-25.92004],[28.23052,-25.92023],[28.23057,-25.92042],[28.23062,-25.92061],[28.23067,-25.9208],[28.23071,-25.921],[28.23076,-25.92119],[28.23081,-25.92138],[28.23086,-25.92157],[28.23092,-25.92176],[28.23097,-25.92195],[28.23102,-25.92214],[28.23107,-25.92233],[28.23112,-25.92252],[28.23117,-25.92271],[28.23121,-25.9229],[28.23126,-25.92309],[28.23131,-25.92329],[28.23136,-25.92348],[28.23141,-25.92366],[28.23146,-25.92383],[28.2315,-25.92401],[28.23155,-25.92419],[28.23159,-25.92437],[28.23164,-25.92454],[28.23169,-25.92473],[28.23173,-25.92491],[28.23177,-25.92507],[28.23182,-25.92523],[28.23186,-25.92539],[28.2319,-25.92554],[28.23194,-25.92569],[28.23197,-25.92584],[28.23201,-25.92597],[28.23204,-25.92611],[28.23208,-25.92624],[28.23213,-25.92643],[28.23218,-25.92662],[28.23223,-25.92681],[28.23227,-25.927],[28.23232,-25.92718],[28.23237,-25.92737],[28.23242,-25.92755],[28.23247,-25.92774],[28.23251,-25.92792],[28.23256,-25.92811],[28.23261,-25.9283],[28.23266,-25.92848],[28.23271,-25.92867],[28.23275,-25.92885],[28.2328,-25.92903],[28.23285,-25.92922],[28.2329,-25.9294],[28.23295,-25.92959],[28.233,-25.92977],[28.23304,-25.92995],[28.23309,-25.93014],[28.23314,-25.93031],[28.23318,-25.93048],[28.23323,-25.93066],[28.23327,-25.93083],[28.23332,-25.93101],[28.23336,-25.93117],[28.2334,-25.93132],[28.23344,-25.93148],[28.23348,-25.93167],[28.23352,-25.93186],[28.23355,-25.93202],[28.23358,-25.93218],[28.2336,-25.93232],[28.23363,-25.93246],[28.23365,-25.9326],[28.23367,-25.93273],[28.23369,-25.93291],[28.23371,-25.93309],[28.23373,-25.93325],[28.23375,-25.93341],[28.23376,-25.93358],[28.23377,-25.93374],[28.23378,-25.93389],[28.23379,-25.93404],[28.23379,-25.93422],[28.2338,-25.9344],[28.2338,-25.93455],[28.2338,-25.93471],[28.2338,-25.93488],[28.2338,-25.93506],[28.2338,-25.93523],[28.2338,-25.93543],[28.2338,-25.93563],[28.2338,-25.93584],[28.2338,-25.93604],[28.2338,-25.93624],[28.2338,-25.93644],[28.2338,-25.93664],[28.2338,-25.93684],[28.2338,-25.93704],[28.2338,-25.93725],[28.2338,-25.93745],[28.2338,-25.93765],[28.2338,-25.93785],[28.2338,-25.93805],[28.2338,-25.93825],[28.2338,-25.93846],[28.2338,-25.93866],[28.2338,-25.93886],[28.2338,-25.93906],[28.2338,-25.93926],[28.23379,-25.93946],[28.23379,-25.93966],[28.23379,-25.93986],[28.23379,-25.94006],[28.23379,-25.94026],[28.23379,-25.94047],[28.23379,-25.94067],[28.23379,-25.94087],[28.23379,-25.94107],[28.23379,-25.94127],[28.23379,-25.94137],[28.23379,-25.94157],[28.23379,-25.94177],[28.23379,-25.94198],[28.23379,-25.94218],[28.23379,-25.94238],[28.23379,-25.94257],[28.23379,-25.94277],[28.23378,-25.94297],[28.23378,-25.94317],[28.23378,-25.94337],[28.23378,-25.94357],[28.23378,-25.94377],[28.23378,-25.94397],[28.23378,-25.94417],[28.23378,-25.94437],[28.23378,-25.94457],[28.23378,-25.94477],[28.23378,-25.94497],[28.23378,-25.94517],[28.23378,-25.94537],[28.23378,-25.94556],[28.23378,-25.94577],[28.23378,-25.94597],[28.23378,-25.94615],[28.23378,-25.94632],[28.23378,-25.9465],[28.23378,-25.94666],[28.23378,-25.94682],[28.23377,-25.94699],[28.23377,-25.94716],[28.23377,-25.94733],[28.23377,-25.94751],[28.23377,-25.9477],[28.23377,-25.94788],[28.23377,-25.94807],[28.23377,-25.94825],[28.23376,-25.9484],[28.23376,-25.94855],[28.23375,-25.9487],[28.23374,-25.94885],[28.23373,-25.94899],[28.23372,-25.94912],[28.23371,-25.94925],[28.23369,-25.94936],[28.23368,-25.94947],[28.23366,-25.94966],[28.23364,-25.94977],[28.23363,-25.94988],[28.2336,-25.95008],[28.23357,-25.95027],[28.23353,-25.95043],[28.2335,-25.9506],[28.23348,-25.95071],[28.23346,-25.95082],[28.23342,-25.95098],[28.23339,-25.95115],[28.23336,-25.95132],[28.23332,-25.95148],[28.23329,-25.95165],[28.23326,-25.95181],[28.23322,-25.95197],[28.23319,-25.95213],[28.23316,-25.95228],[28.23312,-25.95246],[28.23308,-25.95265],[28.23304,-25.95283],[28.23301,-25.95301],[28.23297,-25.9532],[28.23293,-25.95338],[28.2329,-25.95357],[28.23286,-25.95374],[28.23283,-25.95392],[28.23279,-25.95409],[28.23275,-25.95427],[28.23272,-25.95442],[28.23269,-25.95457],[28.23266,-25.95472],[28.23262,-25.95489],[28.23259,-25.95505],[28.23256,-25.95521],[28.23253,-25.95538],[28.23249,-25.95555],[28.23245,-25.95573],[28.23242,-25.95591],[28.23238,-25.95609],[28.23234,-25.95628],[28.2323,-25.95647],[28.23227,-25.95664],[28.23223,-25.95682],[28.23219,-25.957],[28.23216,-25.95717],[28.23213,-25.95733],[28.23209,-25.95748],[28.23206,-25.95764],[28.23203,-25.95779],[28.232,-25.95795],[28.23197,-25.9581],[28.23194,-25.95825],[28.23192,-25.95837],[28.2319,-25.95848],[28.23188,-25.95862],[28.23187,-25.95875],[28.23186,-25.95889],[28.23186,-25.95899],[28.23185,-25.95909],[28.23186,-25.9592],[28.23186,-25.95932],[28.23187,-25.95947],[28.23189,-25.95958],[28.2319,-25.95969],[28.23194,-25.95989],[28.23196,-25.95999],[28.23198,-25.9601],[28.23203,-25.96026],[28.23207,-25.96041],[28.23212,-25.96054],[28.23216,-25.96066],[28.23223,-25.96083],[28.23231,-25.96102],[28.23239,-25.96117],[28.23246,-25.96131],[28.23254,-25.96145],[28.23265,-25.96161],[28.23274,-25.96175],[28.23281,-25.96184],[28.23288,-25.96192],[28.23297,-25.96202],[28.23305,-25.96211],[28.2332,-25.96226],[28.23332,-25.96235],[28.23343,-25.96245],[28.23352,-25.96253],[28.23362,-25.9626],[28.23373,-25.96269],[28.23384,-25.96278],[28.23393,-25.96285],[28.23402,-25.96292],[28.23413,-25.96301],[28.23425,-25.96309],[28.23439,-25.96319],[28.23453,-25.9633],[28.23467,-25.9634],[28.23482,-25.96351],[28.23497,-25.96362],[28.23512,-25.96372],[28.23527,-25.96383],[28.23542,-25.96394],[28.23559,-25.96406],[28.23575,-25.96418],[28.23592,-25.9643],[28.23608,-25.96442],[28.23623,-25.96452],[28.23637,-25.96463],[28.23652,-25.96474],[28.23666,-25.96484],[28.23681,-25.96495],[28.23696,-25.96506],[28.23711,-25.96516],[28.23727,-25.96527],[28.23744,-25.9654],[28.23761,-25.96552],[28.23778,-25.96565],[28.23794,-25.96576],[28.2381,-25.96588],[28.23822,-25.96597],[28.23833,-25.96605],[28.23842,-25.96612],[28.23851,-25.96619],[28.23861,-25.96629],[28.23876,-25.96642],[28.2389,-25.96658],[28.23904,-25.96673],[28.23916,-25.96688],[28.23927,-25.96703],[28.23933,-25.96712],[28.23939,-25.96721],[28.23946,-25.96732],[28.23953,-25.96743],[28.23959,-25.96754],[28.23966,-25.96765],[28.23974,-25.96779],[28.23982,-25.96792],[28.23988,-25.96805],[28.23996,-25.96822],[28.24004,-25.96838],[28.24012,-25.96854],[28.2402,-25.9687],[28.24029,-25.96889],[28.24038,-25.96907],[28.24045,-25.9692],[28.24051,-25.96933],[28.24057,-25.96946],[28.24066,-25.96963],[28.24075,-25.96981],[28.24083,-25.96998],[28.24092,-25.97017],[28.24102,-25.97035],[28.24111,-25.97054],[28.24119,-25.97072],[28.24128,-25.97089],[28.24137,-25.97107],[28.24145,-25.97124],[28.24154,-25.97142],[28.24163,-25.97159],[28.24171,-25.97176],[28.24179,-25.97193],[28.24187,-25.9721],[28.24195,-25.97227],[28.24204,-25.97243],[28.24212,-25.9726],[28.24221,-25.97278],[28.2423,-25.97296],[28.24239,-25.97313],[28.24247,-25.9733],[28.24256,-25.97348],[28.24264,-25.97365],[28.24271,-25.97379],[28.24278,-25.97394],[28.24285,-25.97408],[28.24293,-25.97422],[28.243,-25.97441],[28.24305,-25.97452],[28.24309,-25.97464],[28.24317,-25.97482],[28.24323,-25.97498],[28.24329,-25.97514],[28.24336,-25.97531],[28.24342,-25.97549],[28.24348,-25.97567],[28.24354,-25.97584],[28.24358,-25.97598],[28.24363,-25.97612],[28.24367,-25.97626],[28.24371,-25.97644],[28.24376,-25.97661],[28.2438,-25.97679],[28.24385,-25.97696],[28.24389,-25.97715],[28.24393,-25.97733],[28.24396,-25.97751],[28.244,-25.97769],[28.24404,-25.97788],[28.24408,-25.97806],[28.24412,-25.97824],[28.24416,-25.97843],[28.2442,-25.97862],[28.24424,-25.97881],[28.24428,-25.979],[28.24432,-25.97919],[28.24436,-25.97938],[28.2444,-25.97957],[28.24443,-25.97976],[28.24447,-25.97994],[28.24451,-25.98013],[28.24455,-25.98032],[28.24459,-25.98051],[28.24463,-25.98068],[28.24467,-25.98086],[28.2447,-25.98104],[28.24474,-25.98122],[28.24478,-25.98142],[28.24482,-25.98162],[28.24486,-25.98182],[28.2449,-25.98197],[28.24493,-25.98213],[28.24496,-25.98229],[28.24499,-25.98243],[28.24502,-25.98257],[28.24505,-25.9827],[28.24507,-25.98282],[28.24511,-25.98299],[28.24515,-25.98317],[28.24518,-25.98334],[28.24522,-25.98351],[28.24526,-25.98368],[28.24529,-25.98386],[28.24533,-25.98405],[28.24537,-25.98425],[28.24541,-25.98444],[28.24545,-25.98464],[28.24549,-25.98483],[28.24553,-25.98503],[28.24556,-25.98515],[28.24559,-25.98527],[28.24562,-25.98542],[28.24565,-25.98557],[28.24568,-25.98572],[28.24572,-25.98592],[28.24576,-25.98612],[28.24581,-25.98632],[28.24585,-25.98652],[28.24589,-25.98673],[28.24593,-25.98693],[28.24597,-25.98713],[28.24602,-25.98733],[28.24606,-25.98753],[28.2461,-25.98774],[28.24614,-25.98794],[28.24618,-25.98814],[28.24623,-25.98834],[28.24627,-25.98854],[28.24631,-25.98874],[28.24635,-25.98893],[28.24639,-25.98911],[28.24642,-25.98929],[28.24646,-25.98947],[28.2465,-25.98965],[28.24653,-25.98981],[28.24657,-25.98998],[28.2466,-25.99015],[28.24664,-25.99033],[28.24668,-25.99052],[28.24672,-25.99071],[28.24676,-25.99089],[28.2468,-25.9911],[28.24684,-25.9913],[28.24688,-25.9915],[28.24692,-25.99169],[28.24696,-25.99187],[28.247,-25.99206],[28.24704,-25.99224],[28.24708,-25.99242],[28.24711,-25.99261],[28.24715,-25.9928],[28.24719,-25.99299],[28.24723,-25.99317],[28.24727,-25.99334],[28.2473,-25.9935],[28.24733,-25.99367],[28.24737,-25.99387],[28.24741,-25.99407],[28.24744,-25.99427],[28.24748,-25.99447],[28.24752,-25.99467],[28.24756,-25.99487],[28.24759,-25.99507],[28.24763,-25.99527],[28.24767,-25.99547],[28.2477,-25.99567],[28.24774,-25.99586],[28.24777,-25.99606],[28.24781,-25.99625],[28.24784,-25.99641],[28.24788,-25.99658],[28.24791,-25.99674],[28.24795,-25.99691],[28.24798,-25.99707],[28.24802,-25.99726],[28.24806,-25.99745],[28.24809,-25.99764],[28.24813,-25.99783],[28.24817,-25.99801],[28.24821,-25.99819],[28.24825,-25.99837],[28.24828,-25.99855],[28.24832,-25.99875],[28.24835,-25.99895],[28.24838,-25.99915],[28.24841,-25.99933],[28.24843,-25.9995],[28.24846,-25.99967],[28.24848,-25.99985],[28.2485,-26.00002],[28.24852,-26.0002],[28.24854,-26.00038],[28.24857,-26.00055],[28.24859,-26.00074],[28.24861,-26.00093],[28.24862,-26.00111],[28.24863,-26.0013],[28.24864,-26.00148],[28.24865,-26.00166],[28.24866,-26.00184],[28.24867,-26.00202],[28.24868,-26.00221],[28.24868,-26.0024],[28.24868,-26.00259],[28.24869,-26.00278],[28.24869,-26.00295],[28.24869,-26.00312],[28.24868,-26.00324],[28.24867,-26.00336],[28.24866,-26.00349],[28.24864,-26.00368],[28.24862,-26.00387],[28.2486,-26.00403],[28.24858,-26.00418],[28.24857,-26.0043],[28.24857,-26.00441],[28.24857,-26.00451],[28.24857,-26.00467],[28.24857,-26.00483],[28.24858,-26.00498],[28.24858,-26.00514],[28.24858,-26.0053],[28.24858,-26.00547],[28.24858,-26.00563],[28.24858,-26.00579],[28.24859,-26.00596],[28.24859,-26.00613],[28.24859,-26.00629],[28.2486,-26.00646],[28.2486,-26.00666],[28.2486,-26.00686],[28.2486,-26.00706],[28.2486,-26.00725],[28.2486,-26.00745],[28.2486,-26.00763],[28.2486,-26.00781],[28.24861,-26.00799],[28.24861,-26.00816],[28.24861,-26.00835],[28.24861,-26.00853],[28.24862,-26.00871],[28.24862,-26.0089],[28.24863,-26.00905],[28.24864,-26.00921],[28.24864,-26.00937],[28.24865,-26.00955],[28.24867,-26.00974],[28.24868,-26.00988],[28.24869,-26.01003],[28.24871,-26.01017],[28.24873,-26.01036],[28.24875,-26.01056],[28.24877,-26.01075],[28.24879,-26.01095],[28.24882,-26.01112],[28.24884,-26.01129],[28.24887,-26.01147],[28.24889,-26.01164],[28.24892,-26.01179],[28.24895,-26.01195],[28.24898,-26.0121],[28.24901,-26.01226],[28.24905,-26.01242],[28.24909,-26.01258],[28.24912,-26.01274],[28.24916,-26.0129],[28.2492,-26.01304],[28.24924,-26.01318],[28.24928,-26.01332],[28.24933,-26.01348],[28.24938,-26.01365],[28.24944,-26.01383],[28.2495,-26.014],[28.24956,-26.01417],[28.24962,-26.01433],[28.24968,-26.01449],[28.24974,-26.01465],[28.2498,-26.01479],[28.24985,-26.01493],[28.24991,-26.01506],[28.24998,-26.01522],[28.25005,-26.01537],[28.25012,-26.01552],[28.25019,-26.01565],[28.25025,-26.01578],[28.25032,-26.01591],[28.2504,-26.01607],[28.25049,-26.01623],[28.25057,-26.01639],[28.25065,-26.01653],[28.25074,-26.01668],[28.25082,-26.01682],[28.2509,-26.01696],[28.25101,-26.01713],[28.25111,-26.0173],[28.25121,-26.01747],[28.25131,-26.01763],[28.25141,-26.0178],[28.25151,-26.01797],[28.25162,-26.01814],[28.25172,-26.01832],[28.25183,-26.01849],[28.25193,-26.01867],[28.25204,-26.01884],[28.25214,-26.01902],[28.25225,-26.01919],[28.25234,-26.01934],[28.25242,-26.01948],[28.25251,-26.01963],[28.2526,-26.01978],[28.25269,-26.01992],[28.25279,-26.0201],[28.2529,-26.02027],[28.25301,-26.02045],[28.25311,-26.02063],[28.2532,-26.02078],[28.25329,-26.02093],[28.25338,-26.02108],[28.25348,-26.02124],[28.25356,-26.02138],[28.25364,-26.02152],[28.25372,-26.02166],[28.2538,-26.0218],[28.25389,-26.02198],[28.25398,-26.02216],[28.25404,-26.02228],[28.2541,-26.0224],[28.25417,-26.02256],[28.25424,-26.02271],[28.25432,-26.0229],[28.2544,-26.02309],[28.25446,-26.02322],[28.25451,-26.02336],[28.25458,-26.02354],[28.25465,-26.02373],[28.25471,-26.02392],[28.25478,-26.0241],[28.25483,-26.02428],[28.25489,-26.02445],[28.25492,-26.02458],[28.25496,-26.02471],[28.255,-26.02484],[28.25503,-26.02498],[28.25508,-26.02517],[28.25512,-26.02536],[28.25516,-26.02552],[28.25519,-26.02568],[28.25522,-26.02582],[28.25524,-26.02595],[28.25527,-26.0261],[28.2553,-26.02625],[28.25532,-26.02642],[28.25534,-26.02659],[28.25535,-26.02674],[28.25537,-26.0269],[28.25538,-26.02706],[28.2554,-26.02722],[28.25541,-26.02739],[28.25542,-26.02756],[28.25544,-26.02774],[28.25545,-26.02791],[28.25546,-26.02811],[28.25547,-26.02832],[28.25547,-26.02848],[28.25547,-26.02864],[28.25547,-26.02882],[28.25546,-26.029],[28.25546,-26.02912],[28.25545,-26.02924],[28.25544,-26.0294],[28.25543,-26.02956],[28.25541,-26.02975],[28.2554,-26.02994],[28.25537,-26.03014],[28.25535,-26.03033],[28.25533,-26.03053],[28.25531,-26.03065],[28.25529,-26.03078],[28.25527,-26.03095],[28.25524,-26.0311],[28.25522,-26.03124],[28.2552,-26.03139],[28.25519,-26.03147],[28.25517,-26.03161],[28.25514,-26.03175],[28.25512,-26.03189],[28.25511,-26.03203],[28.25509,-26.03217],[28.25507,-26.03231],[28.25505,-26.03245],[28.25502,-26.03259],[28.25501,-26.03272],[28.25499,-26.03285],[28.25497,-26.03297],[28.25494,-26.03309],[28.2549,-26.03329],[28.25486,-26.03345],[28.25483,-26.03361],[28.25479,-26.03378],[28.25475,-26.03395],[28.25472,-26.03411],[28.2547,-26.03423],[28.25467,-26.03435],[28.25464,-26.03454],[28.25461,-26.03472],[28.25459,-26.03491],[28.25456,-26.03509],[28.25453,-26.03528],[28.2545,-26.03546],[28.25447,-26.03565],[28.25444,-26.03583],[28.25441,-26.03602],[28.25438,-26.03619],[28.25436,-26.03636],[28.25434,-26.03653],[28.25432,-26.03669],[28.25429,-26.03686],[28.25428,-26.03698],[28.25426,-26.03711],[28.25424,-26.03729],[28.25422,-26.03747],[28.2542,-26.03765],[28.25419,-26.03782],[28.25418,-26.038],[28.25416,-26.03818],[28.25415,-26.03835],[28.25414,-26.03851],[28.25412,-26.03866],[28.2541,-26.03883],[28.25408,-26.039],[28.25406,-26.03916],[28.25403,-26.03932],[28.25401,-26.03949],[28.25398,-26.03965],[28.25396,-26.03984],[28.25393,-26.03999],[28.25391,-26.04015],[28.25389,-26.0403],[28.25386,-26.04049],[28.25383,-26.04068],[28.25381,-26.04087],[28.25378,-26.04105],[28.25375,-26.04123],[28.25373,-26.0414],[28.2537,-26.04157],[28.25368,-26.04174],[28.25365,-26.0419],[28.25362,-26.04207],[28.2536,-26.04228],[28.25357,-26.04248],[28.25354,-26.04268],[28.25352,-26.04284],[28.25349,-26.04301],[28.25347,-26.04315],[28.25345,-26.04329],[28.25343,-26.04343],[28.25341,-26.04361],[28.25338,-26.04379],[28.25335,-26.04397],[28.25333,-26.04415],[28.2533,-26.04434],[28.25327,-26.04452],[28.25324,-26.04467],[28.25321,-26.04482],[28.25318,-26.04497],[28.25314,-26.04515],[28.25309,-26.04533],[28.25304,-26.04551],[28.25299,-26.0457],[28.25292,-26.04589],[28.25285,-26.04609],[28.25278,-26.04626],[28.2527,-26.04643],[28.25264,-26.04657],[28.25257,-26.04671],[28.25251,-26.04684],[28.25243,-26.04699],[28.25235,-26.04714],[28.25227,-26.04726],[28.2522,-26.04738],[28.25211,-26.04752],[28.25202,-26.04766],[28.25193,-26.04779],[28.25183,-26.04792],[28.2517,-26.04808],[28.25157,-26.04825],[28.25144,-26.04839],[28.25132,-26.04854],[28.25119,-26.04868],[28.25107,-26.04882],[28.25094,-26.04896],[28.25082,-26.0491],[28.25069,-26.04924],[28.25057,-26.04938],[28.25044,-26.04952],[28.25032,-26.04966],[28.25018,-26.04981],[28.25004,-26.04996],[28.2499,-26.05011],[28.24977,-26.05027],[28.24963,-26.05042],[28.24949,-26.05058],[28.24936,-26.05073],[28.24922,-26.05089],[28.24908,-26.05105],[28.24895,-26.0512],[28.24881,-26.05136],[28.24867,-26.05151],[28.24853,-26.05166],[28.24839,-26.05181],[28.24826,-26.05196],[28.24812,-26.05211],[28.24799,-26.05226],[28.24786,-26.05241],[28.24772,-26.05256],[28.24759,-26.05271],[28.24745,-26.05286],[28.24731,-26.05302],[28.24717,-26.05317],[28.24703,-26.05333],[28.24689,-26.05348],[28.24676,-26.05364],[28.24663,-26.05378],[28.24651,-26.05392],[28.24639,-26.05405],[28.24626,-26.05419],[28.24614,-26.05433],[28.24602,-26.05447],[28.2459,-26.05461],[28.24579,-26.05472],[28.24569,-26.05483],[28.24559,-26.05495],[28.24545,-26.0551],[28.24531,-26.05526],[28.24516,-26.05542],[28.24505,-26.05554],[28.24494,-26.05567],[28.24482,-26.0558],[28.24471,-26.05592],[28.24459,-26.05606],[28.24446,-26.0562],[28.24434,-26.05633],[28.24421,-26.05647],[28.24409,-26.05661],[28.24397,-26.05674],[28.24385,-26.05688],[28.24373,-26.05701],[28.24359,-26.05717],[28.24345,-26.05732],[28.24331,-26.05748],[28.24317,-26.05763],[28.24305,-26.05777],[28.24293,-26.0579],[28.24281,-26.05804],[28.24269,-26.05817],[28.24255,-26.05832],[28.24242,-26.05847],[28.24228,-26.05862],[28.24215,-26.05878],[28.24203,-26.05891],[28.24191,-26.05904],[28.24179,-26.05917],[28.24168,-26.0593],[28.24156,-26.05942],[28.24145,-26.05955],[28.24133,-26.05967],[28.24122,-26.0598],[28.2411,-26.05993],[28.24098,-26.06007],[28.24086,-26.0602],[28.24074,-26.06034],[28.24062,-26.06047],[28.24051,-26.0606],[28.24039,-26.06073],[28.24027,-26.06086],[28.24013,-26.06102],[28.23999,-26.06118],[28.23984,-26.06134],[28.23971,-26.06148],[28.23958,-26.06163],[28.23944,-26.06178],[28.23933,-26.06191],[28.23922,-26.06203],[28.2391,-26.06216],[28.239,-26.06227],[28.2389,-26.06239],[28.23879,-26.06251],[28.23866,-26.06265],[28.23852,-26.0628],[28.23839,-26.06295],[28.23826,-26.0631],[28.23812,-26.06325],[28.23799,-26.06339],[28.23785,-26.06354],[28.23772,-26.06369],[28.23759,-26.06384],[28.23745,-26.06399],[28.23732,-26.06414],[28.23718,-26.06429],[28.23705,-26.06444],[28.23691,-26.06459],[28.23678,-26.06474],[28.23664,-26.06489],[28.23651,-26.06503],[28.23637,-26.06518],[28.23628,-26.06528],[28.23619,-26.06537],[28.23607,-26.0655],[28.23595,-26.06562],[28.23583,-26.06574],[28.23571,-26.06586],[28.23559,-26.06598],[28.23547,-26.06611],[28.23535,-26.06624],[28.23523,-26.06637],[28.23511,-26.0665],[28.23499,-26.06663],[28.23486,-26.06678],[28.23473,-26.06692],[28.23459,-26.06707],[28.23446,-26.06721],[28.23436,-26.06734],[28.23425,-26.06746],[28.23414,-26.06758],[28.23403,-26.0677],[28.23391,-26.06785],[28.23378,-26.068],[28.23365,-26.06816],[28.23356,-26.06827],[28.23347,-26.06838],[28.23338,-26.0685],[28.23328,-26.06862],[28.23318,-26.06873],[28.23308,-26.06885],[28.233,-26.06894],[28.23293,-26.06902],[28.23281,-26.06916],[28.23269,-26.06929],[28.23257,-26.06943],[28.23244,-26.06957],[28.23231,-26.06971],[28.23218,-26.06985],[28.23205,-26.06999],[28.23193,-26.07013],[28.2318,-26.07027],[28.23168,-26.07041],[28.23155,-26.07055],[28.23143,-26.07069],[28.2313,-26.07083],[28.23118,-26.07097],[28.23106,-26.0711],[28.23093,-26.07124],[28.23083,-26.07136],[28.23073,-26.07148],[28.23063,-26.07159],[28.2305,-26.07176],[28.23037,-26.07192],[28.23028,-26.07205],[28.23018,-26.07217],[28.23008,-26.07231],[28.22998,-26.07245],[28.22988,-26.07259],[28.22979,-26.07273],[28.2297,-26.07287],[28.2296,-26.07301],[28.22951,-26.07316],[28.22941,-26.07332],[28.22931,-26.07349],[28.22921,-26.07366],[28.22911,-26.07384],[28.22903,-26.07398],[28.22895,-26.07413],[28.22886,-26.07428],[28.22878,-26.07442],[28.22869,-26.07459],[28.22859,-26.07476],[28.2285,-26.07493],[28.22841,-26.07508],[28.22832,-26.07524],[28.22824,-26.0754],[28.22815,-26.07555],[28.22806,-26.0757],[28.22798,-26.07585],[28.22788,-26.07603],[28.22778,-26.0762],[28.22768,-26.07638],[28.22758,-26.07655],[28.22751,-26.0767],[28.22743,-26.07684],[28.22735,-26.07698],[28.22727,-26.07712],[28.22717,-26.0773],[28.22707,-26.07748],[28.22696,-26.07766],[28.22688,-26.07779],[28.2268,-26.07793],[28.22672,-26.07807],[28.22664,-26.07821],[28.22656,-26.07834],[28.22647,-26.07847],[28.22639,-26.0786],[28.22632,-26.07871],[28.22625,-26.07881],[28.22616,-26.07893],[28.22608,-26.07905],[28.22599,-26.07918],[28.22588,-26.07932],[28.22578,-26.07946],[28.22567,-26.0796],[28.22555,-26.07975],[28.22543,-26.0799],[28.2253,-26.08005],[28.22518,-26.0802],[28.22506,-26.08035],[28.22494,-26.0805],[28.22482,-26.08065],[28.22469,-26.0808],[28.22457,-26.08095],[28.22445,-26.0811],[28.22432,-26.08124],[28.2242,-26.08139],[28.22408,-26.08154],[28.22397,-26.08169],[28.22385,-26.08183],[28.22376,-26.08196],[28.22367,-26.0821],[28.22358,-26.08223],[28.22349,-26.08237],[28.2234,-26.08252],[28.2233,-26.08266],[28.22323,-26.0828],[28.22315,-26.08294],[28.22306,-26.08311],[28.22297,-26.08328],[28.22291,-26.08343],[28.22284,-26.08357],[28.22278,-26.08373],[28.22271,-26.08389],[28.22265,-26.08404],[28.2226,-26.08419],[28.22254,-26.08436],[28.22249,-26.08453],[28.22245,-26.08465],[28.22242,-26.08477],[28.22238,-26.08491],[28.22234,-26.08505],[28.22229,-26.08523],[28.22224,-26.08541],[28.22219,-26.08559],[28.22215,-26.08577],[28.2221,-26.08596],[28.22205,-26.08615],[28.222,-26.08634],[28.22196,-26.08651],[28.22192,-26.08668],[28.22188,-26.08684],[28.22183,-26.08703],[28.22179,-26.08723],[28.22175,-26.08742],[28.2217,-26.08761],[28.22167,-26.08778],[28.22163,-26.08795],[28.22159,-26.08812],[28.22156,-26.0883],[28.22152,-26.08847],[28.22149,-26.08865],[28.22146,-26.08883],[28.22142,-26.089],[28.22139,-26.08918],[28.22136,-26.08937],[28.22132,-26.08957],[28.22128,-26.08976],[28.22125,-26.08996],[28.22121,-26.09015],[28.22118,-26.09034],[28.22114,-26.09054],[28.22111,-26.09075],[28.22107,-26.09095],[28.22104,-26.09115],[28.221,-26.09135],[28.22098,-26.0915],[28.22096,-26.09166],[28.22094,-26.09181],[28.22092,-26.09198],[28.2209,-26.09215],[28.2209,-26.0923],[28.22089,-26.09245],[28.22088,-26.09264],[28.22088,-26.09284],[28.22087,-26.09304],[28.22086,-26.09324],[28.22086,-26.09342],[28.22087,-26.09359],[28.22087,-26.09377],[28.22088,-26.09396],[28.22089,-26.09415],[28.2209,-26.09433],[28.22091,-26.0945],[28.22092,-26.09466],[28.22094,-26.09485],[28.22096,-26.09504],[28.22098,-26.09518],[28.221,-26.09532],[28.22102,-26.09546],[28.22105,-26.09562],[28.22108,-26.09579],[28.2211,-26.09594],[28.22113,-26.09608],[28.22116,-26.09623],[28.2212,-26.0964],[28.22124,-26.09657],[28.22127,-26.09674],[28.22131,-26.09691],[28.22136,-26.09708],[28.22141,-26.09726],[28.22146,-26.09743],[28.22151,-26.0976],[28.22156,-26.09778],[28.22163,-26.09795],[28.2217,-26.09813],[28.22176,-26.09831],[28.22182,-26.09846],[28.22187,-26.09861],[28.22192,-26.09875],[28.22198,-26.09889],[28.22203,-26.09902],[28.22208,-26.09915],[28.22213,-26.09928],[28.2222,-26.09941],[28.22226,-26.09954],[28.22233,-26.09969],[28.2224,-26.09983],[28.22247,-26.09998],[28.22253,-26.10009],[28.22258,-26.1002],[28.22264,-26.1003],[28.2227,-26.10041],[28.22275,-26.1005],[28.22284,-26.10065],[28.22293,-26.1008],[28.22302,-26.10094],[28.22311,-26.10108],[28.2232,-26.10122],[28.22329,-26.10136],[28.22338,-26.1015],[28.22347,-26.10164],[28.22355,-26.10177],[28.22364,-26.10191],[28.22373,-26.10205],[28.22383,-26.10221],[28.22394,-26.10237],[28.22404,-26.10253],[28.22415,-26.10269],[28.22425,-26.10285],[28.22435,-26.10301],[28.22446,-26.10318],[28.22452,-26.10327],[28.22458,-26.10336],[28.22468,-26.10351],[28.22478,-26.10367],[28.22488,-26.10382],[28.22498,-26.10398],[28.22509,-26.10413],[28.22519,-26.10429],[28.22528,-26.10443],[28.22537,-26.10458],[28.22547,-26.10472],[28.22555,-26.10485],[28.22563,-26.10497],[28.22571,-26.1051],[28.22581,-26.10527],[28.22592,-26.10544],[28.22598,-26.10554],[28.22604,-26.10565],[28.22613,-26.10583],[28.22619,-26.10598],[28.22625,-26.10614],[28.22631,-26.10631],[28.22637,-26.10648],[28.22642,-26.10665],[28.22648,-26.10681],[28.22655,-26.10701],[28.22661,-26.10721],[28.22667,-26.10741],[28.22674,-26.10761],[28.2268,-26.10781],[28.22687,-26.108],[28.22693,-26.1082],[28.22699,-26.1084],[28.22706,-26.1086],[28.22712,-26.1088],[28.22719,-26.109],[28.22724,-26.10917],[28.2273,-26.10935],[28.22735,-26.10953],[28.22741,-26.10971],[28.22747,-26.10989],[28.22752,-26.11006],[28.22758,-26.11024],[28.22764,-26.11042],[28.22769,-26.1106],[28.22773,-26.11075],[28.22778,-26.11089],[28.22781,-26.11102],[28.22784,-26.11115],[28.22786,-26.11132],[28.22789,-26.11148],[28.22791,-26.11159],[28.22792,-26.11169],[28.22793,-26.11182],[28.22795,-26.11195],[28.22796,-26.11208],[28.22797,-26.11222],[28.22799,-26.11241],[28.228,-26.11261],[28.22802,-26.11281],[28.22803,-26.113],[28.22804,-26.1132],[28.22805,-26.11338],[28.22805,-26.11357],[28.22805,-26.11372],[28.22804,-26.11384],[28.22803,-26.11396],[28.22801,-26.11416],[28.22799,-26.11428],[28.22798,-26.11439],[28.22796,-26.11451],[28.22793,-26.11464],[28.22789,-26.11482],[28.22785,-26.115],[28.22783,-26.11512],[28.2278,-26.11527],[28.22776,-26.11542],[28.22773,-26.11558],[28.22769,-26.11576],[28.22764,-26.11593],[28.2276,-26.11611],[28.22756,-26.11629],[28.22752,-26.11648],[28.22748,-26.11666],[28.22743,-26.11686],[28.22739,-26.11705],[28.22735,-26.11724],[28.2273,-26.11743],[28.22726,-26.11762],[28.22722,-26.11782],[28.22717,-26.11801],[28.22713,-26.1182],[28.22709,-26.11839],[28.22705,-26.11859],[28.227,-26.11876],[28.22696,-26.11894],[28.22692,-26.11912],[28.22688,-26.1193],[28.22684,-26.11948],[28.2268,-26.11966],[28.22675,-26.11986],[28.22671,-26.12005],[28.22666,-26.12025],[28.22662,-26.12045],[28.22657,-26.12065],[28.22653,-26.12086],[28.22649,-26.12102],[28.22645,-26.12118],[28.22642,-26.12129],[28.22639,-26.12141],[28.22636,-26.12152],[28.22633,-26.12164],[28.22628,-26.12177],[28.22624,-26.1219],[28.22618,-26.12208],[28.22611,-26.12226],[28.22605,-26.12243],[28.22598,-26.1226],[28.22592,-26.12278],[28.22585,-26.12295],[28.2258,-26.12308],[28.22575,-26.12322],[28.22569,-26.12337],[28.22564,-26.12352],[28.2256,-26.12362],[28.22556,-26.12372],[28.22552,-26.12384],[28.22548,-26.12396],[28.22542,-26.12416],[28.22536,-26.12435],[28.2253,-26.12455],[28.22524,-26.12475],[28.22518,-26.12494],[28.22512,-26.12514],[28.22506,-26.12533],[28.225,-26.12553],[28.22494,-26.12572],[28.22488,-26.12592],[28.22482,-26.12611],[28.22476,-26.12631],[28.2247,-26.1265],[28.22464,-26.1267],[28.22458,-26.1269],[28.22452,-26.12709],[28.22446,-26.12729],[28.22443,-26.12741],[28.2244,-26.12751],[28.22437,-26.12762],[28.22433,-26.12775],[28.2243,-26.12792],[28.22427,-26.12802],[28.22425,-26.12812],[28.22422,-26.12825],[28.22419,-26.12838],[28.22416,-26.12855],[28.22413,-26.12871],[28.22411,-26.12884],[28.22408,-26.12896],[28.22405,-26.1291],[28.22402,-26.12923],[28.22398,-26.1294],[28.22393,-26.12956],[28.22387,-26.12975],[28.22381,-26.12994],[28.22374,-26.13014],[28.22368,-26.13033],[28.22362,-26.1305],[28.22355,-26.13068],[28.22349,-26.13086],[28.22343,-26.13103],[28.22337,-26.13121],[28.22331,-26.13138],[28.22325,-26.13155],[28.2232,-26.13168],[28.22316,-26.13181],[28.22311,-26.13193],[28.22306,-26.13206],[28.22302,-26.1322],[28.22297,-26.13233],[28.22292,-26.13247],[28.22285,-26.13266],[28.22278,-26.13285],[28.22274,-26.13295],[28.2227,-26.13305],[28.22264,-26.1332],[28.22258,-26.13335],[28.22252,-26.1335],[28.22249,-26.13357],[28.22241,-26.13374],[28.22232,-26.13391],[28.22227,-26.13403],[28.22222,-26.13415],[28.22215,-26.13433],[28.22209,-26.13452],[28.22202,-26.1347],[28.22196,-26.13488],[28.22189,-26.13506],[28.22184,-26.13521],[28.22178,-26.13537],[28.22173,-26.13552],[28.22167,-26.13567],[28.22161,-26.13585],[28.22155,-26.13603],[28.22148,-26.13621],[28.22142,-26.1364],[28.22136,-26.13659],[28.22131,-26.13679],[28.22125,-26.13698],[28.22119,-26.13717],[28.22115,-26.13728],[28.22112,-26.13738],[28.22107,-26.13752],[28.22102,-26.13765],[28.22097,-26.13779],[28.22091,-26.13796],[28.22085,-26.13813],[28.22079,-26.1383],[28.22073,-26.13847],[28.22067,-26.13864],[28.22061,-26.1388],[28.22055,-26.13897],[28.2205,-26.13912],[28.22045,-26.13927],[28.2204,-26.1394],[28.22035,-26.13953],[28.2203,-26.13968],[28.22025,-26.13983],[28.22018,-26.14001],[28.22012,-26.14019],[28.22006,-26.14037],[28.21999,-26.14054],[28.21993,-26.14072],[28.21987,-26.1409],[28.21981,-26.14108],[28.21974,-26.14125],[28.21968,-26.14143],[28.21962,-26.14161],[28.21955,-26.14179],[28.21949,-26.14196],[28.21943,-26.14214],[28.21936,-26.14232],[28.2193,-26.1425],[28.21923,-26.14269],[28.21917,-26.14288],[28.2191,-26.14307],[28.21903,-26.14326],[28.21896,-26.14346],[28.21889,-26.14365],[28.21883,-26.14384],[28.21876,-26.14403],[28.21869,-26.14422],[28.21864,-26.14436],[28.21859,-26.14449],[28.21853,-26.14461],[28.21845,-26.14477],[28.21837,-26.14494],[28.21831,-26.14506],[28.21825,-26.14517],[28.21819,-26.1453],[28.21814,-26.14542],[28.21807,-26.14561],[28.21801,-26.14579],[28.21794,-26.14598],[28.21788,-26.14616],[28.21781,-26.14634],[28.21775,-26.14653],[28.21768,-26.14671],[28.21762,-26.1469],[28.21755,-26.14708],[28.21749,-26.14726],[28.21742,-26.14745],[28.21739,-26.14754],[28.21732,-26.14769],[28.21726,-26.14781],[28.21718,-26.14794],[28.21711,-26.14807],[28.21701,-26.14824],[28.2169,-26.14841],[28.2168,-26.14858],[28.2167,-26.14875],[28.2166,-26.14892],[28.2165,-26.14908],[28.2164,-26.14925],[28.2163,-26.14941],[28.2162,-26.14958],[28.2161,-26.14974],[28.216,-26.14991],[28.2159,-26.15008],[28.2158,-26.15024],[28.21569,-26.15042],[28.21559,-26.1506],[28.21548,-26.15077],[28.21538,-26.15093],[28.21529,-26.15109],[28.21519,-26.15125],[28.2151,-26.15141],[28.215,-26.15157],[28.21491,-26.15173],[28.21481,-26.15189],[28.21471,-26.15205],[28.21462,-26.15221],[28.21452,-26.15237],[28.21442,-26.15254],[28.21432,-26.1527],[28.21423,-26.15286],[28.21413,-26.15302],[28.21403,-26.15319],[28.21393,-26.15335],[28.21383,-26.15351],[28.21373,-26.15367],[28.21363,-26.15383],[28.21353,-26.15399],[28.21343,-26.15415],[28.21333,-26.15431],[28.21323,-26.15447],[28.21313,-26.15463],[28.21303,-26.15479],[28.21293,-26.15495],[28.21283,-26.15511],[28.21273,-26.15527],[28.21262,-26.15542],[28.21252,-26.15558],[28.21241,-26.15576],[28.21232,-26.1559],[28.21224,-26.15603],[28.21212,-26.15621],[28.21201,-26.15638],[28.21191,-26.15654],[28.21181,-26.1567],[28.2117,-26.15686],[28.2116,-26.15702],[28.2115,-26.15718],[28.2114,-26.15734],[28.21129,-26.1575],[28.21118,-26.15768],[28.21106,-26.15786],[28.21095,-26.15803],[28.21083,-26.15821],[28.21072,-26.15838],[28.21061,-26.15855],[28.2105,-26.15872],[28.21039,-26.1589],[28.21027,-26.15907],[28.21016,-26.15924],[28.21005,-26.15941],[28.20994,-26.15958],[28.20983,-26.15976],[28.20972,-26.15993],[28.2096,-26.1601],[28.20949,-26.16027],[28.20938,-26.16044],[28.20927,-26.16062],[28.20915,-26.16079],[28.20904,-26.16097],[28.20892,-26.16115],[28.20881,-26.16132],[28.20869,-26.16149],[28.20858,-26.16166],[28.20847,-26.16183],[28.20837,-26.16199],[28.20827,-26.16214],[28.20817,-26.1623],[28.20807,-26.16246],[28.20797,-26.16261],[28.20787,-26.16277],[28.20777,-26.16293],[28.20766,-26.16309],[28.20755,-26.16326],[28.20745,-26.16342],[28.20734,-26.16359],[28.20724,-26.16375],[28.20713,-26.16392],[28.20704,-26.16405],[28.20696,-26.16418],[28.20687,-26.16431],[28.20677,-26.16447],[28.2067,-26.16458],[28.20662,-26.1647],[28.20654,-26.16481],[28.20646,-26.16492],[28.20637,-26.16504],[28.20627,-26.16517],[28.20614,-26.16533],[28.206,-26.16549],[28.20592,-26.16558],[28.20584,-26.16568],[28.20573,-26.16582],[28.20562,-26.16595],[28.20552,-26.16609],[28.20542,-26.16623],[28.20531,-26.1664],[28.2052,-26.16656],[28.2051,-26.16673],[28.20499,-26.16689],[28.20488,-26.16706],[28.20477,-26.16722],[28.20467,-26.16739],[28.20456,-26.16755],[28.20445,-26.16772],[28.20439,-26.16781],[28.20434,-26.16793],[28.20427,-26.16805],[28.2042,-26.16821],[28.20414,-26.16834],[28.20408,-26.16846],[28.20403,-26.16859],[28.20395,-26.16875],[28.20387,-26.16892],[28.20381,-26.16906],[28.20375,-26.16917],[28.2037,-26.16928],[28.2036,-26.16944],[28.20349,-26.16961],[28.2034,-26.16975],[28.20331,-26.1699],[28.20322,-26.17004],[28.20314,-26.17016],[28.20306,-26.17028],[28.20298,-26.1704],[28.2029,-26.17053],[28.20281,-26.17068],[28.20271,-26.17084],[28.20263,-26.17099],[28.20255,-26.17114],[28.20248,-26.1713],[28.2024,-26.17145],[28.20233,-26.17163],[28.20227,-26.17177],[28.20221,-26.17195],[28.20215,-26.17214],[28.2021,-26.1723],[28.20205,-26.17246],[28.20201,-26.17262],[28.20196,-26.17279],[28.20192,-26.17295],[28.20187,-26.17312],[28.20182,-26.17328],[28.20177,-26.17345],[28.20173,-26.17362],[28.20168,-26.17378],[28.20163,-26.17396],[28.20158,-26.17414],[28.20152,-26.17432],[28.20147,-26.1745],[28.20142,-26.17468],[28.20137,-26.17486],[28.20132,-26.17505],[28.20127,-26.17522],[28.20122,-26.1754],[28.20117,-26.17557],[28.20112,-26.17575],[28.20107,-26.17593],[28.20102,-26.1761],[28.20097,-26.17628],[28.20092,-26.17648],[28.20086,-26.17667],[28.20081,-26.17687],[28.20075,-26.17706],[28.2007,-26.17726],[28.20064,-26.17745],[28.20058,-26.17765],[28.20053,-26.17784],[28.20047,-26.17804],[28.20042,-26.17824],[28.20036,-26.17843],[28.20031,-26.17863],[28.20025,-26.17882],[28.2002,-26.17902],[28.20014,-26.17921],[28.20008,-26.17941],[28.20001,-26.1796],[28.19995,-26.17976],[28.19989,-26.17993],[28.19984,-26.18009],[28.19978,-26.18025],[28.19973,-26.18041],[28.19967,-26.1806],[28.19962,-26.18079],[28.19957,-26.18097],[28.19951,-26.18116],[28.19946,-26.18135],[28.1994,-26.18154],[28.19935,-26.18173],[28.1993,-26.18192],[28.19924,-26.18211],[28.19919,-26.18229],[28.19915,-26.18247],[28.19911,-26.18262],[28.19908,-26.18277],[28.19904,-26.18293],[28.19901,-26.18308],[28.19897,-26.18327],[28.19893,-26.18345],[28.19888,-26.18364],[28.19884,-26.18382],[28.19879,-26.18399],[28.19874,-26.18417],[28.19869,-26.18435],[28.19864,-26.18453],[28.19859,-26.18471],[28.19854,-26.18488],[28.19849,-26.18504],[28.19844,-26.18524],[28.19838,-26.18544],[28.19833,-26.18564],[28.19827,-26.18583],[28.19822,-26.18601],[28.19817,-26.18618],[28.19813,-26.18635],[28.19808,-26.18653],[28.19804,-26.18664],[28.19801,-26.18676],[28.19798,-26.18691],[28.19794,-26.18707],[28.19792,-26.18718],[28.19789,-26.18729],[28.19787,-26.18742],[28.19785,-26.18755],[28.19783,-26.18772],[28.1978,-26.1879],[28.19779,-26.18807],[28.19777,-26.18824],[28.19776,-26.18842],[28.19775,-26.18858],[28.19775,-26.18874],[28.19774,-26.1889],[28.19774,-26.1891],[28.19775,-26.1893],[28.19776,-26.18944],[28.19777,-26.18957],[28.19778,-26.18971],[28.1978,-26.1899],[28.19782,-26.19009],[28.19784,-26.19028],[28.19786,-26.19048],[28.19789,-26.19067],[28.19791,-26.19087],[28.19792,-26.19095],[28.19794,-26.19113],[28.19796,-26.1913],[28.19798,-26.19148],[28.198,-26.19162],[28.19801,-26.19175],[28.19803,-26.19192],[28.19804,-26.19209],[28.19804,-26.19226],[28.19804,-26.19244],[28.19803,-26.19259],[28.19803,-26.19274],[28.19802,-26.1929],[28.19799,-26.1931],[28.19796,-26.1933],[28.19793,-26.19351],[28.19789,-26.19371],[28.19785,-26.19388],[28.1978,-26.19404],[28.19776,-26.1942],[28.19772,-26.19432],[28.19769,-26.19444],[28.19765,-26.19454],[28.19761,-26.19465],[28.19754,-26.19482],[28.19747,-26.19498],[28.19742,-26.19509],[28.19737,-26.1952],[28.19728,-26.19538],[28.19718,-26.19556],[28.19709,-26.19573],[28.19699,-26.1959],[28.19689,-26.19607],[28.1968,-26.19623],[28.1967,-26.19639],[28.1966,-26.19655],[28.19649,-26.19671],[28.19642,-26.19681],[28.19634,-26.19691],[28.19627,-26.197],[28.1962,-26.1971],[28.19609,-26.19723],[28.19599,-26.19736],[28.19585,-26.19751],[28.19572,-26.19766],[28.19559,-26.19781],[28.19546,-26.19796],[28.19532,-26.19811],[28.19519,-26.19825],[28.19505,-26.1984],[28.19492,-26.19855],[28.19479,-26.1987],[28.19466,-26.19885],[28.19453,-26.19899],[28.19441,-26.19913],[28.19428,-26.19927],[28.19415,-26.19941],[28.19403,-26.19955],[28.1939,-26.19969],[28.19381,-26.19979],[28.19375,-26.19987],[28.19364,-26.20001],[28.19353,-26.20016],[28.19341,-26.2003],[28.19328,-26.20044],[28.19316,-26.20057],[28.19303,-26.20071],[28.1929,-26.20086],[28.19277,-26.20101],[28.19264,-26.20115],[28.19251,-26.2013],[28.19238,-26.20144],[28.19225,-26.20158],[28.19213,-26.20171],[28.192,-26.20187],[28.19186,-26.20202],[28.19173,-26.20217],[28.19159,-26.20232],[28.19146,-26.20247],[28.19132,-26.20262],[28.19118,-26.20278],[28.19104,-26.20294],[28.1909,-26.2031],[28.19076,-26.20326],[28.19062,-26.20341],[28.19047,-26.20357],[28.19033,-26.20373],[28.1902,-26.20388],[28.19006,-26.20403],[28.18993,-26.20418],[28.18979,-26.20433],[28.18965,-26.20449],[28.18952,-26.20464],[28.18938,-26.20479],[28.18925,-26.20494],[28.18911,-26.20509],[28.18898,-26.20524],[28.18884,-26.20539],[28.18871,-26.20554],[28.18857,-26.20569],[28.18843,-26.20585],[28.18828,-26.20601],[28.18814,-26.20617],[28.18801,-26.20632],[28.18788,-26.20647],[28.18774,-26.20662],[28.18761,-26.20676],[28.18748,-26.20691],[28.18734,-26.20706],[28.18721,-26.20721],[28.18711,-26.20732],[28.18702,-26.20743],[28.18692,-26.20754],[28.18679,-26.20768],[28.18666,-26.20783],[28.18653,-26.20797],[28.18641,-26.20811],[28.18628,-26.20825],[28.18615,-26.2084],[28.18602,-26.20854],[28.18592,-26.20866],[28.1859,-26.20869],[28.18579,-26.2088],[28.18569,-26.20891],[28.18559,-26.20902],[28.18545,-26.20918],[28.18537,-26.20926],[28.18529,-26.20934],[28.18518,-26.20946],[28.18509,-26.20954],[28.18501,-26.20962],[28.18489,-26.20972],[28.18472,-26.20985],[28.18457,-26.20996],[28.18444,-26.21004],[28.18431,-26.21012],[28.1842,-26.2102],[28.18408,-26.21027],[28.18393,-26.21035],[28.18378,-26.21043],[28.18363,-26.2105],[28.18344,-26.2106],[28.18326,-26.2107],[28.18307,-26.2108],[28.18288,-26.2109],[28.18269,-26.211],[28.1825,-26.2111],[28.18231,-26.2112],[28.18212,-26.2113],[28.18193,-26.2114],[28.18175,-26.2115],[28.18164,-26.21155],[28.18154,-26.2116],[28.18134,-26.21169],[28.18117,-26.21175],[28.18105,-26.21179],[28.18093,-26.21183],[28.18081,-26.21186],[28.1807,-26.21188],[28.18056,-26.21191],[28.18043,-26.21193],[28.18029,-26.21194],[28.18014,-26.21196],[28.17999,-26.21196],[28.17984,-26.21196],[28.17967,-26.21195],[28.17949,-26.21194],[28.17927,-26.21191],[28.17904,-26.21188],[28.17881,-26.21185],[28.17859,-26.21182],[28.17836,-26.21179],[28.17813,-26.21175],[28.17791,-26.21172],[28.17768,-26.21169],[28.17746,-26.21166],[28.17723,-26.21163],[28.177,-26.2116],[28.17678,-26.21157],[28.17655,-26.21154],[28.17632,-26.21151],[28.1761,-26.21148],[28.17595,-26.21146],[28.17575,-26.21143],[28.17556,-26.2114],[28.17536,-26.21137],[28.17516,-26.21135],[28.17496,-26.21132],[28.17476,-26.21129],[28.17457,-26.21126],[28.17449,-26.21125],[28.17437,-26.21124],[28.17424,-26.21122],[28.17411,-26.2112],[28.17397,-26.21118],[28.17382,-26.21116],[28.17365,-26.21114],[28.17348,-26.21111],[28.17333,-26.21109],[28.17317,-26.21105],[28.17299,-26.21101],[28.17279,-26.21096],[28.17259,-26.2109],[28.17257,-26.2109],[28.17243,-26.21087],[28.1723,-26.21084],[28.17211,-26.21079],[28.17192,-26.21074],[28.17174,-26.2107],[28.17155,-26.21065],[28.17136,-26.2106],[28.17116,-26.21055],[28.17097,-26.2105],[28.17078,-26.21045],[28.17059,-26.21041],[28.17043,-26.21037],[28.17026,-26.21032],[28.1701,-26.21028],[28.16988,-26.21023],[28.16967,-26.21018],[28.16945,-26.21012],[28.16924,-26.21007],[28.16903,-26.21002],[28.16882,-26.20996],[28.16861,-26.20991],[28.16841,-26.20986],[28.1682,-26.20981],[28.16799,-26.20975],[28.16781,-26.20971],[28.16762,-26.20966],[28.16744,-26.20962],[28.16725,-26.20957],[28.16707,-26.20953],[28.16689,-26.20948],[28.16674,-26.20945],[28.16658,-26.20941],[28.16646,-26.20939],[28.16634,-26.20937],[28.16613,-26.20933],[28.1659,-26.20929],[28.16568,-26.20926],[28.16547,-26.20922],[28.16526,-26.20919],[28.16505,-26.20915],[28.16485,-26.20912],[28.16464,-26.20908],[28.16452,-26.20906],[28.1644,-26.20904],[28.16424,-26.20901],[28.16408,-26.20898],[28.16396,-26.20896],[28.16375,-26.20893],[28.16355,-26.20889],[28.16335,-26.20885],[28.16313,-26.20882],[28.16299,-26.20881],[28.16286,-26.2088],[28.16277,-26.2088],[28.16264,-26.2088],[28.16249,-26.20881],[28.16235,-26.20884],[28.16218,-26.20887],[28.16207,-26.2089],[28.16194,-26.20894],[28.16181,-26.20899],[28.16167,-26.20904],[28.16157,-26.20909],[28.16144,-26.20917],[28.16131,-26.20925],[28.16122,-26.2093],[28.16116,-26.20935],[28.16101,-26.20948],[28.16089,-26.2096],[28.16079,-26.20972],[28.16069,-26.20984],[28.16063,-26.20991],[28.16058,-26.20997],[28.16048,-26.2101],[28.16041,-26.2102],[28.16034,-26.2103],[28.16027,-26.2104],[28.1602,-26.2105],[28.16008,-26.21067],[28.15998,-26.21081],[28.15992,-26.21088],[28.15984,-26.21098],[28.15972,-26.2111],[28.1596,-26.21122],[28.15951,-26.21132],[28.15941,-26.21143],[28.15927,-26.21157],[28.15914,-26.2117],[28.15899,-26.21185],[28.15885,-26.21201],[28.15871,-26.21216],[28.15857,-26.21231],[28.15842,-26.21246],[28.15828,-26.21261],[28.15818,-26.2127],[28.15806,-26.21281],[28.15794,-26.21291],[28.15781,-26.21301],[28.15768,-26.21309],[28.15756,-26.21316],[28.15738,-26.21326],[28.15723,-26.21335],[28.15703,-26.21344],[28.1569,-26.21349],[28.15678,-26.21354],[28.15665,-26.21358],[28.15653,-26.21362],[28.1564,-26.21365],[28.15628,-26.21368],[28.15615,-26.21371],[28.15602,-26.21373],[28.15589,-26.21376],[28.15576,-26.21378],[28.15563,-26.21379],[28.15551,-26.2138],[28.15535,-26.21381],[28.15512,-26.21381],[28.15491,-26.21381],[28.1547,-26.2138],[28.15448,-26.21379],[28.15427,-26.21377],[28.15405,-26.21376],[28.15383,-26.21375],[28.1536,-26.21373],[28.15338,-26.21372],[28.15315,-26.2137],[28.15293,-26.21369],[28.15273,-26.21367],[28.15254,-26.21366],[28.15235,-26.21364],[28.15216,-26.21363],[28.15196,-26.21361],[28.15177,-26.21359],[28.15157,-26.21357],[28.15143,-26.21356],[28.15129,-26.21354],[28.15115,-26.21353],[28.15094,-26.21351],[28.15073,-26.21349],[28.15052,-26.21347],[28.15032,-26.21345],[28.15012,-26.21343],[28.14993,-26.21342],[28.14974,-26.2134],[28.14961,-26.2134],[28.14948,-26.21339],[28.14929,-26.21338],[28.14909,-26.21338],[28.14891,-26.21337],[28.14874,-26.21337],[28.14856,-26.21336],[28.14839,-26.21336],[28.14818,-26.21336],[28.14798,-26.21335],[28.14778,-26.21334],[28.14757,-26.21334],[28.14744,-26.21333],[28.1473,-26.21332],[28.14718,-26.21331],[28.14706,-26.2133],[28.14684,-26.21327],[28.14664,-26.21324],[28.14647,-26.2132],[28.14635,-26.21317],[28.14623,-26.21313],[28.14605,-26.21309],[28.14592,-26.21304],[28.14578,-26.21299],[28.14566,-26.21294],[28.14548,-26.21286],[28.14535,-26.2128],[28.14523,-26.21274],[28.1451,-26.21267],[28.14497,-26.21259],[28.14484,-26.2125],[28.14471,-26.21242],[28.1446,-26.21234],[28.1445,-26.21227],[28.14436,-26.21216],[28.14423,-26.21205],[28.1441,-26.21195],[28.14397,-26.21184],[28.14384,-26.21173],[28.14371,-26.21163],[28.14358,-26.21152],[28.14345,-26.21141],[28.14335,-26.21132],[28.14325,-26.21123],[28.14312,-26.21111],[28.143,-26.21099],[28.14287,-26.21086],[28.14275,-26.21073],[28.14261,-26.21058],[28.14246,-26.21043],[28.14232,-26.21028],[28.14217,-26.21013],[28.14204,-26.20999],[28.14191,-26.20985],[28.14177,-26.2097],[28.14164,-26.20956],[28.14149,-26.20941],[28.14134,-26.20927],[28.14123,-26.20918],[28.14114,-26.20911],[28.14104,-26.20904],[28.14091,-26.20895],[28.14077,-26.20886],[28.14064,-26.20879],[28.14049,-26.20871],[28.14036,-26.20866],[28.14016,-26.20857],[28.14005,-26.20852],[28.13993,-26.20848],[28.13976,-26.20842],[28.1396,-26.20836],[28.13942,-26.2083],[28.13925,-26.20824],[28.13907,-26.20818],[28.1389,-26.20812],[28.13871,-26.20805],[28.13851,-26.20799],[28.13839,-26.20795],[28.13827,-26.20791],[28.13808,-26.20785],[28.13788,-26.2078],[28.13771,-26.20776],[28.13753,-26.20772],[28.13736,-26.20769],[28.13718,-26.20766],[28.13705,-26.20765],[28.13687,-26.20763],[28.13667,-26.20761],[28.13646,-26.20758],[28.13626,-26.20756],[28.13607,-26.20755],[28.13585,-26.20754],[28.13574,-26.20754],[28.13562,-26.20754],[28.1354,-26.20755],[28.13524,-26.20757],[28.13509,-26.20758],[28.13488,-26.2076],[28.13467,-26.20762],[28.13446,-26.20764],[28.13425,-26.20766],[28.13404,-26.20769],[28.13383,-26.20771],[28.13364,-26.20774],[28.1335,-26.20777],[28.13336,-26.2078],[28.13326,-26.20782],[28.13307,-26.20787],[28.13291,-26.20793],[28.13274,-26.20799],[28.13257,-26.20804],[28.13241,-26.20811],[28.13224,-26.2082],[28.13207,-26.20829],[28.13191,-26.20839],[28.13175,-26.20848],[28.13158,-26.20858],[28.13139,-26.20869],[28.1312,-26.2088],[28.13101,-26.20891],[28.13082,-26.20902],[28.13068,-26.2091],[28.13055,-26.20917],[28.13041,-26.20925],[28.13026,-26.20932],[28.13011,-26.20939],[28.12998,-26.20945],[28.12985,-26.2095],[28.12971,-26.20955],[28.12957,-26.2096],[28.12943,-26.20965],[28.1293,-26.20969],[28.12908,-26.20974],[28.12887,-26.20979],[28.12866,-26.20983],[28.12852,-26.20984],[28.12837,-26.20986],[28.12822,-26.20987],[28.12808,-26.20987],[28.12788,-26.20987],[28.12769,-26.20987],[28.12746,-26.20985],[28.12723,-26.20984],[28.12701,-26.20981],[28.12678,-26.20979],[28.12656,-26.20977],[28.12634,-26.20974],[28.12611,-26.20972],[28.12589,-26.20969],[28.12566,-26.20967],[28.12544,-26.20965],[28.12521,-26.20962],[28.12499,-26.2096],[28.12476,-26.20957],[28.12454,-26.20955],[28.12431,-26.20953],[28.12409,-26.2095],[28.12386,-26.20948],[28.12364,-26.20946],[28.12342,-26.20943],[28.12319,-26.20941],[28.123,-26.20939],[28.12281,-26.20937],[28.12261,-26.20935],[28.12242,-26.20933],[28.12221,-26.2093],[28.12201,-26.20928],[28.1218,-26.20926],[28.1216,-26.20924],[28.12148,-26.20922],[28.12136,-26.20921],[28.12119,-26.20919],[28.12101,-26.20917],[28.12084,-26.20915],[28.12068,-26.20912],[28.12053,-26.2091],[28.1204,-26.20907],[28.12026,-26.20905],[28.12007,-26.20901],[28.11993,-26.20898],[28.11979,-26.20894],[28.11967,-26.20891],[28.11954,-26.20888],[28.11937,-26.20883],[28.1192,-26.20879],[28.11907,-26.20875],[28.11895,-26.20871],[28.11883,-26.20867],[28.11871,-26.20862],[28.11851,-26.20855],[28.11831,-26.20848],[28.11812,-26.20841],[28.11794,-26.20834],[28.11776,-26.20827],[28.11756,-26.20819],[28.11736,-26.20811],[28.11726,-26.20806],[28.11715,-26.20801],[28.11697,-26.20791],[28.11688,-26.20786],[28.11678,-26.2078],[28.11662,-26.2077],[28.11647,-26.2076],[28.11635,-26.20752],[28.11624,-26.20744],[28.11611,-26.20733],[28.11598,-26.20722],[28.11586,-26.20712],[28.11575,-26.20702],[28.11569,-26.20696],[28.11558,-26.20686],[28.11547,-26.20676],[28.11536,-26.20666],[28.11524,-26.20655],[28.11514,-26.20646],[28.11504,-26.20637],[28.11493,-26.20628],[28.11483,-26.20619],[28.11469,-26.20608],[28.11455,-26.20597],[28.11443,-26.20588],[28.11431,-26.20579],[28.11417,-26.20571],[28.11404,-26.20562],[28.1139,-26.20553],[28.11375,-26.20544],[28.11359,-26.20535],[28.11343,-26.20526],[28.11327,-26.20518],[28.11312,-26.2051],[28.11297,-26.20502],[28.1128,-26.20495],[28.11263,-26.20487],[28.11247,-26.2048],[28.11232,-26.20474],[28.11217,-26.20468],[28.11202,-26.20462],[28.11187,-26.20455],[28.11172,-26.20449],[28.11158,-26.20444],[28.11144,-26.20438],[28.11133,-26.20434],[28.11121,-26.20429],[28.11107,-26.20424],[28.11092,-26.2042],[28.11078,-26.20416],[28.11065,-26.20412],[28.11043,-26.20407],[28.1103,-26.20404],[28.11018,-26.20401],[28.10997,-26.20397],[28.10977,-26.20394],[28.10959,-26.20391],[28.1094,-26.20388],[28.10917,-26.20384],[28.10895,-26.2038],[28.10879,-26.20378],[28.10863,-26.20375],[28.10847,-26.20373],[28.1083,-26.2037],[28.10812,-26.20367],[28.10798,-26.20365],[28.10785,-26.20363],[28.10772,-26.20361],[28.10759,-26.2036],[28.10745,-26.20358],[28.10731,-26.20357],[28.10709,-26.20355],[28.10687,-26.20354],[28.1067,-26.20353],[28.10652,-26.20352],[28.10637,-26.20352],[28.10623,-26.20351],[28.10604,-26.20352],[28.10586,-26.20352],[28.10568,-26.20352],[28.1055,-26.20353],[28.10533,-26.20354],[28.10515,-26.20356],[28.10497,-26.20357],[28.10482,-26.20359],[28.10468,-26.20361],[28.10453,-26.20363],[28.10437,-26.20366],[28.10422,-26.20368],[28.10406,-26.20371],[28.10394,-26.20374],[28.10381,-26.20376],[28.10362,-26.2038],[28.10342,-26.20385],[28.10329,-26.20388],[28.10315,-26.20392],[28.10295,-26.20397],[28.10281,-26.20401],[28.10268,-26.20406],[28.10256,-26.20409],[28.10244,-26.20413],[28.10225,-26.20419],[28.10205,-26.20426],[28.10186,-26.20432],[28.10165,-26.20439],[28.10144,-26.20446],[28.10123,-26.20452],[28.10103,-26.20459],[28.10082,-26.20466],[28.10061,-26.20472],[28.1004,-26.20479],[28.10019,-26.20486],[28.09999,-26.20493],[28.09978,-26.20499],[28.0996,-26.20505],[28.09942,-26.20511],[28.09924,-26.20517],[28.09906,-26.20523],[28.09888,-26.20528],[28.09877,-26.20532],[28.09866,-26.20535],[28.0985,-26.2054],[28.09832,-26.20545],[28.09816,-26.20548],[28.098,-26.20552],[28.09783,-26.20556],[28.09766,-26.2056],[28.0975,-26.20564],[28.09733,-26.20567],[28.09719,-26.2057],[28.09706,-26.20573],[28.09694,-26.20576],[28.09682,-26.20579],[28.09664,-26.20584],[28.09649,-26.20589],[28.09628,-26.20596],[28.09609,-26.20602],[28.09597,-26.20607],[28.09585,-26.20612],[28.09569,-26.20618],[28.09554,-26.20625],[28.09538,-26.20631],[28.09525,-26.20636],[28.09511,-26.20641],[28.09496,-26.20647],[28.09481,-26.20652],[28.09467,-26.20658],[28.09452,-26.20663],[28.09439,-26.20667],[28.09421,-26.20673],[28.09406,-26.20676],[28.09392,-26.20679],[28.09378,-26.20682],[28.0936,-26.20685],[28.0934,-26.20687],[28.09319,-26.20689],[28.09306,-26.20689],[28.09293,-26.2069],[28.09279,-26.20689],[28.09266,-26.20689],[28.09248,-26.20688],[28.09234,-26.20686],[28.0922,-26.20684],[28.09207,-26.20682],[28.09191,-26.20679],[28.09174,-26.20675],[28.09162,-26.20672],[28.09149,-26.20669],[28.09135,-26.20665],[28.09121,-26.20662],[28.09102,-26.20657],[28.09083,-26.20651],[28.09063,-26.20646],[28.09044,-26.2064],[28.09025,-26.20635],[28.09005,-26.2063],[28.08986,-26.20624],[28.08967,-26.20619],[28.08946,-26.20613],[28.08925,-26.20608],[28.08904,-26.20602],[28.08883,-26.20596],[28.08863,-26.2059],[28.08842,-26.20585],[28.08826,-26.20581],[28.0881,-26.20577],[28.08797,-26.20574],[28.08785,-26.20572],[28.08768,-26.20569],[28.08752,-26.20567],[28.08731,-26.20565],[28.08711,-26.20564],[28.08693,-26.20563],[28.0868,-26.20564],[28.08667,-26.20564],[28.08655,-26.20565],[28.08643,-26.20565],[28.08624,-26.20567],[28.08609,-26.20569],[28.0859,-26.20572],[28.08573,-26.20575],[28.08559,-26.20579],[28.08539,-26.20584],[28.08518,-26.2059],[28.08503,-26.20595],[28.08489,-26.206],[28.08473,-26.20606],[28.08457,-26.20612],[28.08441,-26.20618],[28.08425,-26.20624],[28.08408,-26.2063],[28.08392,-26.20636],[28.08375,-26.20642],[28.08357,-26.20648],[28.0834,-26.20655],[28.08322,-26.20661],[28.08304,-26.20668],[28.08291,-26.20673],[28.08278,-26.20677],[28.0826,-26.20683],[28.08242,-26.20689],[28.08225,-26.20695],[28.08207,-26.207],[28.0819,-26.20706],[28.08173,-26.20711],[28.08156,-26.20717],[28.08139,-26.20722],[28.08118,-26.20729],[28.08097,-26.20736],[28.08076,-26.20742],[28.08063,-26.20747],[28.08046,-26.20753],[28.08035,-26.20758],[28.08024,-26.20762],[28.08008,-26.20768],[28.07988,-26.20777],[28.07973,-26.20784],[28.07957,-26.20791],[28.07945,-26.20796],[28.07929,-26.20803],[28.07914,-26.2081],[28.07902,-26.20814],[28.07891,-26.20819],[28.07879,-26.20824],[28.07867,-26.20828],[28.0785,-26.20834],[28.07833,-26.2084],[28.07817,-26.20847],[28.078,-26.20853],[28.07786,-26.20858],[28.07776,-26.20861],[28.0776,-26.20867],[28.07745,-26.20872],[28.0773,-26.20878],[28.07715,-26.20883],[28.07702,-26.20887],[28.07685,-26.20893],[28.07667,-26.20898],[28.0765,-26.20903],[28.07634,-26.20908],[28.07619,-26.20912],[28.076,-26.20917],[28.07581,-26.20921],[28.07562,-26.20924],[28.07543,-26.20927],[28.07527,-26.20929],[28.07511,-26.20932],[28.07496,-26.20933],[28.07481,-26.20934],[28.07467,-26.20935],[28.07454,-26.20936],[28.07441,-26.20936],[28.07427,-26.20937],[28.07409,-26.20936],[28.07392,-26.20936],[28.07372,-26.20935],[28.07353,-26.20932],[28.07334,-26.2093],[28.07319,-26.20927],[28.07304,-26.20924],[28.07283,-26.20919],[28.0727,-26.20916],[28.07257,-26.20912],[28.07237,-26.20905],[28.07217,-26.20899],[28.07198,-26.20893],[28.07179,-26.20887],[28.07162,-26.20881],[28.07144,-26.20875],[28.07129,-26.20869],[28.07114,-26.20863],[28.071,-26.20857],[28.07085,-26.20852],[28.07072,-26.20845],[28.07058,-26.20838],[28.07044,-26.20831],[28.0703,-26.20824],[28.07015,-26.20815],[28.06999,-26.20806],[28.06981,-26.20796],[28.06963,-26.20785],[28.06945,-26.20775],[28.06926,-26.20765],[28.06908,-26.20754],[28.0689,-26.20744],[28.06871,-26.20733],[28.06853,-26.20723],[28.06835,-26.20712],[28.06816,-26.20702],[28.06798,-26.20691],[28.0678,-26.20681],[28.06762,-26.20671],[28.06744,-26.2066],[28.06726,-26.2065],[28.06708,-26.2064],[28.0669,-26.20629],[28.06672,-26.20619],[28.06654,-26.20608],[28.06636,-26.20598],[28.06618,-26.20588],[28.06601,-26.20577],[28.06583,-26.20567],[28.06564,-26.20557],[28.06546,-26.20546],[28.06533,-26.20538],[28.06521,-26.2053],[28.0651,-26.20523],[28.065,-26.20515],[28.0649,-26.20509],[28.06479,-26.205],[28.06468,-26.20492],[28.06453,-26.20479],[28.06439,-26.20466],[28.06423,-26.20451],[28.06408,-26.20437],[28.06392,-26.20422],[28.06377,-26.20407],[28.06361,-26.20393],[28.06347,-26.2038],[28.06334,-26.20367],[28.0632,-26.20354],[28.06306,-26.20341],[28.06292,-26.20328],[28.06278,-26.20315],[28.06264,-26.20302],[28.0625,-26.20288],[28.06236,-26.20275],[28.06224,-26.20263],[28.06213,-26.20252],[28.06205,-26.20244],[28.06197,-26.20236],[28.06187,-26.20224],[28.06176,-26.20213],[28.06165,-26.20198],[28.06154,-26.20183],[28.06146,-26.20172],[28.06138,-26.20161],[28.06127,-26.20147],[28.06117,-26.20133],[28.06106,-26.20119],[28.06094,-26.20103],[28.06087,-26.20091],[28.06079,-26.2008],[28.0607,-26.20068],[28.06061,-26.20056],[28.06053,-26.20046],[28.06045,-26.20036],[28.06037,-26.20027],[28.06029,-26.20017],[28.06019,-26.20003],[28.06008,-26.1999],[28.05999,-26.19978],[28.05991,-26.19969],[28.05984,-26.1996],[28.05977,-26.1995],[28.05963,-26.19934],[28.0595,-26.19917],[28.05936,-26.199],[28.05929,-26.19892],[28.05921,-26.19883],[28.05919,-26.1988],[28.05908,-26.19869],[28.05895,-26.19857],[28.05882,-26.19845],[28.05867,-26.19834],[28.05853,-26.19823],[28.05841,-26.19815],[28.0583,-26.19808],[28.05818,-26.198],[28.058,-26.19789],[28.05784,-26.19782],[28.05769,-26.19774],[28.05757,-26.19768],[28.05745,-26.19764],[28.0573,-26.19758],[28.05714,-26.19752],[28.05692,-26.19745],[28.05673,-26.19739],[28.05659,-26.19736],[28.05645,-26.19733],[28.05631,-26.1973],[28.05617,-26.19726],[28.05605,-26.19724],[28.05592,-26.19722],[28.05578,-26.19719],[28.05564,-26.19717],[28.05544,-26.19715],[28.05533,-26.19713],[28.05521,-26.19712],[28.05505,-26.19712],[28.05489,-26.19711],[28.05472,-26.1971],[28.0545,-26.19711],[28.05428,-26.19711],[28.05405,-26.19711],[28.05383,-26.19712],[28.05361,-26.19712],[28.05339,-26.19713],[28.0532,-26.19714],[28.05301,-26.19715],[28.05282,-26.19717],[28.05266,-26.19717],[28.05249,-26.19718],[28.05233,-26.19718],[28.05217,-26.19718],[28.05201,-26.19718],[28.05184,-26.19718],[28.05167,-26.19719],[28.0515,-26.19719],[28.05132,-26.1972],[28.05115,-26.1972],[28.05093,-26.19721],[28.05071,-26.19722],[28.0505,-26.19724],[28.0503,-26.19726],[28.05009,-26.19728],[28.04988,-26.19729],[28.04966,-26.19731],[28.04946,-26.19733],[28.04926,-26.19735],[28.04906,-26.19736],[28.04888,-26.19738],[28.04869,-26.1974],[28.0485,-26.19742],[28.04835,-26.19744],[28.0482,-26.19746],[28.04799,-26.19748],[28.04777,-26.1975],[28.0476,-26.19752],[28.04744,-26.19754],[28.04725,-26.19756],[28.04707,-26.19758],[28.04688,-26.1976],[28.04671,-26.19761],[28.04654,-26.19763],[28.04637,-26.19764],[28.04615,-26.19765],[28.04601,-26.19765],[28.04587,-26.19765],[28.04568,-26.19764],[28.04548,-26.19764],[28.04528,-26.19762],[28.04508,-26.1976],[28.04488,-26.19758],[28.04467,-26.19756],[28.04447,-26.19754],[28.04427,-26.19753],[28.04411,-26.19752],[28.04395,-26.19751],[28.04379,-26.1975],[28.04356,-26.19752],[28.04334,-26.19753],[28.04312,-26.19754],[28.04296,-26.19756],[28.04279,-26.19757],[28.04263,-26.19758],[28.04242,-26.19761],[28.042297335192917,-26.19762672701915]]}}