{"type":"Feature","properties":{"id":"pretoria-cape-town-rail-candidate","version":"1.0.0-osm-rail-candidate","routeVersion":"1.0.0-osm-rail-candidate","name":"Pretoria–Cape Town OSM-mapped rail candidate","source":"OpenStreetMap railway=rail ways, excluding siding/spur/yard/crossover service ways","sourceUrl":"https://www.openstreetmap.org/copyright","attribution":"© OpenStreetMap contributors","license":"ODbL-1.0","licenseUrl":"https://opendatacommons.org/licenses/odbl/1-0/","geometryType":"osm-rail-graph-shortest-path-candidate","railAlignmentVerified":true,"confidence":"osm-mapped-connected-candidate","reviewStatus":"automated-candidate-human-operational-route-review-pending","intendedUse":"Geographic ride simulation; does not assert a current passenger service or operating itinerary","direction":"pretoria-to-cape-town","lengthMetres":1582417.155,"generatedAt":"2026-09-08T10:49:29.942133+00:00","hubOrder":["pretoria","johannesburg","kimberley","de-aar","beaufort-west","matjiesfontein","worcester","cape-town"],"stationAnchors":[{"hubId":"pretoria","osmType":"node","osmId":799906122,"coordinates":[28.1892212,-25.7594894]},{"hubId":"johannesburg","osmType":"node","osmId":326084268,"coordinates":[28.0423048,-26.1976708]},{"hubId":"kimberley","osmType":"node","osmId":247327890,"coordinates":[24.7698702,-28.7353474]},{"hubId":"de-aar","osmType":"node","osmId":247327813,"coordinates":[24.0138567,-30.6503939]},{"hubId":"beaufort-west","osmType":"node","osmId":8148099536,"coordinates":[22.5769196,-32.3518393]},{"hubId":"matjiesfontein","osmType":"node","osmId":249333087,"coordinates":[20.5808832,-33.2314538]},{"hubId":"worcester","osmType":"node","osmId":9155692732,"coordinates":[19.4411747,-33.6394993]},{"hubId":"cape-town","osmType":"node","osmId":288676470,"coordinates":[18.4263523,-33.9224221]}],"resolvedSegments":["pretoria--johannesburg","johannesburg--kimberley","kimberley--de-aar","de-aar--beaufort-west","beaufort-west--matjiesfontein","matjiesfontein--worcester","worcester--cape-town"],"unresolvedSegments":[],"provenanceFile":"provenance/rail-alignment.json","segments":[{"id":"pretoria--johannesburg","fromHubId":"pretoria","toHubId":"johannesburg","confidence":"osm-mapped-connected-candidate","unresolvedReason":null,"startIndex":0,"endIndex":3691,"lengthMetres":69485.568,"directDistanceMetres":50888.695,"startSnap":{"osmNodeId":5203384246,"distanceMetres":15.886},"endSnap":{"osmNodeId":7124278764,"distanceMetres":34.036},"osmWayIds":[4420058,4420059,4703175,8407557,23097858,24635492,32486599,32486606,32489507,58365742,58365777,71164463,142048178,142214861,142214863,197895382,273430341,273430350,273585249,273611811,275977617,421114441,421114442,427646717,427646718,435271632,435271634,435271638,435271648,435271654,435299245,435299261,435299263,435299290,435299292,435299326,435304234,435304239,435304248,435382598,435382601,537391031,542358527,542358533,542358534,542358535,542358550,542358551,542358554,542358555,542462342,542462344,542462347,542462350,542466110,542466117,597093044,597093045,687811268,687811269,755745066,765045283,766042600,766042601,829906318,833962222,835077556,838003124,838146280,840261372,840261373,840261375,867677563,867677564,988779739,988779757,1035213637,1275533525,1275564800,1500200937],"precedingJunctionConnector":null},{"id":"johannesburg--kimberley","fromHubId":"johannesburg","toHubId":"kimberley","confidence":"osm-mapped-connected-candidate","unresolvedReason":null,"startIndex":3691,"endIndex":26546,"lengthMetres":482430.34,"directDistanceMetres":428750.759,"startSnap":{"osmNodeId":7124278764,"distanceMetres":34.036},"endSnap":{"osmNodeId":247327890,"distanceMetres":0},"osmWayIds":[7508013,22778979,23284160,31740955,61242192,71174956,100597999,107948677,107948691,123743988,123743999,123744007,123744022,142081112,157935281,172260740,172260745,194555973,199751382,199751383,217628979,217628980,219005173,291398973,381513360,381513361,435174300,435174306,435178894,435193593,435193598,435208704,435208720,435221306,435271627,435271650,444074275,444074276,444074287,444074288,467967164,617693160,617693161,633490888,633490890,751055498,751130145,751130146,751130149,751130150,761915904,761915905,819216613,819216614,873293077,875560098,875560099,875560104,875560105,875560126,875560127,875560129,875560152,875560155,905414053,943024738,943028297,943028298,951326117,951326118,951326124,951326132,958530140,958530141,958530142,958530152,972913248,972913249,972913259,972913264,972913265,972913266,972913268,998470731,998470732,1037448099,1055853101,1055853105,1055853106,1056768361,1056768362,1056768363,1056768364,1056768365,1056768366,1056768367,1056768372,1056768373,1056768375,1056768376,1057056944,1057056946,1057056977,1057056978,1057056980,1057056982,1057056983,1057069397,1057069402,1057069408,1279918166,1289813745,1289813746,1432358661,1432361031,1432361032,1432364005,1432369527,1432370359,1432370360,1435082928],"precedingJunctionConnector":null},{"id":"kimberley--de-aar","fromHubId":"kimberley","toHubId":"de-aar","confidence":"osm-mapped-connected-candidate","unresolvedReason":null,"startIndex":26546,"endIndex":37686,"lengthMetres":235644.636,"directDistanceMetres":225115.383,"startSnap":{"osmNodeId":247327890,"distanceMetres":0},"endSnap":{"osmNodeId":247327813,"distanceMetres":0},"osmWayIds":[21735066,61153705,61153711,69715585,69715589,104192798,157935284,205652802,244526565,261058915,418070047,418070048,445015850,445015851,611890107,611890109,685658014,685658015,685871892,686101064,686101065,686101066,819256710,819256711,820003806,820003825,820438677,820706437,820758149,821174865,1057677688,1057679505,1057872624,1057872626,1057872627,1057872628,1057872629,1057872630,1057872639,1057872642,1057872643,1057872644,1057872645,1057872646,1057872647,1058415720,1058415726,1058415748,1058415749,1058415754,1058415757,1157249332,1157249334,1157249337,1157249344,1163825722,1163825723,1238158419,1238158420],"precedingJunctionConnector":null},{"id":"de-aar--beaufort-west","fromHubId":"de-aar","toHubId":"beaufort-west","confidence":"osm-mapped-connected-candidate","unresolvedReason":null,"startIndex":37686,"endIndex":49848,"lengthMetres":259299.432,"directDistanceMetres":233131.186,"startSnap":{"osmNodeId":247327813,"distanceMetres":0},"endSnap":{"osmNodeId":11454114633,"distanceMetres":28.662},"osmWayIds":[21723568,61153709,89173859,89173861,108192548,108192593,170824444,170824445,200453793,200453794,200453796,200455995,200455997,201818775,201818777,201880548,201880550,366692175,366692176,366692177,366692179,518100715,518100716,518100717,518100718,518100723,518100724,659123902,659123903,659123911,659123912,659123913,659123914,759462361,1233978948,1233978949,1233978950,1233978955,1233978956,1234029763,1234170294,1234170295,1234170305,1234170360,1234170362,1234174813,1234174819,1234174821,1234174822,1234174823,1238302074,1238302075,1283294156,1283294157,1311491704,1311491710,1311491713,1311491715,1311491716,1311491717,1311491718,1524789317],"precedingJunctionConnector":null},{"id":"beaufort-west--matjiesfontein","fromHubId":"beaufort-west","toHubId":"matjiesfontein","confidence":"osm-mapped-connected-candidate","unresolvedReason":null,"startIndex":49848,"endIndex":61265,"lengthMetres":230333.064,"directDistanceMetres":210657.045,"startSnap":{"osmNodeId":11454114633,"distanceMetres":28.662},"endSnap":{"osmNodeId":249333087,"distanceMetres":0},"osmWayIds":[91957679,91957700,91979989,91979991,91980001,91980006,91980010,91980011,91980014,91980015,107833605,107833618,107833628,107833635,107952299,107952307,108192556,108192582,108192585,108192589,169667527,169667528,169667529,169667531,198694420,198694423,199479668,199479669,207014019,207014020,207014195,207015070,207015082,207015083,207015086,207016717,207016718,207327799,207327800,207327801,207327802,207327803,207327804,244514455,249663164,249663168,258239939,258239940,363814366,363814367,437495479,655104779,655104780,765604212,765604213,875384729,875384730,1152662925,1152662926,1156645095,1156645096,1156645097,1156645098,1234170305,1234170344,1234170346,1234170347,1234170350,1234170353,1234194630,1234194631,1234194633,1234194634,1234194635,1234194637,1234194638,1234194639,1234194640,1234194641,1234194642,1234194643,1234194644,1234194658,1234194659,1236239490,1236239491,1236239496,1236239497,1236239499,1236239504,1236242178,1236242179,1236242180,1236242182,1236242183,1236242184,1236242185,1236242186,1236242187,1236242188,1236264534,1236264535,1236264542,1236264543,1319370824,1319370825],"precedingJunctionConnector":null},{"id":"matjiesfontein--worcester","fromHubId":"matjiesfontein","toHubId":"worcester","confidence":"osm-mapped-connected-candidate","unresolvedReason":null,"startIndex":61265,"endIndex":67689,"lengthMetres":130185.006,"directDistanceMetres":115078.265,"startSnap":{"osmNodeId":249333087,"distanceMetres":0},"endSnap":{"osmNodeId":240124482,"distanceMetres":11.734},"osmWayIds":[22662080,22770601,22770603,22770604,22770605,22770606,28890349,28890350,31901254,31901255,61302516,61591522,103754186,103754188,240361689,262624845,262624846,262624847,262624849,771537495,771537496,1219736070,1219736075,1219736076,1234194631,1235352000,1235352001,1236264540,1236264541,1236264545,1236264546,1236264550,1236264552,1236264557,1236264558,1236264559,1236264565,1236264591,1236264592,1236264597,1236264598,1243706920,1243706921,1243706929,1243706932,1243706934,1243796738,1243796743,1243796764,1245421240,1245421243,1245421291,1245421343,1245421348],"precedingJunctionConnector":null},{"id":"worcester--cape-town","fromHubId":"worcester","toHubId":"cape-town","confidence":"osm-mapped-connected-candidate","unresolvedReason":null,"startIndex":67689,"endIndex":76535,"lengthMetres":174697.121,"directDistanceMetres":98926.771,"startSnap":{"osmNodeId":240124482,"distanceMetres":11.734},"endSnap":{"osmNodeId":6629401912,"distanceMetres":33.313},"osmWayIds":[4820594,13712266,22328685,22328860,26349063,48585986,65680741,65680778,65680959,65765841,67465226,67465237,67470893,67470911,67470932,137480818,137480822,137612978,137612992,137612997,137614572,137614575,137620561,137620563,137621654,240804499,240804500,240804505,240804507,275608817,275608818,299790039,299790044,299790045,299954971,299954974,299954976,299954979,364020781,364020783,366210720,366210721,710853478,710853479,710853480,733322969,750218529,766854672,766854673,771348579,771348580,771348592,771348593,775788856,775788857,788923780,789157063,790320470,790320471,790320472,790320474,790320477,790320478,790320480,790320483,790745842,791678395,791678401,791687494,791687497,791687499,791687503,791687505,791687506,791687509,791687511,791746856,791746857,791746858,792856978,792856980,792925209,863466508,863518188,863518189,863563817,863563833,863563834,864046446,864046449,864046457,990298751,990904539,1098423028,1229003616,1229003617,1229003618,1229003620,1233181995,1233181998,1233181999,1233540026,1233540028,1244943151,1245421244,1245421292,1245421313,1245421314,1267911134,1267911135,1313535239,1313540230,1339178818,1339178819,1425680126],"precedingJunctionConnector":null}],"detail":"ride","maximumTargetSpacingMetres":25,"generator":"scripts/build-kimberley-route.mjs","note":"Kimberley slice of data/route-ride.geojson: 3000 m before the station to 1600 m after, for the Kimberley chapter only.","sliceMetres":4623,"stationAlongMetres":3013,"stationNode":247327890},"geometry":{"type":"LineString","coordinates":[[24.77197,-28.70909],[24.77187,-28.70927],[24.77176,-28.70946],[24.77166,-28.70964],[24.77156,-28.70983],[24.77146,-28.71001],[24.77135,-28.71019],[24.77125,-28.71038],[24.77115,-28.71056],[24.77105,-28.71074],[24.77094,-28.71093],[24.77084,-28.71111],[24.77074,-28.7113],[24.77064,-28.71148],[24.77054,-28.71165],[24.77044,-28.71182],[24.77036,-28.71197],[24.77028,-28.71212],[24.7702,-28.71226],[24.77011,-28.71242],[24.77002,-28.71258],[24.76993,-28.71274],[24.76984,-28.7129],[24.76976,-28.71306],[24.76968,-28.71321],[24.76958,-28.71338],[24.76949,-28.71355],[24.7694,-28.7137],[24.76932,-28.71386],[24.76923,-28.71401],[24.76915,-28.71415],[24.76907,-28.7143],[24.76899,-28.71445],[24.7689,-28.7146],[24.76882,-28.71475],[24.76874,-28.7149],[24.76866,-28.71505],[24.76858,-28.7152],[24.7685,-28.71535],[24.76844,-28.71548],[24.76838,-28.71561],[24.76833,-28.71573],[24.76828,-28.71584],[24.76822,-28.71601],[24.76815,-28.7162],[24.76811,-28.71632],[24.76807,-28.71643],[24.76804,-28.71654],[24.76799,-28.71673],[24.76794,-28.71691],[24.76792,-28.71705],[24.76789,-28.71719],[24.76787,-28.71734],[24.76785,-28.71751],[24.76783,-28.71768],[24.76781,-28.71785],[24.76781,-28.71795],[24.7678,-28.71806],[24.7678,-28.71824],[24.7678,-28.71834],[24.7678,-28.71845],[24.76781,-28.71856],[24.76781,-28.71867],[24.76782,-28.71881],[24.76783,-28.71894],[24.76786,-28.71914],[24.76788,-28.71927],[24.76789,-28.71941],[24.76792,-28.71954],[24.76794,-28.71966],[24.76799,-28.71986],[24.76804,-28.72006],[24.76808,-28.72021],[24.76813,-28.72037],[24.76817,-28.72051],[24.76822,-28.72065],[24.76826,-28.72079],[24.76832,-28.72097],[24.76838,-28.72115],[24.76844,-28.72134],[24.76849,-28.7215],[24.76854,-28.72166],[24.7686,-28.72182],[24.76865,-28.722],[24.76871,-28.72217],[24.76877,-28.72235],[24.76882,-28.72253],[24.76886,-28.72264],[24.7689,-28.72276],[24.76895,-28.72292],[24.769,-28.72309],[24.76905,-28.72325],[24.76908,-28.72337],[24.76911,-28.72348],[24.76914,-28.72359],[24.76917,-28.7237],[24.76921,-28.7239],[24.76923,-28.72408],[24.76926,-28.72427],[24.76927,-28.72443],[24.76928,-28.7246],[24.76928,-28.72471],[24.76928,-28.72482],[24.76927,-28.72497],[24.76926,-28.72513],[24.76925,-28.72529],[24.76923,-28.72545],[24.76921,-28.72562],[24.76919,-28.72575],[24.76918,-28.72589],[24.76916,-28.726],[24.76915,-28.72611],[24.76913,-28.72629],[24.76912,-28.7264],[24.76911,-28.72651],[24.7691,-28.72671],[24.7691,-28.72682],[24.7691,-28.72692],[24.76911,-28.7271],[24.76911,-28.72728],[24.76912,-28.72745],[24.76913,-28.72758],[24.76915,-28.72772],[24.76917,-28.72791],[24.76918,-28.72811],[24.7692,-28.7283],[24.76922,-28.7285],[24.76924,-28.72868],[24.76926,-28.72886],[24.76927,-28.72904],[24.76929,-28.72919],[24.7693,-28.72931],[24.76931,-28.72942],[24.76933,-28.72957],[24.76934,-28.72971],[24.76935,-28.72985],[24.76937,-28.73],[24.76938,-28.73015],[24.76939,-28.73028],[24.7694,-28.7304],[24.76942,-28.73052],[24.76943,-28.73063],[24.76944,-28.73077],[24.76945,-28.73091],[24.76947,-28.73106],[24.76948,-28.73121],[24.76949,-28.73132],[24.7695,-28.73143],[24.76951,-28.7315],[24.76952,-28.73161],[24.76953,-28.73173],[24.76955,-28.7319],[24.76956,-28.73208],[24.76958,-28.73225],[24.7696,-28.73242],[24.76961,-28.7326],[24.76963,-28.73278],[24.76965,-28.73297],[24.76967,-28.73315],[24.76969,-28.73334],[24.76971,-28.73352],[24.76972,-28.73371],[24.76974,-28.73389],[24.76976,-28.73409],[24.76978,-28.73429],[24.76979,-28.73449],[24.76981,-28.73469],[24.76982,-28.73489],[24.76984,-28.73504],[24.76986,-28.73519],[24.76987,-28.73535],[24.76989,-28.73553],[24.76991,-28.73571],[24.76992,-28.73589],[24.76994,-28.73606],[24.76996,-28.73624],[24.76998,-28.73642],[24.77,-28.73663],[24.77002,-28.73683],[24.77003,-28.73697],[24.77005,-28.73712],[24.77006,-28.73726],[24.77008,-28.73738],[24.7701,-28.7375],[24.77012,-28.73762],[24.77014,-28.73773],[24.77016,-28.73785],[24.7702,-28.73798],[24.77023,-28.7381],[24.77027,-28.73822],[24.77032,-28.73832],[24.77036,-28.73843],[24.77042,-28.73854],[24.77046,-28.73861],[24.77053,-28.73873],[24.77058,-28.73882],[24.77068,-28.73895],[24.77079,-28.73908],[24.77093,-28.73924],[24.77102,-28.73932],[24.77116,-28.73945],[24.77128,-28.73955],[24.77141,-28.73966],[24.77153,-28.73976],[24.77169,-28.73989],[24.77184,-28.74002],[24.772,-28.74015],[24.77216,-28.74028],[24.77226,-28.74036],[24.77236,-28.74044],[24.77248,-28.74052],[24.7726,-28.74061],[24.7727,-28.74067],[24.7728,-28.74074],[24.77298,-28.74083],[24.77315,-28.74093],[24.77332,-28.74101],[24.77349,-28.74109],[24.77365,-28.74118],[24.77382,-28.74126],[24.77401,-28.74135],[24.77421,-28.74143],[24.77432,-28.74148],[24.77443,-28.74152],[24.77463,-28.74158],[24.77481,-28.74164],[24.77493,-28.74167],[24.77506,-28.7417],[24.77528,-28.74175],[24.77547,-28.74179],[24.77559,-28.74182],[24.77572,-28.74184],[24.77589,-28.74187],[24.77609,-28.74189],[24.77628,-28.74191],[24.77644,-28.74193],[24.7766,-28.74194],[24.77674,-28.74196],[24.77689,-28.74198],[24.77711,-28.74202],[24.77731,-28.74207],[24.77748,-28.74211],[24.77766,-28.74217],[24.77782,-28.74223],[24.77799,-28.74229],[24.77818,-28.74236],[24.77837,-28.74243],[24.77856,-28.7425],[24.77876,-28.74258],[24.77895,-28.74265],[24.77915,-28.74273],[24.77934,-28.7428],[24.77954,-28.74287],[24.77973,-28.74295],[24.77993,-28.74302],[24.78012,-28.7431],[24.78032,-28.74317],[24.78051,-28.74324],[24.78071,-28.74332],[24.7809,-28.74339],[24.7811,-28.74346],[24.78129,-28.74354],[24.78149,-28.74361]]}}