{"type":"FeatureCollection","features":[{"type":"Feature","id":"w-216999554","properties":{"area":"yes","public_transport":"platform","railway":"platform","ref":"5","train":"yes"},"geometry":{"type":"LineString","coordinates":[[24.0136189,-30.6522515],[24.0135521,-30.6520045],[24.0135277,-30.6517877],[24.0134528,-30.6499384],[24.0133745,-30.6481396],[24.0132959,-30.6481377],[24.0134507,-30.651964],[24.01347,-30.6519626],[24.0135103,-30.6519619],[24.0135198,-30.6520357],[24.0135841,-30.6522632],[24.0136189,-30.6522515]]}},{"type":"Feature","id":"w-222233728","properties":{"public_transport":"platform","railway":"platform","ref":"3","train":"yes"},"geometry":{"type":"LineString","coordinates":[[24.0137695,-30.6520375],[24.0138074,-30.6520319],[24.0136251,-30.648127],[24.0135821,-30.6481238]]}},{"type":"Feature","id":"w-261051528","properties":{"public_transport":"platform","railway":"platform","ref":"4","train":"yes"},"geometry":{"type":"LineString","coordinates":[[24.0135821,-30.6481238],[24.0135372,-30.6481205],[24.013653,-30.6508859],[24.0136879,-30.6515136],[24.0137412,-30.6520417],[24.0137695,-30.6520375]]}}]}